{
  "type": "FeatureCollection",
  "features": [
    {
      "type": "Feature",
      "geometry": {
        "type": "LineString",
        "coordinates": [
          [
            -4.004484,
            50.488352,
            183.0,
            0.0
          ],
          [
            -4.002853,
            50.488592,
            194.0,
            0.07381
          ],
          [
            -4.000958,
            50.489762,
            204.0,
            0.190097
          ],
          [
            -3.995543,
            50.491278,
            246.0,
            0.450851
          ],
          [
            -3.99481,
            50.491345,
            248.0,
            0.483502
          ],
          [
            -3.994633,
            50.491562,
            253.0,
            0.500411
          ],
          [
            -3.993008,
            50.491803,
            255.0,
            0.573974
          ],
          [
            -3.991681,
            50.492287,
            260.0,
            0.641374
          ],
          [
            -3.989632,
            50.492304,
            264.0,
            0.731729
          ],
          [
            -3.988103,
            50.49264,
            263.0,
            0.803035
          ],
          [
            -3.987972,
            50.492794,
            259.0,
            0.815146
          ],
          [
            -3.988371,
            50.493379,
            259.0,
            0.859243
          ],
          [
            -3.988395,
            50.494094,
            257.0,
            0.908675
          ],
          [
            -3.986323,
            50.496043,
            253.0,
            1.071445
          ],
          [
            -3.987234,
            50.496111,
            246.0,
            1.111885
          ],
          [
            -3.988519,
            50.495913,
            231.0,
            1.17017
          ],
          [
            -3.988992,
            50.496038,
            231.0,
            1.192743
          ],
          [
            -3.990159,
            50.495688,
            227.0,
            1.2496
          ],
          [
            -3.992412,
            50.496213,
            221.0,
            1.355354
          ],
          [
            -3.994677,
            50.496229,
            218.0,
            1.455223
          ],
          [
            -3.994357,
            50.497272,
            202.0,
            1.528683
          ],
          [
            -3.994524,
            50.497633,
            204.0,
            1.5547
          ],
          [
            -3.995261,
            50.497937,
            199.0,
            1.593395
          ],
          [
            -3.995381,
            50.498332,
            197.0,
            1.621205
          ],
          [
            -3.995029,
            50.498616,
            191.0,
            1.646229
          ],
          [
            -3.995056,
            50.498874,
            186.0,
            1.664101
          ],
          [
            -3.995687,
            50.499452,
            184.0,
            1.712784
          ],
          [
            -3.996217,
            50.49951,
            188.0,
            1.736491
          ],
          [
            -3.99602,
            50.499628,
            191.0,
            1.748406
          ],
          [
            -3.996433,
            50.499924,
            193.0,
            1.775794
          ],
          [
            -3.996695,
            50.500689,
            214.0,
            1.829918
          ],
          [
            -3.997078,
            50.501087,
            226.0,
            1.862196
          ],
          [
            -3.996795,
            50.501023,
            223.0,
            1.875434
          ],
          [
            -3.997211,
            50.501247,
            220.0,
            1.899435
          ],
          [
            -3.997657,
            50.501764,
            217.0,
            1.940222
          ],
          [
            -4.000187,
            50.502863,
            209.0,
            2.075166
          ],
          [
            -4.001975,
            50.503087,
            203.0,
            2.155493
          ],
          [
            -4.002588,
            50.503226,
            195.0,
            2.184173
          ],
          [
            -4.002997,
            50.503512,
            195.0,
            2.210928
          ],
          [
            -4.004573,
            50.503752,
            189.0,
            2.282356
          ],
          [
            -4.004017,
            50.503681,
            194.0,
            2.307352
          ],
          [
            -4.004488,
            50.50345,
            189.0,
            2.333544
          ],
          [
            -4.004475,
            50.502576,
            172.0,
            2.393958
          ],
          [
            -4.004212,
            50.502042,
            166.0,
            2.432647
          ],
          [
            -4.003548,
            50.50143,
            160.0,
            2.484089
          ],
          [
            -4.00449,
            50.501547,
            153.0,
            2.526397
          ],
          [
            -4.005584,
            50.500802,
            139.0,
            2.59695
          ],
          [
            -4.005295,
            50.500208,
            148.0,
            2.639939
          ],
          [
            -4.005462,
            50.499782,
            146.0,
            2.670291
          ],
          [
            -4.006132,
            50.499478,
            147.0,
            2.70654
          ],
          [
            -4.006593,
            50.498759,
            168.0,
            2.760233
          ],
          [
            -4.006785,
            50.498106,
            180.0,
            2.806155
          ],
          [
            -4.006306,
            50.497456,
            186.0,
            2.855799
          ],
          [
            -4.005882,
            50.497493,
            188.0,
            2.874667
          ],
          [
            -4.003983,
            50.496246,
            195.0,
            2.99483
          ],
          [
            -4.002079,
            50.493965,
            202.0,
            3.17345
          ],
          [
            -4.002334,
            50.493328,
            202.0,
            3.218893
          ],
          [
            -4.002243,
            50.491425,
            202.0,
            3.35049
          ],
          [
            -4.00201,
            50.490487,
            202.0,
            3.416134
          ],
          [
            -4.001454,
            50.489413,
            203.0,
            3.494313
          ],
          [
            -4.002706,
            50.488621,
            193.0,
            3.572061
          ],
          [
            -4.004488,
            50.488395,
            183.0,
            3.652179
          ]
        ]
      },
      "properties": {
        "name": "2026-08-06 @ 18-17-27",
        "date": "2026-08-06T18:17:27",
        "distance_km": 5.88,
        "distance_mi": 3.65,
        "duration": "2:22:05",
        "ascent": 151,
        "descent": -151,
        "center_lat": 50.49579018365566,
        "center_lon": -3.9980955161701175,
        "place_name": "Gutter Tor Car Park, Edward's Path, Sheepstor",
        "gridref": "SX 57902 67313",
        "googleMapsLink": "https://www.google.com/maps?q=50.488352,-4.004484",
        "download_link": "https://moorwalkers.github.io/track_downloads/2026-08-06_18-17-27.gpx",
        "ind_map_link": "https://moorwalkers.github.io/map.html?track_id=2026-08-06T18:17:27",
        "ind_map_link_os": "https://moorwalkers.github.io/map_os.html?track_id=2026-08-06T18:17:27",
        "elevation_profile_link": "https://moorwalkers.github.io/elevation_profiles/2026-08-06_18-17-27.png",
        "cluster_label": 17,
        "colour": "darkred"
      }
    }
  ]
}