{
  "type": "FeatureCollection",
  "features": [
    {
      "type": "Feature",
      "geometry": {
        "type": "LineString",
        "coordinates": [
          [
            -3.808917,
            50.607463,
            410.0,
            0.0
          ],
          [
            -3.80922,
            50.607485,
            408.0,
            0.013414
          ],
          [
            -3.809438,
            50.607695,
            405.0,
            0.030811
          ],
          [
            -3.809466,
            50.609041,
            394.0,
            0.123857
          ],
          [
            -3.809722,
            50.609588,
            391.0,
            0.163308
          ],
          [
            -3.810606,
            50.610676,
            373.0,
            0.247969
          ],
          [
            -3.810786,
            50.611332,
            355.0,
            0.293999
          ],
          [
            -3.81114,
            50.611752,
            369.0,
            0.326941
          ],
          [
            -3.81194,
            50.612258,
            368.0,
            0.376553
          ],
          [
            -3.811925,
            50.612972,
            366.0,
            0.42591
          ],
          [
            -3.812336,
            50.613844,
            360.0,
            0.488837
          ],
          [
            -3.812475,
            50.614589,
            354.0,
            0.540694
          ],
          [
            -3.813264,
            50.615813,
            359.0,
            0.632138
          ],
          [
            -3.812394,
            50.617274,
            351.0,
            0.74013
          ],
          [
            -3.81239,
            50.61772,
            349.0,
            0.770959
          ],
          [
            -3.812694,
            50.618226,
            345.0,
            0.808403
          ],
          [
            -3.813418,
            50.620725,
            323.0,
            0.984048
          ],
          [
            -3.814331,
            50.622065,
            328.0,
            1.084998
          ],
          [
            -3.814784,
            50.623042,
            317.0,
            1.155406
          ],
          [
            -3.814795,
            50.623664,
            311.0,
            1.198403
          ],
          [
            -3.815034,
            50.62434,
            309.0,
            1.246297
          ],
          [
            -3.814622,
            50.624768,
            306.0,
            1.280987
          ],
          [
            -3.814199,
            50.625809,
            303.0,
            1.355308
          ],
          [
            -3.814538,
            50.62611,
            307.0,
            1.380902
          ],
          [
            -3.817302,
            50.627142,
            308.0,
            1.521818
          ],
          [
            -3.816968,
            50.627008,
            307.0,
            1.53918
          ],
          [
            -3.817092,
            50.626937,
            316.0,
            1.546516
          ],
          [
            -3.817797,
            50.626906,
            320.0,
            1.577587
          ],
          [
            -3.819697,
            50.627481,
            312.0,
            1.670098
          ],
          [
            -3.819945,
            50.627365,
            313.0,
            1.683632
          ],
          [
            -3.820417,
            50.626713,
            275.0,
            1.733249
          ],
          [
            -3.820803,
            50.626531,
            322.0,
            1.754374
          ],
          [
            -3.820353,
            50.626754,
            323.0,
            1.779456
          ],
          [
            -3.819879,
            50.627449,
            309.0,
            1.831821
          ],
          [
            -3.821131,
            50.627153,
            310.0,
            1.890548
          ],
          [
            -3.822599,
            50.627619,
            311.0,
            1.962683
          ],
          [
            -3.823438,
            50.627476,
            315.0,
            2.000872
          ],
          [
            -3.82544,
            50.627651,
            317.0,
            2.089722
          ],
          [
            -3.826138,
            50.627971,
            318.0,
            2.127551
          ],
          [
            -3.827337,
            50.626935,
            347.0,
            2.216473
          ],
          [
            -3.827578,
            50.626283,
            362.0,
            2.262769
          ],
          [
            -3.827947,
            50.625826,
            365.0,
            2.298281
          ],
          [
            -3.829411,
            50.625246,
            386.0,
            2.374115
          ],
          [
            -3.830379,
            50.624262,
            402.0,
            2.454351
          ],
          [
            -3.830818,
            50.624212,
            406.0,
            2.473961
          ],
          [
            -3.831205,
            50.623856,
            410.0,
            2.503879
          ],
          [
            -3.832065,
            50.623657,
            421.0,
            2.544118
          ],
          [
            -3.833293,
            50.62309,
            430.0,
            2.610838
          ],
          [
            -3.83466,
            50.622206,
            443.0,
            2.696552
          ],
          [
            -3.835684,
            50.621896,
            456.0,
            2.746418
          ],
          [
            -3.835926,
            50.621584,
            457.0,
            2.770467
          ],
          [
            -3.836812,
            50.621409,
            463.0,
            2.811261
          ],
          [
            -3.838855,
            50.620415,
            490.0,
            2.92436
          ],
          [
            -3.839864,
            50.620157,
            499.0,
            2.97218
          ],
          [
            -3.840859,
            50.618774,
            508.0,
            3.077313
          ],
          [
            -3.840457,
            50.617328,
            518.0,
            3.178815
          ],
          [
            -3.840715,
            50.61667,
            519.0,
            3.225691
          ],
          [
            -3.841049,
            50.616331,
            514.0,
            3.253346
          ],
          [
            -3.83979,
            50.615418,
            495.0,
            3.3373
          ],
          [
            -3.83964,
            50.614538,
            482.0,
            3.398484
          ],
          [
            -3.838764,
            50.612971,
            472.0,
            3.513446
          ],
          [
            -3.838056,
            50.613051,
            474.0,
            3.545072
          ],
          [
            -3.837223,
            50.612895,
            483.0,
            3.583261
          ],
          [
            -3.835828,
            50.61102,
            528.0,
            3.726654
          ],
          [
            -3.8349,
            50.610551,
            541.0,
            3.778778
          ],
          [
            -3.83425,
            50.610386,
            546.0,
            3.809558
          ],
          [
            -3.831777,
            50.610963,
            541.0,
            3.925409
          ],
          [
            -3.828749,
            50.610757,
            531.0,
            4.059347
          ],
          [
            -3.825663,
            50.611694,
            520.0,
            4.209738
          ],
          [
            -3.822836,
            50.612186,
            507.0,
            4.338641
          ],
          [
            -3.820732,
            50.611755,
            497.0,
            4.435855
          ],
          [
            -3.819842,
            50.611891,
            490.0,
            4.476112
          ],
          [
            -3.81673,
            50.610728,
            445.0,
            4.634846
          ],
          [
            -3.81609,
            50.610214,
            436.0,
            4.680175
          ],
          [
            -3.814186,
            50.609369,
            427.0,
            4.782276
          ],
          [
            -3.812264,
            50.608208,
            415.0,
            4.898839
          ],
          [
            -3.808877,
            50.607445,
            400.0,
            5.056877
          ]
        ]
      },
      "properties": {
        "name": "2026-08-20 @ 18-06-19",
        "date": "2026-08-20T18:06:19",
        "distance_km": 8.14,
        "distance_mi": 5.06,
        "duration": "2:25:15",
        "ascent": 245,
        "descent": -255,
        "center_lat": 50.61752940261203,
        "center_lon": -3.823712625340771,
        "place_name": "Manaton, Teignbridge, Devon",
        "gridref": "SX 72097 80201",
        "googleMapsLink": "https://www.google.com/maps?q=50.607463,-3.808917",
        "download_link": "https://moorwalkers.github.io/track_downloads/2026-08-20_18-06-19.gpx",
        "ind_map_link": "https://moorwalkers.github.io/map.html?track_id=2026-08-20T18:06:19",
        "ind_map_link_os": "https://moorwalkers.github.io/map_os.html?track_id=2026-08-20T18:06:19",
        "elevation_profile_link": "https://moorwalkers.github.io/elevation_profiles/2026-08-20_18-06-19.png",
        "cluster_label": 2,
        "colour": "darkred"
      }
    }
  ]
}