{
  "type": "FeatureCollection",
  "features": [
    {
      "type": "Feature",
      "geometry": {
        "type": "LineString",
        "coordinates": [
          [
            -3.72047,
            50.429236,
            126.0,
            0.0
          ],
          [
            -3.720004,
            50.429259,
            126.0,
            0.020636
          ],
          [
            -3.719687,
            50.429853,
            130.0,
            0.064013
          ],
          [
            -3.718688,
            50.430498,
            134.0,
            0.126727
          ],
          [
            -3.716238,
            50.431523,
            125.0,
            0.256031
          ],
          [
            -3.715404,
            50.431702,
            121.0,
            0.294875
          ],
          [
            -3.713481,
            50.430262,
            141.0,
            0.425699
          ],
          [
            -3.713294,
            50.429954,
            148.0,
            0.448532
          ],
          [
            -3.713362,
            50.428888,
            155.0,
            0.522275
          ],
          [
            -3.712755,
            50.42792,
            159.0,
            0.594351
          ],
          [
            -3.711849,
            50.427406,
            167.0,
            0.647853
          ],
          [
            -3.71082,
            50.426434,
            174.0,
            0.728958
          ],
          [
            -3.709776,
            50.426024,
            182.0,
            0.783069
          ],
          [
            -3.705898,
            50.423905,
            176.0,
            1.008399
          ],
          [
            -3.70547,
            50.423258,
            179.0,
            1.056949
          ],
          [
            -3.705582,
            50.423098,
            181.0,
            1.069064
          ],
          [
            -3.706962,
            50.422634,
            174.0,
            1.137926
          ],
          [
            -3.710707,
            50.421824,
            152.0,
            1.312519
          ],
          [
            -3.712329,
            50.421608,
            140.0,
            1.385684
          ],
          [
            -3.713811,
            50.421708,
            144.0,
            1.451491
          ],
          [
            -3.715368,
            50.420339,
            144.0,
            1.568458
          ],
          [
            -3.717484,
            50.419545,
            165.0,
            1.676826
          ],
          [
            -3.719699,
            50.419081,
            148.0,
            1.779766
          ],
          [
            -3.719927,
            50.418934,
            144.0,
            1.79407
          ],
          [
            -3.719958,
            50.418617,
            137.0,
            1.816024
          ],
          [
            -3.720425,
            50.41842,
            139.0,
            1.840737
          ],
          [
            -3.72097,
            50.417868,
            145.0,
            1.885848
          ],
          [
            -3.72142,
            50.417715,
            149.0,
            1.90836
          ],
          [
            -3.721763,
            50.417862,
            136.0,
            1.9266
          ],
          [
            -3.721987,
            50.419157,
            160.0,
            2.016655
          ],
          [
            -3.722875,
            50.420911,
            185.0,
            2.144075
          ],
          [
            -3.723919,
            50.422189,
            201.0,
            2.243716
          ],
          [
            -3.724512,
            50.422604,
            199.0,
            2.282556
          ],
          [
            -3.725765,
            50.423075,
            204.0,
            2.346752
          ],
          [
            -3.72735,
            50.423424,
            197.0,
            2.420782
          ],
          [
            -3.727316,
            50.423631,
            197.0,
            2.435168
          ],
          [
            -3.725444,
            50.424241,
            192.0,
            2.527962
          ],
          [
            -3.725185,
            50.424604,
            195.0,
            2.555536
          ],
          [
            -3.72239,
            50.425587,
            183.0,
            2.696418
          ],
          [
            -3.722142,
            50.426149,
            185.0,
            2.736777
          ],
          [
            -3.719436,
            50.427017,
            177.0,
            2.870475
          ],
          [
            -3.719391,
            50.427186,
            173.0,
            2.882324
          ],
          [
            -3.719038,
            50.427344,
            170.0,
            2.901356
          ],
          [
            -3.718804,
            50.428051,
            159.0,
            2.951304
          ],
          [
            -3.719601,
            50.429197,
            143.0,
            3.03798
          ],
          [
            -3.719379,
            50.429919,
            137.0,
            3.088837
          ],
          [
            -3.718952,
            50.430259,
            135.0,
            3.118965
          ],
          [
            -3.719679,
            50.429786,
            133.0,
            3.164782
          ],
          [
            -3.719993,
            50.429254,
            132.0,
            3.20408
          ],
          [
            -3.72063,
            50.42921,
            125.0,
            3.232369
          ]
        ]
      },
      "properties": {
        "name": "2026-08-27 @ 18-07-25",
        "date": "2026-08-27T18:07:25",
        "distance_km": 5.2,
        "distance_mi": 3.23,
        "duration": "1:29:48",
        "ascent": 106,
        "descent": -107,
        "center_lat": 50.424728877157406,
        "center_lon": -3.716940769490618,
        "place_name": "Harberton, South Hams, Devon",
        "gridref": "SX 77896 60235",
        "googleMapsLink": "https://www.google.com/maps?q=50.429236,-3.72047",
        "download_link": "https://moorwalkers.github.io/track_downloads/2026-08-27_18-07-25.gpx",
        "ind_map_link": "https://moorwalkers.github.io/map.html?track_id=2026-08-27T18:07:25",
        "ind_map_link_os": "https://moorwalkers.github.io/map_os.html?track_id=2026-08-27T18:07:25",
        "elevation_profile_link": "https://moorwalkers.github.io/elevation_profiles/2026-08-27_18-07-25.png",
        "cluster_label": 14,
        "colour": "darkred"
      }
    }
  ]
}