{
  "type": "FeatureCollection",
  "features": [
    {
      "type": "Feature",
      "geometry": {
        "type": "LineString",
        "coordinates": [
          [
            -3.900526,
            50.637563,
            251.0,
            0.0
          ],
          [
            -3.902073,
            50.638378,
            267.0,
            0.088306
          ],
          [
            -3.902811,
            50.638448,
            257.0,
            0.121105
          ],
          [
            -3.904891,
            50.639055,
            272.0,
            0.221702
          ],
          [
            -3.905717,
            50.63902,
            269.0,
            0.25809
          ],
          [
            -3.906279,
            50.638442,
            276.0,
            0.305064
          ],
          [
            -3.907852,
            50.637726,
            280.0,
            0.390095
          ],
          [
            -3.90794,
            50.635043,
            298.0,
            0.57559
          ],
          [
            -3.90868,
            50.634462,
            310.0,
            0.627273
          ],
          [
            -3.91031,
            50.633691,
            298.0,
            0.716575
          ],
          [
            -3.912014,
            50.633918,
            295.0,
            0.79311
          ],
          [
            -3.912763,
            50.633596,
            295.0,
            0.832854
          ],
          [
            -3.913423,
            50.633585,
            291.0,
            0.861879
          ],
          [
            -3.913616,
            50.632918,
            300.0,
            0.908757
          ],
          [
            -3.914765,
            50.631701,
            308.0,
            1.00688
          ],
          [
            -3.915747,
            50.631805,
            324.0,
            1.050646
          ],
          [
            -3.916171,
            50.632044,
            336.0,
            1.075553
          ],
          [
            -3.916674,
            50.63185,
            342.0,
            1.101415
          ],
          [
            -3.917779,
            50.631985,
            347.0,
            1.150882
          ],
          [
            -3.919048,
            50.631881,
            353.0,
            1.207133
          ],
          [
            -3.92113,
            50.632506,
            372.0,
            1.308346
          ],
          [
            -3.923702,
            50.632223,
            367.0,
            1.423098
          ],
          [
            -3.925973,
            50.631759,
            372.0,
            1.527962
          ],
          [
            -3.926247,
            50.631844,
            373.0,
            1.541365
          ],
          [
            -3.926219,
            50.632139,
            375.0,
            1.561793
          ],
          [
            -3.926295,
            50.63186,
            371.0,
            1.581365
          ],
          [
            -3.925319,
            50.630678,
            369.0,
            1.67365
          ],
          [
            -3.924705,
            50.629249,
            358.0,
            1.776047
          ],
          [
            -3.92505,
            50.627823,
            352.0,
            1.875776
          ],
          [
            -3.924484,
            50.627455,
            351.0,
            1.911361
          ],
          [
            -3.923713,
            50.626568,
            345.0,
            1.98142
          ],
          [
            -3.918995,
            50.625387,
            363.0,
            2.204348
          ],
          [
            -3.914728,
            50.623903,
            393.0,
            2.418177
          ],
          [
            -3.91194,
            50.623857,
            398.0,
            2.540808
          ],
          [
            -3.909199,
            50.623182,
            395.0,
            2.670048
          ],
          [
            -3.907854,
            50.623154,
            394.0,
            2.729221
          ],
          [
            -3.906309,
            50.622396,
            377.0,
            2.815014
          ],
          [
            -3.904089,
            50.622002,
            355.0,
            2.91636
          ],
          [
            -3.902106,
            50.620516,
            340.0,
            3.051097
          ],
          [
            -3.901359,
            50.620299,
            335.0,
            3.087208
          ],
          [
            -3.899572,
            50.620081,
            329.0,
            3.167221
          ],
          [
            -3.898543,
            50.620444,
            325.0,
            3.218961
          ],
          [
            -3.897858,
            50.620954,
            317.0,
            3.26533
          ],
          [
            -3.896195,
            50.621011,
            314.0,
            3.338563
          ],
          [
            -3.8948,
            50.621328,
            337.0,
            3.403701
          ],
          [
            -3.89438,
            50.624299,
            338.0,
            3.609892
          ],
          [
            -3.894272,
            50.626961,
            334.0,
            3.793956
          ],
          [
            -3.89441,
            50.627904,
            327.0,
            3.85942
          ],
          [
            -3.893059,
            50.630734,
            319.0,
            4.063854
          ],
          [
            -3.893119,
            50.631001,
            318.0,
            4.082497
          ],
          [
            -3.893952,
            50.632338,
            309.0,
            4.181905
          ],
          [
            -3.893877,
            50.632516,
            308.0,
            4.194643
          ],
          [
            -3.894193,
            50.632789,
            304.0,
            4.218075
          ],
          [
            -3.894981,
            50.634214,
            288.0,
            4.322488
          ],
          [
            -3.895528,
            50.636089,
            262.0,
            4.454304
          ],
          [
            -3.896606,
            50.635914,
            250.0,
            4.503212
          ],
          [
            -3.895593,
            50.636189,
            261.0,
            4.55163
          ],
          [
            -3.896581,
            50.635878,
            254.0,
            4.60009
          ],
          [
            -3.897431,
            50.634947,
            253.0,
            4.674504
          ],
          [
            -3.897734,
            50.63553,
            248.0,
            4.716947
          ],
          [
            -3.898297,
            50.63582,
            244.0,
            4.748796
          ],
          [
            -3.898271,
            50.636217,
            242.0,
            4.776261
          ],
          [
            -3.897514,
            50.636777,
            248.0,
            4.827307
          ],
          [
            -3.898581,
            50.636781,
            242.0,
            4.874211
          ],
          [
            -3.900237,
            50.637184,
            239.0,
            4.952154
          ],
          [
            -3.900302,
            50.637363,
            242.0,
            4.964853
          ]
        ]
      },
      "properties": {
        "name": "2026-10-01 @ 18-13-03",
        "date": "2026-10-01T18:13:03",
        "distance_km": 7.99,
        "distance_mi": 4.96,
        "duration": "2:36:04",
        "ascent": 145,
        "descent": -154,
        "center_lat": 50.62965912129294,
        "center_lon": -3.907774731244528,
        "place_name": "Dartmoor Forest, West Devon, Devon",
        "gridref": "SX 65701 83710",
        "googleMapsLink": "https://www.google.com/maps?q=50.637563,-3.900526",
        "download_link": "https://moorwalkers.github.io/track_downloads/2026-10-01_18-13-03.gpx",
        "ind_map_link": "https://moorwalkers.github.io/map.html?track_id=2026-10-01T18:13:03",
        "elevation_profile_link": "https://moorwalkers.github.io/elevation_profiles/2026-10-01_18-13-03.png",
        "thumbnail_link": "https://moorwalkers.github.io/track_thumbnails/2026-10-01_18-13-03.png",
        "cluster_label": 22,
        "colour": "darkred"
      }
    }
  ]
}