{
  "type": "FeatureCollection",
  "features": [
    {
      "type": "Feature",
      "geometry": {
        "type": "LineString",
        "coordinates": [
          [
            -4.049535,
            50.504709,
            223.0,
            0.0
          ],
          [
            -4.049907,
            50.503861,
            229.0,
            0.060865
          ],
          [
            -4.050102,
            50.502838,
            230.0,
            0.132096
          ],
          [
            -4.050088,
            50.501883,
            228.0,
            0.198109
          ],
          [
            -4.0499,
            50.50138,
            223.0,
            0.233851
          ],
          [
            -4.048962,
            50.500253,
            233.0,
            0.322045
          ],
          [
            -4.048545,
            50.499987,
            234.0,
            0.348045
          ],
          [
            -4.047527,
            50.498448,
            223.0,
            0.463501
          ],
          [
            -4.047204,
            50.498296,
            227.0,
            0.481198
          ],
          [
            -4.047477,
            50.497206,
            217.0,
            0.557495
          ],
          [
            -4.047394,
            50.496861,
            217.0,
            0.58162
          ],
          [
            -4.04589,
            50.496255,
            178.0,
            0.660052
          ],
          [
            -4.044783,
            50.496401,
            157.0,
            0.709891
          ],
          [
            -4.044673,
            50.496291,
            157.0,
            0.71891
          ],
          [
            -4.044874,
            50.496299,
            157.0,
            0.727789
          ],
          [
            -4.044608,
            50.49626,
            158.0,
            0.739823
          ],
          [
            -4.044439,
            50.495451,
            156.0,
            0.796235
          ],
          [
            -4.044703,
            50.49443,
            158.0,
            0.867761
          ],
          [
            -4.044603,
            50.49404,
            156.0,
            0.895076
          ],
          [
            -4.044837,
            50.493395,
            155.0,
            0.940837
          ],
          [
            -4.044828,
            50.492634,
            151.0,
            0.993439
          ],
          [
            -4.045071,
            50.492075,
            147.0,
            1.033535
          ],
          [
            -4.044783,
            50.491243,
            133.0,
            1.092429
          ],
          [
            -4.045029,
            50.490665,
            138.0,
            1.133827
          ],
          [
            -4.044731,
            50.490358,
            125.0,
            1.158786
          ],
          [
            -4.044989,
            50.490031,
            125.0,
            1.18409
          ],
          [
            -4.046811,
            50.489053,
            117.0,
            1.289088
          ],
          [
            -4.048354,
            50.488435,
            106.0,
            1.369426
          ],
          [
            -4.048867,
            50.488382,
            105.0,
            1.392343
          ],
          [
            -4.050432,
            50.487494,
            98.0,
            1.484701
          ],
          [
            -4.053252,
            50.486354,
            83.0,
            1.63192
          ],
          [
            -4.053105,
            50.485884,
            82.0,
            1.665048
          ],
          [
            -4.052051,
            50.484833,
            75.0,
            1.75129
          ],
          [
            -4.051698,
            50.484663,
            73.0,
            1.770795
          ],
          [
            -4.050638,
            50.484626,
            73.0,
            1.817611
          ],
          [
            -4.051238,
            50.48411,
            82.0,
            1.862021
          ],
          [
            -4.051034,
            50.483538,
            80.0,
            1.902568
          ],
          [
            -4.05075,
            50.483247,
            86.0,
            1.926263
          ],
          [
            -4.050484,
            50.483091,
            92.0,
            1.942197
          ],
          [
            -4.048884,
            50.48301,
            95.0,
            2.012981
          ],
          [
            -4.046235,
            50.483215,
            99.0,
            2.130663
          ],
          [
            -4.045699,
            50.483379,
            102.0,
            2.156878
          ],
          [
            -4.044773,
            50.483989,
            99.0,
            2.215577
          ],
          [
            -4.044055,
            50.484185,
            97.0,
            2.250017
          ],
          [
            -4.042536,
            50.48381,
            108.0,
            2.321846
          ],
          [
            -4.042029,
            50.484427,
            122.0,
            2.369999
          ],
          [
            -4.04109,
            50.48491,
            131.0,
            2.423191
          ],
          [
            -4.040635,
            50.485592,
            139.0,
            2.474424
          ],
          [
            -4.040868,
            50.486053,
            140.0,
            2.507904
          ],
          [
            -4.041547,
            50.486684,
            133.0,
            2.560808
          ],
          [
            -4.041705,
            50.487732,
            143.0,
            2.633581
          ],
          [
            -4.041551,
            50.48806,
            152.0,
            2.657247
          ],
          [
            -4.041702,
            50.488075,
            148.0,
            2.663986
          ],
          [
            -4.041573,
            50.488116,
            154.0,
            2.670342
          ],
          [
            -4.041716,
            50.488508,
            150.0,
            2.698161
          ],
          [
            -4.041607,
            50.488769,
            150.0,
            2.716831
          ],
          [
            -4.041221,
            50.488697,
            160.0,
            2.734564
          ],
          [
            -4.041106,
            50.488869,
            163.0,
            2.74749
          ],
          [
            -4.040249,
            50.488942,
            163.0,
            2.785615
          ],
          [
            -4.039519,
            50.488634,
            177.0,
            2.824209
          ],
          [
            -4.039057,
            50.488633,
            176.0,
            2.844581
          ],
          [
            -4.036171,
            50.489409,
            168.0,
            2.982685
          ],
          [
            -4.035165,
            50.489463,
            173.0,
            3.027202
          ],
          [
            -4.03364,
            50.489915,
            155.0,
            3.101351
          ],
          [
            -4.033481,
            50.490081,
            154.0,
            3.114797
          ],
          [
            -4.032823,
            50.490048,
            155.0,
            3.143901
          ],
          [
            -4.032124,
            50.490857,
            152.0,
            3.207752
          ],
          [
            -4.03242,
            50.491145,
            152.0,
            3.231556
          ],
          [
            -4.032008,
            50.490999,
            155.0,
            3.252337
          ],
          [
            -4.033247,
            50.491421,
            150.0,
            3.314269
          ],
          [
            -4.033847,
            50.491859,
            153.0,
            3.354475
          ],
          [
            -4.033414,
            50.492648,
            158.0,
            3.412256
          ],
          [
            -4.032841,
            50.493241,
            158.0,
            3.460406
          ],
          [
            -4.032806,
            50.493628,
            164.0,
            3.4872
          ],
          [
            -4.034599,
            50.494686,
            152.0,
            3.594892
          ],
          [
            -4.035186,
            50.494163,
            155.0,
            3.639352
          ],
          [
            -4.035375,
            50.493143,
            160.0,
            3.710346
          ],
          [
            -4.037123,
            50.493305,
            157.0,
            3.788228
          ],
          [
            -4.039449,
            50.494588,
            154.0,
            3.92381
          ],
          [
            -4.041025,
            50.495103,
            153.0,
            4.001884
          ],
          [
            -4.041697,
            50.495001,
            153.0,
            4.03234
          ],
          [
            -4.041715,
            50.494745,
            157.0,
            4.050053
          ],
          [
            -4.042797,
            50.494007,
            154.0,
            4.119896
          ],
          [
            -4.044464,
            50.494075,
            147.0,
            4.193546
          ],
          [
            -4.044593,
            50.494428,
            155.0,
            4.2186
          ],
          [
            -4.044494,
            50.495474,
            156.0,
            4.291032
          ],
          [
            -4.044601,
            50.496255,
            149.0,
            4.345221
          ],
          [
            -4.045623,
            50.49418,
            174.0,
            4.495557
          ],
          [
            -4.045712,
            50.493313,
            174.0,
            4.555613
          ],
          [
            -4.045857,
            50.493311,
            181.0,
            4.562008
          ],
          [
            -4.045879,
            50.496312,
            190.0,
            4.769441
          ],
          [
            -4.045974,
            50.496525,
            191.0,
            4.784748
          ],
          [
            -4.045945,
            50.496342,
            178.0,
            4.797461
          ],
          [
            -4.046091,
            50.496364,
            196.0,
            4.804075
          ],
          [
            -4.047409,
            50.496913,
            216.0,
            4.873478
          ],
          [
            -4.046922,
            50.499551,
            230.0,
            5.057077
          ],
          [
            -4.047452,
            50.499983,
            233.0,
            5.094993
          ],
          [
            -4.047441,
            50.500259,
            233.0,
            5.114076
          ],
          [
            -4.047733,
            50.500743,
            219.0,
            5.149922
          ],
          [
            -4.049215,
            50.501718,
            222.0,
            5.243785
          ],
          [
            -4.050048,
            50.502896,
            227.0,
            5.333106
          ],
          [
            -4.04983,
            50.504249,
            227.0,
            5.427119
          ],
          [
            -4.049583,
            50.504831,
            224.0,
            5.468794
          ]
        ]
      },
      "properties": {
        "name": "2026-09-24 @ 18-08-54",
        "date": "2026-09-24T18:08:54",
        "distance_km": 8.8,
        "distance_mi": 5.47,
        "duration": "2:51:09",
        "ascent": 178,
        "descent": -177,
        "center_lat": 50.49236926884774,
        "center_lon": -4.043983725705523,
        "place_name": "B3212, Walkhampton, Dousland",
        "gridref": "SX 54757 69219",
        "googleMapsLink": "https://www.google.com/maps?q=50.504709,-4.049535",
        "download_link": "https://moorwalkers.github.io/track_downloads/2026-09-24_18-08-54.gpx",
        "ind_map_link": "https://moorwalkers.github.io/map.html?track_id=2026-09-24T18:08:54",
        "elevation_profile_link": "https://moorwalkers.github.io/elevation_profiles/2026-09-24_18-08-54.png",
        "thumbnail_link": "https://moorwalkers.github.io/track_thumbnails/2026-09-24_18-08-54.png",
        "cluster_label": 1,
        "colour": "darkred"
      }
    }
  ]
}