{
  "type": "FeatureCollection",
  "features": [
    {
      "type": "Feature",
      "geometry": {
        "type": "LineString",
        "coordinates": [
          [
            -3.882046,
            50.68015,
            248.45,
            0.0
          ],
          [
            -3.881439,
            50.680072,
            248.55,
            0.027195
          ],
          [
            -3.880714,
            50.679519,
            251.78,
            0.076979
          ],
          [
            -3.880965,
            50.679044,
            256.73,
            0.111604
          ],
          [
            -3.881545,
            50.678565,
            263.64,
            0.153398
          ],
          [
            -3.878838,
            50.676434,
            284.34,
            0.342687
          ],
          [
            -3.878725,
            50.676091,
            286.7,
            0.366881
          ],
          [
            -3.878072,
            50.675393,
            283.42,
            0.423037
          ],
          [
            -3.878019,
            50.674991,
            282.1,
            0.45089
          ],
          [
            -3.879162,
            50.673788,
            255.2,
            0.548083
          ],
          [
            -3.87962,
            50.673592,
            251.55,
            0.572304
          ],
          [
            -3.879637,
            50.673431,
            248.5,
            0.583521
          ],
          [
            -3.881419,
            50.672987,
            243.96,
            0.667606
          ],
          [
            -3.882662,
            50.672357,
            246.88,
            0.737421
          ],
          [
            -3.882794,
            50.671243,
            268.15,
            0.814596
          ],
          [
            -3.883188,
            50.670998,
            275.88,
            0.838851
          ],
          [
            -3.884629,
            50.670647,
            286.79,
            0.906628
          ],
          [
            -3.884583,
            50.669942,
            302.68,
            0.955381
          ],
          [
            -3.88382,
            50.668733,
            312.82,
            1.045451
          ],
          [
            -3.883433,
            50.667752,
            314.22,
            1.11535
          ],
          [
            -3.884539,
            50.667502,
            330.61,
            1.166904
          ],
          [
            -3.886115,
            50.666495,
            353.53,
            1.265055
          ],
          [
            -3.886612,
            50.666436,
            359.53,
            1.287275
          ],
          [
            -3.887431,
            50.665599,
            370.87,
            1.355414
          ],
          [
            -3.88807,
            50.665555,
            378.31,
            1.383635
          ],
          [
            -3.888229,
            50.665412,
            380.78,
            1.39577
          ],
          [
            -3.889059,
            50.663802,
            389.02,
            1.512874
          ],
          [
            -3.888976,
            50.662058,
            405.74,
            1.633493
          ],
          [
            -3.889366,
            50.660947,
            419.15,
            1.71214
          ],
          [
            -3.889681,
            50.660827,
            429.94,
            1.728307
          ],
          [
            -3.889419,
            50.660715,
            423.91,
            1.742197
          ],
          [
            -3.889512,
            50.660807,
            426.1,
            1.749755
          ],
          [
            -3.889369,
            50.660968,
            417.49,
            1.762525
          ],
          [
            -3.88981,
            50.661067,
            414.24,
            1.783102
          ],
          [
            -3.894578,
            50.660447,
            383.25,
            1.996885
          ],
          [
            -3.896901,
            50.660563,
            377.7,
            2.099279
          ],
          [
            -3.897926,
            50.660917,
            379.01,
            2.15053
          ],
          [
            -3.900872,
            50.663091,
            370.58,
            2.348884
          ],
          [
            -3.904346,
            50.666406,
            362.36,
            2.624207
          ],
          [
            -3.905809,
            50.667349,
            351.65,
            2.715732
          ],
          [
            -3.906571,
            50.667628,
            348.13,
            2.754355
          ],
          [
            -3.906571,
            50.667628,
            348.16,
            2.754355
          ],
          [
            -3.906571,
            50.667628,
            348.28,
            2.754355
          ],
          [
            -3.906576,
            50.667756,
            347.43,
            2.763157
          ],
          [
            -3.905722,
            50.667867,
            347.58,
            2.801444
          ],
          [
            -3.906682,
            50.668169,
            346.77,
            2.848472
          ],
          [
            -3.905787,
            50.66819,
            347.34,
            2.887829
          ],
          [
            -3.904725,
            50.667999,
            344.9,
            2.936294
          ],
          [
            -3.904562,
            50.667796,
            341.68,
            2.95204
          ],
          [
            -3.90505,
            50.66789,
            344.74,
            2.974439
          ],
          [
            -3.905206,
            50.66808,
            347.27,
            2.989256
          ],
          [
            -3.904879,
            50.66819,
            349.36,
            3.005521
          ],
          [
            -3.904751,
            50.668426,
            351.07,
            3.022717
          ],
          [
            -3.904873,
            50.669387,
            357.39,
            3.089416
          ],
          [
            -3.905343,
            50.670622,
            362.76,
            3.177221
          ],
          [
            -3.904787,
            50.670611,
            365.56,
            3.20166
          ],
          [
            -3.902185,
            50.671156,
            384.39,
            3.321988
          ],
          [
            -3.900182,
            50.672447,
            385.66,
            3.447315
          ],
          [
            -3.898291,
            50.673313,
            366.9,
            3.549666
          ],
          [
            -3.896993,
            50.673805,
            355.53,
            3.616079
          ],
          [
            -3.896285,
            50.673827,
            351.18,
            3.647202
          ],
          [
            -3.89618,
            50.673674,
            351.26,
            3.658719
          ],
          [
            -3.894988,
            50.674243,
            340.96,
            3.72418
          ],
          [
            -3.892901,
            50.675704,
            320.93,
            3.860558
          ],
          [
            -3.891236,
            50.675774,
            308.47,
            3.933874
          ],
          [
            -3.889255,
            50.674913,
            302.35,
            4.039295
          ],
          [
            -3.887611,
            50.675169,
            293.18,
            4.11364
          ],
          [
            -3.886379,
            50.675636,
            291.18,
            4.17665
          ],
          [
            -3.885516,
            50.67655,
            287.1,
            4.250344
          ],
          [
            -3.88261,
            50.677911,
            271.38,
            4.408885
          ],
          [
            -3.880722,
            50.679289,
            250.4,
            4.535213
          ],
          [
            -3.880628,
            50.679452,
            248.66,
            4.547181
          ],
          [
            -3.880793,
            50.679702,
            247.12,
            4.565878
          ],
          [
            -3.881264,
            50.679973,
            245.75,
            4.593796
          ],
          [
            -3.882587,
            50.68001,
            243.26,
            4.651961
          ]
        ]
      },
      "properties": {
        "name": "2026-09-17 @ 18-33-19",
        "date": "2026-09-17T18:33:19",
        "distance_km": 7.49,
        "distance_mi": 4.65,
        "duration": "2:27:03",
        "ascent": 211,
        "descent": -216,
        "center_lat": 50.67021100471389,
        "center_lon": -3.8916402416841613,
        "place_name": "Gidleigh, West Devon, Devon",
        "gridref": "SX 67128 88411",
        "googleMapsLink": "https://www.google.com/maps?q=50.68015033,-3.882046",
        "download_link": "https://moorwalkers.github.io/track_downloads/2026-09-17_18-33-19.gpx",
        "ind_map_link": "https://moorwalkers.github.io/map.html?track_id=2026-09-17T18:33:19",
        "elevation_profile_link": "https://moorwalkers.github.io/elevation_profiles/2026-09-17_18-33-19.png",
        "thumbnail_link": "https://moorwalkers.github.io/track_thumbnails/2026-09-17_18-33-19.png",
        "cluster_label": 22,
        "colour": "darkred"
      }
    }
  ]
}