{
  "type": "FeatureCollection",
  "features": [
    {
      "type": "Feature",
      "geometry": {
        "type": "LineString",
        "coordinates": [
          [
            -3.969922,
            50.425139,
            80.0,
            0.0
          ],
          [
            -3.970931,
            50.427078,
            98.0,
            0.141234
          ],
          [
            -3.970743,
            50.428284,
            102.0,
            0.225005
          ],
          [
            -3.970823,
            50.429371,
            108.0,
            0.300221
          ],
          [
            -3.969672,
            50.430042,
            113.0,
            0.369021
          ],
          [
            -3.969496,
            50.430392,
            118.0,
            0.394431
          ],
          [
            -3.968782,
            50.430913,
            116.0,
            0.44229
          ],
          [
            -3.968339,
            50.433222,
            166.0,
            0.603081
          ],
          [
            -3.968031,
            50.433861,
            162.0,
            0.649295
          ],
          [
            -3.967988,
            50.434568,
            186.0,
            0.698199
          ],
          [
            -3.96759,
            50.435166,
            191.0,
            0.743112
          ],
          [
            -3.966689,
            50.435673,
            200.0,
            0.796123
          ],
          [
            -3.965798,
            50.436522,
            211.0,
            0.866769
          ],
          [
            -3.96612,
            50.436821,
            218.0,
            0.891852
          ],
          [
            -3.966944,
            50.436989,
            229.0,
            0.930036
          ],
          [
            -3.968963,
            50.437803,
            234.0,
            1.035436
          ],
          [
            -3.970153,
            50.438138,
            244.0,
            1.092844
          ],
          [
            -3.970705,
            50.438129,
            240.0,
            1.117219
          ],
          [
            -3.971987,
            50.4387,
            239.0,
            1.186214
          ],
          [
            -3.971898,
            50.439043,
            249.0,
            1.210245
          ],
          [
            -3.972288,
            50.44026,
            255.0,
            1.296108
          ],
          [
            -3.973075,
            50.441551,
            273.0,
            1.391865
          ],
          [
            -3.973246,
            50.442086,
            278.0,
            1.429606
          ],
          [
            -3.97321,
            50.442729,
            279.0,
            1.474079
          ],
          [
            -3.973588,
            50.443286,
            284.0,
            1.516038
          ],
          [
            -3.973226,
            50.443779,
            302.0,
            1.553674
          ],
          [
            -3.973255,
            50.444506,
            307.0,
            1.603941
          ],
          [
            -3.973431,
            50.444779,
            312.0,
            1.624347
          ],
          [
            -3.973097,
            50.445243,
            318.0,
            1.659644
          ],
          [
            -3.972981,
            50.446203,
            328.0,
            1.726197
          ],
          [
            -3.973422,
            50.446854,
            330.0,
            1.775223
          ],
          [
            -3.974032,
            50.44719,
            338.0,
            1.810778
          ],
          [
            -3.974293,
            50.44931,
            380.0,
            1.957765
          ],
          [
            -3.97469,
            50.450856,
            369.0,
            2.066051
          ],
          [
            -3.974697,
            50.451707,
            374.0,
            2.124873
          ],
          [
            -3.97511,
            50.452386,
            378.0,
            2.17522
          ],
          [
            -3.975942,
            50.455791,
            421.0,
            2.41342
          ],
          [
            -3.976428,
            50.457018,
            426.0,
            2.5009
          ],
          [
            -3.977226,
            50.457301,
            417.0,
            2.54118
          ],
          [
            -3.978607,
            50.456825,
            404.0,
            2.610433
          ],
          [
            -3.979236,
            50.456282,
            392.0,
            2.657113
          ],
          [
            -3.979672,
            50.455529,
            375.0,
            2.712602
          ],
          [
            -3.980574,
            50.454795,
            366.0,
            2.777087
          ],
          [
            -3.981522,
            50.454328,
            346.0,
            2.829926
          ],
          [
            -3.980364,
            50.452688,
            341.0,
            2.954269
          ],
          [
            -3.979667,
            50.450865,
            342.0,
            3.083974
          ],
          [
            -3.979904,
            50.449782,
            327.0,
            3.159558
          ],
          [
            -3.981156,
            50.448954,
            310.0,
            3.23911
          ],
          [
            -3.981704,
            50.448758,
            306.0,
            3.266831
          ],
          [
            -3.982634,
            50.44799,
            297.0,
            3.333933
          ],
          [
            -3.98418,
            50.446037,
            270.0,
            3.485189
          ],
          [
            -3.985299,
            50.445047,
            255.0,
            3.569579
          ],
          [
            -3.986862,
            50.445119,
            242.0,
            3.638744
          ],
          [
            -3.987393,
            50.444767,
            230.0,
            3.672527
          ],
          [
            -3.987475,
            50.444484,
            226.0,
            3.69242
          ],
          [
            -3.987082,
            50.444091,
            222.0,
            3.72465
          ],
          [
            -3.986822,
            50.442802,
            202.0,
            3.814481
          ],
          [
            -3.985757,
            50.441592,
            186.0,
            3.910422
          ],
          [
            -3.985749,
            50.441381,
            182.0,
            3.925011
          ],
          [
            -3.986931,
            50.440582,
            169.0,
            4.000985
          ],
          [
            -3.988081,
            50.440668,
            167.0,
            4.052095
          ],
          [
            -3.986688,
            50.440518,
            170.0,
            4.114451
          ],
          [
            -3.986437,
            50.439459,
            159.0,
            4.188483
          ],
          [
            -3.985622,
            50.438982,
            153.0,
            4.237282
          ],
          [
            -3.984841,
            50.43756,
            137.0,
            4.341441
          ],
          [
            -3.982844,
            50.435099,
            112.0,
            4.533032
          ],
          [
            -3.983739,
            50.431964,
            96.0,
            4.753295
          ],
          [
            -3.983323,
            50.430666,
            87.0,
            4.844873
          ],
          [
            -3.982418,
            50.430884,
            92.0,
            4.887576
          ],
          [
            -3.980104,
            50.429901,
            82.0,
            5.010271
          ],
          [
            -3.979488,
            50.429286,
            81.0,
            5.060736
          ],
          [
            -3.978374,
            50.429092,
            80.0,
            5.111716
          ],
          [
            -3.977822,
            50.428604,
            82.0,
            5.15333
          ],
          [
            -3.977503,
            50.427869,
            74.0,
            5.20605
          ],
          [
            -3.977258,
            50.427689,
            72.0,
            5.222536
          ],
          [
            -3.976205,
            50.427536,
            82.0,
            5.270217
          ],
          [
            -3.974158,
            50.426157,
            96.0,
            5.401573
          ],
          [
            -3.973535,
            50.425559,
            97.0,
            5.451223
          ],
          [
            -3.972745,
            50.425285,
            96.0,
            5.490916
          ],
          [
            -3.970706,
            50.425229,
            91.0,
            5.581032
          ],
          [
            -3.969803,
            50.424831,
            84.0,
            5.629473
          ]
        ]
      },
      "properties": {
        "name": "2026-09-03 @ 18-10-27",
        "date": "2026-09-03T18:10:27",
        "distance_km": 9.06,
        "distance_mi": 5.63,
        "duration": "3:00:45",
        "ascent": 335,
        "descent": -331,
        "center_lat": 50.440199566618936,
        "center_lon": -3.977261768468842,
        "place_name": "Cornwood, South Hams, Devon",
        "gridref": "SX 60167 60219",
        "googleMapsLink": "https://www.google.com/maps?q=50.425139,-3.969922",
        "download_link": "https://moorwalkers.github.io/track_downloads/2026-09-03_18-10-27.gpx",
        "ind_map_link": "https://moorwalkers.github.io/map.html?track_id=2026-09-03T18:10:27",
        "ind_map_link_os": "https://moorwalkers.github.io/map_os.html?track_id=2026-09-03T18:10:27",
        "elevation_profile_link": "https://moorwalkers.github.io/elevation_profiles/2026-09-03_18-10-27.png",
        "cluster_label": 17,
        "colour": "darkred",
        "thumbnail_link": "https://moorwalkers.github.io/track_thumbnails/2026-09-03_18-10-27.png"
      }
    }
  ]
}