{
  "type": "FeatureCollection",
  "features": [
    {
      "type": "Feature",
      "geometry": {
        "type": "LineString",
        "coordinates": [
          [
            -3.862755,
            50.544439,
            343.0,
            0.0
          ],
          [
            -3.86171,
            50.543888,
            319.0,
            0.059741
          ],
          [
            -3.860846,
            50.543906,
            302.0,
            0.097816
          ],
          [
            -3.860317,
            50.543573,
            286.0,
            0.130568
          ],
          [
            -3.859196,
            50.543437,
            314.0,
            0.18083
          ],
          [
            -3.856639,
            50.542324,
            329.0,
            0.317223
          ],
          [
            -3.854144,
            50.541908,
            352.0,
            0.430819
          ],
          [
            -3.851851,
            50.542275,
            318.0,
            0.534955
          ],
          [
            -3.850872,
            50.542182,
            305.0,
            0.578553
          ],
          [
            -3.850543,
            50.542312,
            309.0,
            0.595604
          ],
          [
            -3.850229,
            50.542875,
            317.0,
            0.636904
          ],
          [
            -3.849536,
            50.543189,
            325.0,
            0.674358
          ],
          [
            -3.849272,
            50.543521,
            329.0,
            0.700084
          ],
          [
            -3.850287,
            50.543883,
            326.0,
            0.751316
          ],
          [
            -3.849668,
            50.544443,
            338.0,
            0.798661
          ],
          [
            -3.849554,
            50.545339,
            340.0,
            0.860797
          ],
          [
            -3.849832,
            50.545932,
            343.0,
            0.903575
          ],
          [
            -3.849701,
            50.546017,
            346.0,
            0.91181
          ],
          [
            -3.849777,
            50.546541,
            346.0,
            0.948184
          ],
          [
            -3.849636,
            50.54738,
            346.0,
            1.006508
          ],
          [
            -3.851978,
            50.548124,
            350.0,
            1.121762
          ],
          [
            -3.853003,
            50.549824,
            372.0,
            1.247641
          ],
          [
            -3.854026,
            50.551035,
            397.0,
            1.3427
          ],
          [
            -3.854698,
            50.55151,
            408.0,
            1.386901
          ],
          [
            -3.85484,
            50.55213,
            404.0,
            1.43021
          ],
          [
            -3.855858,
            50.552179,
            412.0,
            1.475168
          ],
          [
            -3.856218,
            50.552349,
            421.0,
            1.494902
          ],
          [
            -3.856246,
            50.552667,
            416.0,
            1.516917
          ],
          [
            -3.856653,
            50.551983,
            387.0,
            1.567479
          ],
          [
            -3.857438,
            50.551386,
            414.0,
            1.621311
          ],
          [
            -3.860107,
            50.54988,
            383.0,
            1.778319
          ],
          [
            -3.861495,
            50.549679,
            369.0,
            1.841005
          ],
          [
            -3.862544,
            50.550025,
            370.0,
            1.893026
          ],
          [
            -3.864065,
            50.550251,
            359.0,
            1.961807
          ],
          [
            -3.866511,
            50.550206,
            422.0,
            2.069572
          ],
          [
            -3.865592,
            50.549482,
            403.0,
            2.133933
          ],
          [
            -3.865238,
            50.548922,
            386.0,
            2.175663
          ],
          [
            -3.864146,
            50.548181,
            377.0,
            2.245921
          ],
          [
            -3.863508,
            50.547418,
            369.0,
            2.305679
          ],
          [
            -3.863154,
            50.545691,
            353.0,
            2.426065
          ],
          [
            -3.863202,
            50.545297,
            350.0,
            2.45338
          ],
          [
            -3.862783,
            50.544461,
            337.0,
            2.514041
          ]
        ]
      },
      "properties": {
        "name": "2026-09-10 @ 18-13-58",
        "date": "2026-09-10T18:13:58",
        "distance_km": 4.05,
        "distance_mi": 2.51,
        "duration": "1:32:23",
        "ascent": 108,
        "descent": -114,
        "center_lat": 50.54701234286415,
        "center_lon": -3.857212640290379,
        "place_name": "B3357, Widecombe-in-the-Moor, Teignbridge",
        "gridref": "SX 68112 73287",
        "googleMapsLink": "https://www.google.com/maps?q=50.544439,-3.862755",
        "download_link": "https://moorwalkers.github.io/track_downloads/2026-09-10_18-13-58.gpx",
        "ind_map_link": "https://moorwalkers.github.io/map.html?track_id=2026-09-10T18:13:58",
        "ind_map_link_os": "https://moorwalkers.github.io/map_os.html?track_id=2026-09-10T18:13:58",
        "elevation_profile_link": "https://moorwalkers.github.io/elevation_profiles/2026-09-10_18-13-58.png",
        "thumbnail_link": "https://moorwalkers.github.io/track_thumbnails/2026-09-10_18-13-58.png",
        "cluster_label": 10,
        "colour": "darkred"
      }
    }
  ]
}