{
  "type": "FeatureCollection",
  "features": [
    {
      "type": "Feature",
      "geometry": {
        "type": "LineString",
        "coordinates": [
          [
            -3.691922,
            50.628967,
            129.0,
            0.0
          ],
          [
            -3.691736,
            50.628904,
            131.0,
            0.009265
          ],
          [
            -3.691803,
            50.62845,
            130.0,
            0.040784
          ],
          [
            -3.68992,
            50.627908,
            115.0,
            0.131655
          ],
          [
            -3.687851,
            50.629543,
            113.0,
            0.276731
          ],
          [
            -3.687,
            50.629937,
            124.0,
            0.323008
          ],
          [
            -3.685448,
            50.630333,
            118.0,
            0.396527
          ],
          [
            -3.6845,
            50.630752,
            123.0,
            0.44728
          ],
          [
            -3.683658,
            50.631358,
            127.0,
            0.503181
          ],
          [
            -3.681208,
            50.6316,
            128.0,
            0.612182
          ],
          [
            -3.680148,
            50.631341,
            129.0,
            0.662104
          ],
          [
            -3.678786,
            50.63127,
            134.0,
            0.722183
          ],
          [
            -3.678251,
            50.63051,
            126.0,
            0.779741
          ],
          [
            -3.677023,
            50.629269,
            108.0,
            0.881097
          ],
          [
            -3.672097,
            50.626775,
            111.0,
            1.15791
          ],
          [
            -3.670624,
            50.626479,
            112.0,
            1.22583
          ],
          [
            -3.665802,
            50.626894,
            99.0,
            1.439775
          ],
          [
            -3.665252,
            50.62672,
            101.0,
            1.466783
          ],
          [
            -3.661434,
            50.626378,
            116.0,
            1.636309
          ],
          [
            -3.660103,
            50.626806,
            99.0,
            1.701883
          ],
          [
            -3.659719,
            50.627509,
            105.0,
            1.753326
          ],
          [
            -3.658769,
            50.628075,
            96.0,
            1.810555
          ],
          [
            -3.658396,
            50.628163,
            95.0,
            1.828047
          ],
          [
            -3.657868,
            50.627947,
            97.0,
            1.855648
          ],
          [
            -3.657962,
            50.628645,
            92.0,
            1.904072
          ],
          [
            -3.657239,
            50.628767,
            98.0,
            1.936959
          ],
          [
            -3.655201,
            50.627997,
            83.0,
            2.041177
          ],
          [
            -3.653148,
            50.627494,
            62.0,
            2.137906
          ],
          [
            -3.653176,
            50.627944,
            68.0,
            2.169035
          ],
          [
            -3.6534,
            50.628343,
            59.0,
            2.198321
          ],
          [
            -3.654299,
            50.629227,
            69.0,
            2.271094
          ],
          [
            -3.655839,
            50.629465,
            72.0,
            2.340771
          ],
          [
            -3.658206,
            50.630279,
            73.0,
            2.459072
          ],
          [
            -3.659329,
            50.631227,
            75.0,
            2.541118
          ],
          [
            -3.660972,
            50.631955,
            78.0,
            2.62915
          ],
          [
            -3.660996,
            50.632203,
            82.0,
            2.646324
          ],
          [
            -3.661714,
            50.633265,
            68.0,
            2.726231
          ],
          [
            -3.661412,
            50.633533,
            70.0,
            2.749022
          ],
          [
            -3.660704,
            50.633399,
            71.0,
            2.781495
          ],
          [
            -3.659374,
            50.632619,
            76.0,
            2.861029
          ],
          [
            -3.656158,
            50.631724,
            96.0,
            3.015355
          ],
          [
            -3.654844,
            50.631958,
            102.0,
            3.075345
          ],
          [
            -3.654121,
            50.632538,
            97.0,
            3.126507
          ],
          [
            -3.654011,
            50.633046,
            110.0,
            3.161952
          ],
          [
            -3.654301,
            50.633981,
            119.0,
            3.227827
          ],
          [
            -3.654959,
            50.633348,
            120.0,
            3.280278
          ],
          [
            -3.65557,
            50.63316,
            127.0,
            3.310117
          ],
          [
            -3.657442,
            50.634762,
            140.0,
            3.448083
          ],
          [
            -3.658864,
            50.635749,
            130.0,
            3.540614
          ],
          [
            -3.658847,
            50.635977,
            126.0,
            3.556392
          ],
          [
            -3.658615,
            50.63611,
            123.0,
            3.570122
          ],
          [
            -3.658714,
            50.63629,
            123.0,
            3.583303
          ],
          [
            -3.662212,
            50.635303,
            129.0,
            3.751528
          ],
          [
            -3.664086,
            50.635157,
            124.0,
            3.834525
          ],
          [
            -3.667421,
            50.634475,
            104.0,
            3.988526
          ],
          [
            -3.668159,
            50.634179,
            94.0,
            4.026881
          ],
          [
            -3.668505,
            50.633705,
            99.0,
            4.063004
          ],
          [
            -3.66976,
            50.632981,
            117.0,
            4.137491
          ],
          [
            -3.670696,
            50.63207,
            127.0,
            4.212714
          ],
          [
            -3.671775,
            50.631625,
            136.0,
            4.26925
          ],
          [
            -3.674351,
            50.630973,
            147.0,
            4.391138
          ],
          [
            -3.676087,
            50.631227,
            144.0,
            4.469453
          ],
          [
            -3.677011,
            50.631851,
            139.0,
            4.528703
          ],
          [
            -3.677615,
            50.632042,
            144.0,
            4.558357
          ],
          [
            -3.679634,
            50.632228,
            122.0,
            4.648045
          ],
          [
            -3.679718,
            50.632868,
            119.0,
            4.692437
          ],
          [
            -3.680053,
            50.633611,
            119.0,
            4.745864
          ],
          [
            -3.681097,
            50.634252,
            121.0,
            4.809657
          ],
          [
            -3.681696,
            50.635711,
            119.0,
            4.913887
          ],
          [
            -3.682394,
            50.636541,
            121.0,
            4.978948
          ],
          [
            -3.682376,
            50.636717,
            122.0,
            4.99114
          ],
          [
            -3.683181,
            50.637318,
            116.0,
            5.04571
          ],
          [
            -3.684299,
            50.636947,
            111.0,
            5.101144
          ],
          [
            -3.685996,
            50.63596,
            138.0,
            5.202235
          ],
          [
            -3.688049,
            50.635306,
            138.0,
            5.303172
          ],
          [
            -3.688007,
            50.635074,
            139.0,
            5.319315
          ],
          [
            -3.687269,
            50.634593,
            136.0,
            5.365768
          ],
          [
            -3.687431,
            50.634508,
            129.0,
            5.375001
          ],
          [
            -3.689251,
            50.633805,
            135.0,
            5.46861
          ],
          [
            -3.690461,
            50.634113,
            139.0,
            5.525905
          ],
          [
            -3.690897,
            50.633841,
            132.0,
            5.552754
          ],
          [
            -3.690935,
            50.633527,
            129.0,
            5.574523
          ],
          [
            -3.691701,
            50.632907,
            115.0,
            5.629026
          ],
          [
            -3.693418,
            50.63318,
            107.0,
            5.706831
          ],
          [
            -3.694157,
            50.633469,
            113.0,
            5.744969
          ],
          [
            -3.695393,
            50.634478,
            115.0,
            5.833381
          ],
          [
            -3.69605,
            50.634545,
            114.0,
            5.862632
          ],
          [
            -3.696149,
            50.63448,
            114.0,
            5.868887
          ],
          [
            -3.695813,
            50.634011,
            111.0,
            5.904512
          ],
          [
            -3.694881,
            50.633283,
            107.0,
            5.969404
          ],
          [
            -3.694987,
            50.63293,
            116.0,
            5.994245
          ],
          [
            -3.693816,
            50.632656,
            112.0,
            6.049098
          ],
          [
            -3.693079,
            50.632164,
            114.0,
            6.09607
          ],
          [
            -3.692751,
            50.631549,
            115.0,
            6.140959
          ],
          [
            -3.693076,
            50.63107,
            114.0,
            6.17702
          ],
          [
            -3.692367,
            50.629924,
            122.0,
            6.262146
          ],
          [
            -3.69217,
            50.629236,
            125.0,
            6.310484
          ],
          [
            -3.691683,
            50.62885,
            123.0,
            6.344694
          ]
        ]
      },
      "properties": {
        "name": "2026-07-02 @ 18-06-06",
        "date": "2026-07-02T18:06:06",
        "distance_km": 10.21,
        "distance_mi": 6.34,
        "duration": "2:42:21",
        "ascent": 120,
        "descent": -126,
        "center_lat": 50.63152037332324,
        "center_lon": -3.6727546867762357,
        "place_name": "Slade Hill, Bovey Tracey, Teignbridge",
        "gridref": "SX 80430 82396",
        "googleMapsLink": "https://www.google.com/maps?q=50.628967,-3.691922",
        "download_link": "https://moorwalkers.github.io/track_downloads/2026-07-02_18-06-06.gpx",
        "ind_map_link": "https://moorwalkers.github.io/map.html?track_id=2026-07-02T18:06:06",
        "ind_map_link_os": "https://moorwalkers.github.io/map_os.html?track_id=2026-07-02T18:06:06",
        "elevation_profile_link": "https://moorwalkers.github.io/elevation_profiles/2026-07-02_18-06-06.png",
        "cluster_label": 12,
        "colour": "green"
      }
    }
  ]
}