{
  "type": "FeatureCollection",
  "features": [
    {
      "type": "Feature",
      "geometry": {
        "type": "LineString",
        "coordinates": [
          [
            -3.858388,
            50.246322,
            9.0,
            0.0
          ],
          [
            -3.858835,
            50.245984,
            6.73,
            0.030632
          ],
          [
            -3.85921,
            50.245359,
            7.0,
            0.076913
          ],
          [
            -3.859172,
            50.244815,
            4.0,
            0.114578
          ],
          [
            -3.85885,
            50.244493,
            8.93,
            0.140987
          ],
          [
            -3.858795,
            50.243814,
            15.33,
            0.187981
          ],
          [
            -3.85691,
            50.243876,
            43.06,
            0.271668
          ],
          [
            -3.850774,
            50.24477,
            74.0,
            0.550545
          ],
          [
            -3.848398,
            50.244475,
            83.0,
            0.657795
          ],
          [
            -3.843076,
            50.244894,
            88.4,
            0.895491
          ],
          [
            -3.839762,
            50.245019,
            93.0,
            1.042616
          ],
          [
            -3.837494,
            50.244899,
            94.0,
            1.143458
          ],
          [
            -3.837827,
            50.243942,
            83.0,
            1.211242
          ],
          [
            -3.837126,
            50.243367,
            70.8,
            1.261702
          ],
          [
            -3.835949,
            50.24335,
            68.0,
            1.31387
          ],
          [
            -3.835801,
            50.242913,
            71.0,
            1.344773
          ],
          [
            -3.836364,
            50.242383,
            69.6,
            1.389092
          ],
          [
            -3.835774,
            50.241692,
            65.0,
            1.443557
          ],
          [
            -3.836069,
            50.241267,
            58.8,
            1.475701
          ],
          [
            -3.837196,
            50.240667,
            55.0,
            1.540634
          ],
          [
            -3.83738,
            50.24037,
            53.4,
            1.562713
          ],
          [
            -3.837237,
            50.239856,
            60.0,
            1.598783
          ],
          [
            -3.837472,
            50.238726,
            71.0,
            1.677629
          ],
          [
            -3.837223,
            50.238331,
            74.0,
            1.707046
          ],
          [
            -3.837581,
            50.237997,
            81.66,
            1.735092
          ],
          [
            -3.837176,
            50.236813,
            97.73,
            1.818896
          ],
          [
            -3.83719,
            50.235699,
            116.73,
            1.895895
          ],
          [
            -3.837292,
            50.235041,
            124.06,
            1.941594
          ],
          [
            -3.837568,
            50.234587,
            128.0,
            1.975243
          ],
          [
            -3.839845,
            50.232154,
            125.0,
            2.171421
          ],
          [
            -3.840843,
            50.232478,
            126.13,
            2.220989
          ],
          [
            -3.841781,
            50.232058,
            125.73,
            2.271694
          ],
          [
            -3.842343,
            50.232005,
            127.0,
            2.296905
          ],
          [
            -3.842662,
            50.231627,
            127.0,
            2.326607
          ],
          [
            -3.843032,
            50.231564,
            126.33,
            2.343566
          ],
          [
            -3.843863,
            50.231783,
            119.8,
            2.383389
          ],
          [
            -3.845755,
            50.231801,
            120.2,
            2.467288
          ],
          [
            -3.846607,
            50.232007,
            118.33,
            2.507636
          ],
          [
            -3.848154,
            50.232841,
            120.13,
            2.597226
          ],
          [
            -3.849131,
            50.233655,
            120.73,
            2.668254
          ],
          [
            -3.850554,
            50.23406,
            122.73,
            2.737294
          ],
          [
            -3.851388,
            50.2347,
            113.4,
            2.794919
          ],
          [
            -3.85276,
            50.235243,
            103.4,
            2.866407
          ],
          [
            -3.854343,
            50.235543,
            90.73,
            2.93958
          ],
          [
            -3.856872,
            50.23513,
            82.73,
            3.055274
          ],
          [
            -3.857386,
            50.235197,
            83.0,
            3.078523
          ],
          [
            -3.85754,
            50.234928,
            79.0,
            3.098316
          ],
          [
            -3.857424,
            50.235224,
            83.0,
            3.119427
          ],
          [
            -3.859404,
            50.2357,
            77.0,
            3.213161
          ],
          [
            -3.860693,
            50.236582,
            75.0,
            3.296741
          ],
          [
            -3.861492,
            50.23757,
            66.0,
            3.373645
          ],
          [
            -3.862814,
            50.237886,
            55.4,
            3.436172
          ],
          [
            -3.863309,
            50.237849,
            56.4,
            3.45827
          ],
          [
            -3.863209,
            50.238108,
            66.0,
            3.476728
          ],
          [
            -3.863934,
            50.238402,
            73.6,
            3.514758
          ],
          [
            -3.864711,
            50.238958,
            71.66,
            3.566337
          ],
          [
            -3.865397,
            50.239112,
            68.19,
            3.598582
          ],
          [
            -3.865959,
            50.239736,
            66.53,
            3.648381
          ],
          [
            -3.866227,
            50.240701,
            50.0,
            3.716123
          ],
          [
            -3.865402,
            50.241393,
            31.0,
            3.776375
          ],
          [
            -3.863618,
            50.241805,
            29.4,
            3.860417
          ],
          [
            -3.862197,
            50.242383,
            18.0,
            3.934989
          ],
          [
            -3.859382,
            50.24208,
            2.33,
            4.061509
          ],
          [
            -3.859306,
            50.24227,
            2.0,
            4.07506
          ],
          [
            -3.859418,
            50.242158,
            2.0,
            4.08429
          ],
          [
            -3.859785,
            50.242366,
            0.2,
            4.106029
          ],
          [
            -3.859769,
            50.243087,
            0.2,
            4.155864
          ],
          [
            -3.859485,
            50.243469,
            0.2,
            4.185119
          ],
          [
            -3.859462,
            50.243809,
            0.2,
            4.208602
          ],
          [
            -3.859146,
            50.243753,
            1.0,
            4.223123
          ],
          [
            -3.859879,
            50.243754,
            0.13,
            4.255613
          ],
          [
            -3.859166,
            50.243755,
            1.0,
            4.287197
          ],
          [
            -3.859387,
            50.243878,
            0.06,
            4.300128
          ],
          [
            -3.859586,
            50.244579,
            0.06,
            4.349397
          ],
          [
            -3.859336,
            50.24523,
            3.0,
            4.395743
          ],
          [
            -3.859336,
            50.24523,
            3.0,
            4.395743
          ]
        ]
      },
      "properties": {
        "name": "2026-07-09 @ 18-21-28",
        "date": "2026-07-09T18:21:28",
        "distance_km": 7.07,
        "distance_mi": 4.4,
        "duration": "2:27:03",
        "ascent": 143,
        "descent": -149,
        "center_lat": 50.23970474358364,
        "center_lon": -3.8504260478717462,
        "place_name": "Hope By-Pass, Outer Hope, Hope",
        "gridref": "SX 67592 40134",
        "googleMapsLink": "https://www.google.com/maps?q=50.246322,-3.858388",
        "download_link": "https://moorwalkers.github.io/track_downloads/2026-07-09_18-21-28.gpx",
        "ind_map_link": "https://moorwalkers.github.io/map.html?track_id=2026-07-09T18:21:28",
        "ind_map_link_os": "https://moorwalkers.github.io/map_os.html?track_id=2026-07-09T18:21:28",
        "elevation_profile_link": "https://moorwalkers.github.io/elevation_profiles/2026-07-09_18-21-28.png",
        "cluster_label": 15,
        "colour": "darkred"
      }
    }
  ]
}