{
  "type": "FeatureCollection",
  "features": [
    {
      "type": "Feature",
      "geometry": {
        "type": "LineString",
        "coordinates": [
          [
            -3.819761,
            50.523587,
            48.0,
            0.0
          ],
          [
            -3.818705,
            50.523296,
            46.0,
            0.050693
          ],
          [
            -3.818854,
            50.523102,
            46.0,
            0.065623
          ],
          [
            -3.818868,
            50.522434,
            49.0,
            0.1118
          ],
          [
            -3.819197,
            50.521765,
            48.0,
            0.160261
          ],
          [
            -3.819537,
            50.521439,
            48.0,
            0.187321
          ],
          [
            -3.819529,
            50.521197,
            49.0,
            0.204052
          ],
          [
            -3.81997,
            50.5204,
            43.0,
            0.262468
          ],
          [
            -3.81974,
            50.518613,
            44.0,
            0.386402
          ],
          [
            -3.820556,
            50.517453,
            54.0,
            0.474277
          ],
          [
            -3.821969,
            50.516569,
            52.0,
            0.56152
          ],
          [
            -3.822577,
            50.516374,
            52.0,
            0.591514
          ],
          [
            -3.824829,
            50.516581,
            51.0,
            0.691787
          ],
          [
            -3.825794,
            50.516457,
            51.0,
            0.73517
          ],
          [
            -3.826586,
            50.516162,
            58.0,
            0.775593
          ],
          [
            -3.8284,
            50.516072,
            79.0,
            0.85578
          ],
          [
            -3.829325,
            50.516624,
            64.0,
            0.911615
          ],
          [
            -3.829757,
            50.517122,
            55.0,
            0.950951
          ],
          [
            -3.831173,
            50.517732,
            57.0,
            1.026263
          ],
          [
            -3.831463,
            50.518281,
            56.0,
            1.066305
          ],
          [
            -3.832252,
            50.518653,
            58.0,
            1.10955
          ],
          [
            -3.832489,
            50.519148,
            59.0,
            1.145323
          ],
          [
            -3.834215,
            50.520503,
            62.0,
            1.265976
          ],
          [
            -3.834471,
            50.520549,
            62.0,
            1.277697
          ],
          [
            -3.834633,
            50.520748,
            62.0,
            1.293194
          ],
          [
            -3.834478,
            50.521467,
            66.0,
            1.343359
          ],
          [
            -3.836959,
            50.523399,
            76.0,
            1.515943
          ],
          [
            -3.836907,
            50.523579,
            76.0,
            1.528594
          ],
          [
            -3.837711,
            50.524766,
            92.0,
            1.617962
          ],
          [
            -3.837733,
            50.526195,
            86.0,
            1.716741
          ],
          [
            -3.837468,
            50.526854,
            81.0,
            1.763764
          ],
          [
            -3.837723,
            50.527272,
            81.0,
            1.794764
          ],
          [
            -3.838292,
            50.527573,
            92.0,
            1.827343
          ],
          [
            -3.838519,
            50.528132,
            91.0,
            1.867255
          ],
          [
            -3.839793,
            50.529374,
            90.0,
            1.969825
          ],
          [
            -3.840263,
            50.529987,
            85.0,
            2.016986
          ],
          [
            -3.840173,
            50.530057,
            84.0,
            2.023242
          ],
          [
            -3.84033,
            50.529943,
            83.0,
            2.033727
          ],
          [
            -3.840196,
            50.530079,
            81.0,
            2.044827
          ],
          [
            -3.83981,
            50.529425,
            89.0,
            2.093125
          ],
          [
            -3.838608,
            50.52843,
            87.0,
            2.179928
          ],
          [
            -3.838182,
            50.527651,
            87.0,
            2.236951
          ],
          [
            -3.837526,
            50.527068,
            81.0,
            2.286542
          ],
          [
            -3.83774,
            50.52564,
            85.0,
            2.385696
          ],
          [
            -3.837657,
            50.524983,
            85.0,
            2.431255
          ],
          [
            -3.837023,
            50.523861,
            74.0,
            2.513687
          ],
          [
            -3.837058,
            50.523539,
            73.0,
            2.535997
          ],
          [
            -3.834493,
            50.521634,
            65.0,
            2.709529
          ],
          [
            -3.83441,
            50.521382,
            63.0,
            2.727327
          ],
          [
            -3.83465,
            50.520925,
            60.0,
            2.760639
          ],
          [
            -3.834589,
            50.5207,
            59.0,
            2.776422
          ],
          [
            -3.832454,
            50.519177,
            55.0,
            2.917609
          ],
          [
            -3.832089,
            50.518557,
            55.0,
            2.963383
          ],
          [
            -3.831594,
            50.518361,
            55.0,
            2.989061
          ],
          [
            -3.830915,
            50.517551,
            54.0,
            3.052544
          ],
          [
            -3.829756,
            50.517158,
            55.0,
            3.110395
          ],
          [
            -3.829556,
            50.516828,
            58.0,
            3.134849
          ],
          [
            -3.828478,
            50.51615,
            76.0,
            3.201581
          ],
          [
            -3.826821,
            50.516194,
            52.0,
            3.27467
          ],
          [
            -3.825007,
            50.516527,
            47.0,
            3.357862
          ],
          [
            -3.822841,
            50.516321,
            48.0,
            3.454375
          ],
          [
            -3.822311,
            50.516465,
            51.0,
            3.479765
          ],
          [
            -3.820945,
            50.517289,
            50.0,
            3.562638
          ],
          [
            -3.820476,
            50.517686,
            46.0,
            3.596992
          ],
          [
            -3.819979,
            50.518541,
            45.0,
            3.660018
          ],
          [
            -3.819916,
            50.520743,
            44.0,
            3.812247
          ],
          [
            -3.818857,
            50.522485,
            39.0,
            3.941382
          ],
          [
            -3.8188,
            50.523325,
            38.0,
            3.999498
          ],
          [
            -3.819479,
            50.523526,
            39.0,
            4.032486
          ],
          [
            -3.819859,
            50.523402,
            40.0,
            4.051297
          ]
        ]
      },
      "properties": {
        "name": "2026-08-13 @ 18-09-21",
        "date": "2026-08-13T18:09:21",
        "distance_km": 6.52,
        "distance_mi": 4.05,
        "duration": "2:26:20",
        "ascent": 48,
        "descent": -56,
        "center_lat": 50.52085616140133,
        "center_lon": -3.829397771949852,
        "place_name": "Newbridge Car Park, New Bridge, Widecombe-in-the-Moor",
        "gridref": "SX 71101 70893",
        "googleMapsLink": "https://www.google.com/maps?q=50.523587,-3.819761",
        "download_link": "https://moorwalkers.github.io/track_downloads/2026-08-13_18-09-21.gpx",
        "ind_map_link": "https://moorwalkers.github.io/map.html?track_id=2026-08-13T18:09:21",
        "ind_map_link_os": "https://moorwalkers.github.io/map_os.html?track_id=2026-08-13T18:09:21",
        "elevation_profile_link": "https://moorwalkers.github.io/elevation_profiles/2026-08-13_18-09-21.png",
        "cluster_label": 9,
        "colour": "darkred"
      }
    }
  ]
}