{
  "type": "FeatureCollection",
  "features": [
    {
      "type": "Feature",
      "geometry": {
        "type": "LineString",
        "coordinates": [
          [
            -3.956451,
            50.723095,
            266.0,
            0.0
          ],
          [
            -3.955673,
            50.723763,
            243.0,
            0.057423
          ],
          [
            -3.955278,
            50.722916,
            242.0,
            0.118482
          ],
          [
            -3.955127,
            50.722949,
            235.0,
            0.125489
          ],
          [
            -3.954868,
            50.723501,
            230.0,
            0.165301
          ],
          [
            -3.954725,
            50.723315,
            231.0,
            0.179608
          ],
          [
            -3.954049,
            50.723099,
            235.0,
            0.212815
          ],
          [
            -3.950867,
            50.722422,
            274.0,
            0.360069
          ],
          [
            -3.948854,
            50.720753,
            308.0,
            0.505367
          ],
          [
            -3.948682,
            50.720323,
            315.0,
            0.536033
          ],
          [
            -3.948713,
            50.719415,
            323.0,
            0.598812
          ],
          [
            -3.948443,
            50.718727,
            330.0,
            0.647822
          ],
          [
            -3.947136,
            50.717807,
            345.0,
            0.733459
          ],
          [
            -3.946471,
            50.717014,
            349.0,
            0.795557
          ],
          [
            -3.945629,
            50.716713,
            355.0,
            0.837963
          ],
          [
            -3.94501,
            50.716675,
            362.0,
            0.865254
          ],
          [
            -3.944341,
            50.716176,
            365.0,
            0.910549
          ],
          [
            -3.943443,
            50.71579,
            371.0,
            0.95814
          ],
          [
            -3.942173,
            50.715718,
            375.0,
            1.014095
          ],
          [
            -3.941588,
            50.715174,
            371.0,
            1.059626
          ],
          [
            -3.940789,
            50.715094,
            386.0,
            1.095124
          ],
          [
            -3.940478,
            50.714841,
            386.0,
            1.117308
          ],
          [
            -3.93977,
            50.714643,
            390.0,
            1.15126
          ],
          [
            -3.939432,
            50.71535,
            385.0,
            1.202331
          ],
          [
            -3.93893,
            50.71582,
            393.0,
            1.241584
          ],
          [
            -3.937715,
            50.716,
            401.0,
            1.296336
          ],
          [
            -3.936613,
            50.715438,
            406.0,
            1.358368
          ],
          [
            -3.936426,
            50.714617,
            419.0,
            1.415708
          ],
          [
            -3.936069,
            50.713955,
            431.0,
            1.464075
          ],
          [
            -3.935691,
            50.713621,
            440.0,
            1.492505
          ],
          [
            -3.935862,
            50.71283,
            446.0,
            1.547693
          ],
          [
            -3.935724,
            50.711078,
            450.0,
            1.668948
          ],
          [
            -3.936029,
            50.710155,
            455.0,
            1.734138
          ],
          [
            -3.935792,
            50.709232,
            469.0,
            1.798781
          ],
          [
            -3.93517,
            50.708853,
            478.0,
            1.836618
          ],
          [
            -3.935179,
            50.708487,
            481.0,
            1.86192
          ],
          [
            -3.934731,
            50.708096,
            493.0,
            1.895343
          ],
          [
            -3.932937,
            50.707037,
            508.0,
            2.002856
          ],
          [
            -3.933479,
            50.705746,
            499.0,
            2.09521
          ],
          [
            -3.933533,
            50.704634,
            486.0,
            2.172111
          ],
          [
            -3.93405,
            50.702319,
            458.0,
            2.333732
          ],
          [
            -3.934812,
            50.700742,
            448.0,
            2.447756
          ],
          [
            -3.934849,
            50.69995,
            445.0,
            2.502525
          ],
          [
            -3.935114,
            50.699638,
            447.0,
            2.527029
          ],
          [
            -3.93532,
            50.698563,
            435.0,
            2.601885
          ],
          [
            -3.93604,
            50.696842,
            433.0,
            2.724973
          ],
          [
            -3.936289,
            50.695012,
            440.0,
            2.851939
          ],
          [
            -3.937173,
            50.692186,
            443.0,
            3.051099
          ],
          [
            -3.937247,
            50.690889,
            435.0,
            3.14081
          ],
          [
            -3.937053,
            50.690062,
            428.0,
            3.198606
          ],
          [
            -3.936992,
            50.689976,
            427.0,
            3.205126
          ],
          [
            -3.93692,
            50.690149,
            427.0,
            3.217495
          ],
          [
            -3.937068,
            50.6901,
            427.0,
            3.224823
          ],
          [
            -3.936988,
            50.689914,
            428.0,
            3.238151
          ],
          [
            -3.937355,
            50.69014,
            423.0,
            3.260595
          ],
          [
            -3.938328,
            50.6903,
            428.0,
            3.304726
          ],
          [
            -3.938861,
            50.690592,
            422.0,
            3.335631
          ],
          [
            -3.939386,
            50.691236,
            387.0,
            3.38576
          ],
          [
            -3.939565,
            50.691778,
            411.0,
            3.424041
          ],
          [
            -3.940639,
            50.69313,
            391.0,
            3.528718
          ],
          [
            -3.941298,
            50.694251,
            377.0,
            3.61143
          ],
          [
            -3.943088,
            50.695408,
            371.0,
            3.723556
          ],
          [
            -3.944506,
            50.696752,
            359.0,
            3.835387
          ],
          [
            -3.945528,
            50.698224,
            344.0,
            3.94659
          ],
          [
            -3.947506,
            50.699841,
            332.0,
            4.088128
          ],
          [
            -3.947022,
            50.704115,
            390.0,
            4.384323
          ],
          [
            -3.945797,
            50.707436,
            381.0,
            4.620094
          ],
          [
            -3.945754,
            50.707987,
            376.0,
            4.658227
          ],
          [
            -3.945227,
            50.708785,
            374.0,
            4.718041
          ],
          [
            -3.945234,
            50.70904,
            381.0,
            4.73567
          ],
          [
            -3.944561,
            50.710387,
            374.0,
            4.833352
          ],
          [
            -3.944647,
            50.711735,
            371.0,
            4.926606
          ],
          [
            -3.944493,
            50.712765,
            374.0,
            4.998123
          ],
          [
            -3.945748,
            50.714723,
            364.0,
            5.144244
          ],
          [
            -3.945556,
            50.715341,
            349.0,
            5.187785
          ],
          [
            -3.945684,
            50.715947,
            355.0,
            5.230048
          ],
          [
            -3.946609,
            50.716407,
            346.0,
            5.281612
          ],
          [
            -3.946455,
            50.71664,
            343.0,
            5.299078
          ],
          [
            -3.946638,
            50.716883,
            319.0,
            5.317696
          ],
          [
            -3.946445,
            50.717021,
            341.0,
            5.330452
          ],
          [
            -3.946516,
            50.717353,
            339.0,
            5.353612
          ],
          [
            -3.948344,
            50.718735,
            319.0,
            5.478353
          ],
          [
            -3.948624,
            50.719488,
            312.0,
            5.531834
          ],
          [
            -3.948631,
            50.720573,
            300.0,
            5.606833
          ],
          [
            -3.950262,
            50.722053,
            274.0,
            5.731684
          ],
          [
            -3.950946,
            50.722488,
            254.0,
            5.774168
          ],
          [
            -3.951985,
            50.72266,
            241.0,
            5.821282
          ],
          [
            -3.952268,
            50.722904,
            235.0,
            5.842226
          ],
          [
            -3.952867,
            50.722767,
            231.0,
            5.870163
          ],
          [
            -3.95473,
            50.723421,
            218.0,
            5.963575
          ],
          [
            -3.954978,
            50.723365,
            221.0,
            5.975125
          ],
          [
            -3.955252,
            50.72292,
            221.0,
            6.008151
          ],
          [
            -3.955684,
            50.723965,
            243.0,
            6.08283
          ],
          [
            -3.957665,
            50.725143,
            255.0,
            6.201933
          ],
          [
            -3.957796,
            50.725103,
            255.0,
            6.208311
          ],
          [
            -3.957422,
            50.724964,
            254.0,
            6.227326
          ],
          [
            -3.957503,
            50.72488,
            254.0,
            6.234134
          ],
          [
            -3.957462,
            50.724979,
            254.0,
            6.24121
          ]
        ]
      },
      "properties": {
        "name": "2026-07-30 @ 18-07-59",
        "date": "2026-07-30T18:07:59",
        "distance_km": 10.04,
        "distance_mi": 6.24,
        "duration": "3:25:04",
        "ascent": 285,
        "descent": -297,
        "center_lat": 50.70967758385251,
        "center_lon": -3.9437045299192555,
        "place_name": "Taikoo driveway, Belstone, West Devon",
        "gridref": "SX 61998 93323",
        "googleMapsLink": "https://www.google.com/maps?q=50.723095,-3.956451",
        "download_link": "https://moorwalkers.github.io/track_downloads/2026-07-30_18-07-59.gpx",
        "ind_map_link": "https://moorwalkers.github.io/map.html?track_id=2026-07-30T18:07:59",
        "ind_map_link_os": "https://moorwalkers.github.io/map_os.html?track_id=2026-07-30T18:07:59",
        "elevation_profile_link": "https://moorwalkers.github.io/elevation_profiles/2026-07-30_18-07-59.png",
        "cluster_label": 12,
        "colour": "darkred"
      }
    }
  ]
}