{
  "type": "FeatureCollection",
  "features": [
    {
      "type": "Feature",
      "geometry": {
        "type": "LineString",
        "coordinates": [
          [
            -3.882481,
            50.594384,
            265.0,
            0.0
          ],
          [
            -3.882135,
            50.594644,
            265.0,
            0.023553
          ],
          [
            -3.878198,
            50.594912,
            283.0,
            0.197759
          ],
          [
            -3.873055,
            50.595558,
            292.0,
            0.428401
          ],
          [
            -3.871457,
            50.595528,
            278.0,
            0.498738
          ],
          [
            -3.870069,
            50.595232,
            270.0,
            0.563142
          ],
          [
            -3.867734,
            50.595711,
            269.0,
            0.671079
          ],
          [
            -3.86603,
            50.595646,
            266.0,
            0.746184
          ],
          [
            -3.864417,
            50.59588,
            269.0,
            0.818971
          ],
          [
            -3.8625,
            50.595717,
            260.0,
            0.904062
          ],
          [
            -3.859826,
            50.596586,
            235.0,
            1.036155
          ],
          [
            -3.859036,
            50.599074,
            259.0,
            1.211607
          ],
          [
            -3.858493,
            50.599427,
            256.0,
            1.245754
          ],
          [
            -3.857178,
            50.599134,
            247.0,
            1.307048
          ],
          [
            -3.855023,
            50.597874,
            236.0,
            1.435787
          ],
          [
            -3.853555,
            50.597534,
            244.0,
            1.504514
          ],
          [
            -3.851373,
            50.597663,
            256.0,
            1.600924
          ],
          [
            -3.849485,
            50.59841,
            264.0,
            1.698727
          ],
          [
            -3.849019,
            50.599044,
            259.0,
            1.747108
          ],
          [
            -3.847753,
            50.600087,
            253.0,
            1.83821
          ],
          [
            -3.847662,
            50.600547,
            253.0,
            1.870257
          ],
          [
            -3.847068,
            50.601489,
            251.0,
            1.940418
          ],
          [
            -3.846853,
            50.602495,
            260.0,
            2.010594
          ],
          [
            -3.846234,
            50.603453,
            266.0,
            2.082193
          ],
          [
            -3.846142,
            50.603858,
            266.0,
            2.110478
          ],
          [
            -3.846598,
            50.605609,
            271.0,
            2.233161
          ],
          [
            -3.84718,
            50.607097,
            278.0,
            2.339153
          ],
          [
            -3.847157,
            50.608718,
            284.0,
            2.451204
          ],
          [
            -3.84752,
            50.610043,
            288.0,
            2.544171
          ],
          [
            -3.847593,
            50.610962,
            283.0,
            2.607776
          ],
          [
            -3.84726,
            50.612001,
            287.0,
            2.681071
          ],
          [
            -3.848055,
            50.613608,
            297.0,
            2.797523
          ],
          [
            -3.847986,
            50.614347,
            301.0,
            2.848694
          ],
          [
            -3.847776,
            50.61478,
            311.0,
            2.880017
          ],
          [
            -3.848024,
            50.615271,
            315.0,
            2.915665
          ],
          [
            -3.849641,
            50.615509,
            315.0,
            2.988656
          ],
          [
            -3.85149,
            50.615112,
            332.0,
            3.074478
          ],
          [
            -3.853508,
            50.61369,
            345.0,
            3.206908
          ],
          [
            -3.853542,
            50.612798,
            342.0,
            3.268583
          ],
          [
            -3.853253,
            50.612262,
            351.0,
            3.307752
          ],
          [
            -3.853462,
            50.612652,
            349.0,
            3.336234
          ],
          [
            -3.853507,
            50.613499,
            345.0,
            3.394813
          ],
          [
            -3.854359,
            50.614027,
            347.0,
            3.447121
          ],
          [
            -3.855773,
            50.613199,
            356.0,
            3.531637
          ],
          [
            -3.857355,
            50.612876,
            336.0,
            3.604708
          ],
          [
            -3.858119,
            50.612537,
            323.0,
            3.645673
          ],
          [
            -3.859204,
            50.612585,
            314.0,
            3.693508
          ],
          [
            -3.860569,
            50.612913,
            305.0,
            3.75768
          ],
          [
            -3.862105,
            50.61287,
            293.0,
            3.8253
          ],
          [
            -3.863249,
            50.613412,
            290.0,
            3.88803
          ],
          [
            -3.863797,
            50.613503,
            291.0,
            3.912938
          ],
          [
            -3.863383,
            50.613079,
            286.0,
            3.947441
          ],
          [
            -3.863318,
            50.612431,
            283.0,
            3.992324
          ],
          [
            -3.863055,
            50.612041,
            283.0,
            4.021658
          ],
          [
            -3.86315,
            50.611649,
            280.0,
            4.049074
          ],
          [
            -3.863007,
            50.610801,
            273.0,
            4.108026
          ],
          [
            -3.862551,
            50.609341,
            275.0,
            4.210917
          ],
          [
            -3.862277,
            50.608937,
            271.0,
            4.241332
          ],
          [
            -3.862435,
            50.608534,
            264.0,
            4.270042
          ],
          [
            -3.862311,
            50.608007,
            266.0,
            4.306875
          ],
          [
            -3.862882,
            50.607541,
            273.0,
            4.347721
          ],
          [
            -3.862759,
            50.60647,
            271.0,
            4.421947
          ],
          [
            -3.864213,
            50.605207,
            276.0,
            4.530169
          ],
          [
            -3.864697,
            50.602352,
            291.0,
            4.728657
          ],
          [
            -3.867341,
            50.601831,
            309.0,
            4.850416
          ],
          [
            -3.868502,
            50.601752,
            321.0,
            4.901781
          ],
          [
            -3.869983,
            50.60098,
            324.0,
            4.985997
          ],
          [
            -3.870692,
            50.600027,
            316.0,
            5.058881
          ],
          [
            -3.872894,
            50.599908,
            312.0,
            5.156101
          ],
          [
            -3.874323,
            50.599354,
            294.0,
            5.229712
          ],
          [
            -3.876291,
            50.597875,
            286.0,
            5.36368
          ],
          [
            -3.876865,
            50.595904,
            288.0,
            5.502239
          ],
          [
            -3.877444,
            50.595138,
            284.0,
            5.560996
          ],
          [
            -3.878412,
            50.594899,
            284.0,
            5.606677
          ],
          [
            -3.882545,
            50.594447,
            264.0,
            5.791184
          ]
        ]
      },
      "properties": {
        "name": "2026-07-23 @ 18-09-08",
        "date": "2026-07-23T18:09:08",
        "distance_km": 9.32,
        "distance_mi": 5.79,
        "duration": "2:42:15",
        "ascent": 152,
        "descent": -153,
        "center_lat": 50.60306482572886,
        "center_lon": -3.861921437762879,
        "place_name": "Lower Blackaton, Manaton, Teignbridge",
        "gridref": "SX 66855 78876",
        "googleMapsLink": "https://www.google.com/maps?q=50.594384,-3.882481",
        "download_link": "https://moorwalkers.github.io/track_downloads/2026-07-23_18-09-08.gpx",
        "ind_map_link": "https://moorwalkers.github.io/map.html?track_id=2026-07-23T18:09:08",
        "ind_map_link_os": "https://moorwalkers.github.io/map_os.html?track_id=2026-07-23T18:09:08",
        "elevation_profile_link": "https://moorwalkers.github.io/elevation_profiles/2026-07-23_18-09-08.png",
        "cluster_label": 12,
        "colour": "darkred",
        "thumbnail_link": "https://moorwalkers.github.io/track_thumbnails/2026-07-23_18-09-08.png"
      }
    }
  ]
}