{
  "type": "FeatureCollection",
  "features": [
    {
      "type": "Feature",
      "geometry": {
        "type": "LineString",
        "coordinates": [
          [
            -3.842319,
            50.543261,
            305.0,
            0.0
          ],
          [
            -3.839026,
            50.542669,
            289.0,
            0.150705
          ],
          [
            -3.836509,
            50.54287,
            267.0,
            0.262436
          ],
          [
            -3.836046,
            50.543034,
            263.0,
            0.285768
          ],
          [
            -3.836427,
            50.543339,
            260.0,
            0.312714
          ],
          [
            -3.836028,
            50.544352,
            249.0,
            0.384905
          ],
          [
            -3.836187,
            50.544501,
            248.0,
            0.39736
          ],
          [
            -3.836081,
            50.544921,
            244.0,
            0.426763
          ],
          [
            -3.835241,
            50.546491,
            229.0,
            0.541417
          ],
          [
            -3.835262,
            50.547179,
            224.0,
            0.588981
          ],
          [
            -3.835049,
            50.547835,
            219.0,
            0.635285
          ],
          [
            -3.835114,
            50.548399,
            214.0,
            0.674374
          ],
          [
            -3.834447,
            50.548115,
            213.0,
            0.709705
          ],
          [
            -3.833103,
            50.546787,
            216.0,
            0.818927
          ],
          [
            -3.830324,
            50.545505,
            214.0,
            0.970033
          ],
          [
            -3.827751,
            50.54481,
            227.0,
            1.09312
          ],
          [
            -3.823966,
            50.544375,
            231.0,
            1.262518
          ],
          [
            -3.822413,
            50.54395,
            216.0,
            1.33696
          ],
          [
            -3.820644,
            50.543935,
            197.0,
            1.414883
          ],
          [
            -3.820084,
            50.543571,
            188.0,
            1.450117
          ],
          [
            -3.819785,
            50.542006,
            165.0,
            1.55909
          ],
          [
            -3.820235,
            50.541861,
            165.0,
            1.581301
          ],
          [
            -3.820784,
            50.540552,
            162.0,
            1.674956
          ],
          [
            -3.821773,
            50.539287,
            153.0,
            1.772646
          ],
          [
            -3.822442,
            50.539085,
            152.0,
            1.805255
          ],
          [
            -3.822874,
            50.538322,
            153.0,
            1.861322
          ],
          [
            -3.823467,
            50.538172,
            155.0,
            1.889427
          ],
          [
            -3.823433,
            50.537016,
            157.0,
            1.969345
          ],
          [
            -3.82171,
            50.537109,
            151.0,
            2.045517
          ],
          [
            -3.818087,
            50.536636,
            135.0,
            2.20843
          ],
          [
            -3.817145,
            50.535935,
            127.0,
            2.272225
          ],
          [
            -3.8144,
            50.534819,
            101.0,
            2.415659
          ],
          [
            -3.813826,
            50.534948,
            98.0,
            2.442472
          ],
          [
            -3.813916,
            50.534877,
            99.0,
            2.448781
          ],
          [
            -3.813695,
            50.534631,
            96.0,
            2.468375
          ],
          [
            -3.813023,
            50.534316,
            91.0,
            2.505124
          ],
          [
            -3.812534,
            50.533864,
            85.0,
            2.543073
          ],
          [
            -3.812256,
            50.533361,
            81.0,
            2.579935
          ],
          [
            -3.811373,
            50.532818,
            66.0,
            2.63399
          ],
          [
            -3.811261,
            50.53251,
            62.0,
            2.655844
          ],
          [
            -3.811976,
            50.530816,
            55.0,
            2.777098
          ],
          [
            -3.813543,
            50.530128,
            58.0,
            2.86093
          ],
          [
            -3.814822,
            50.530011,
            66.0,
            2.917857
          ],
          [
            -3.817488,
            50.530536,
            100.0,
            3.040793
          ],
          [
            -3.818735,
            50.529862,
            115.0,
            3.112826
          ],
          [
            -3.821496,
            50.529187,
            146.0,
            3.243112
          ],
          [
            -3.821572,
            50.529006,
            144.0,
            3.256064
          ],
          [
            -3.821439,
            50.528801,
            146.0,
            3.271397
          ],
          [
            -3.822468,
            50.528343,
            149.0,
            3.326693
          ],
          [
            -3.824224,
            50.528115,
            158.0,
            3.405651
          ],
          [
            -3.824722,
            50.528887,
            167.0,
            3.463347
          ],
          [
            -3.825344,
            50.528923,
            171.0,
            3.490864
          ],
          [
            -3.825434,
            50.528754,
            173.0,
            3.503201
          ],
          [
            -3.825785,
            50.528757,
            173.0,
            3.518667
          ],
          [
            -3.826869,
            50.529066,
            191.0,
            3.570985
          ],
          [
            -3.829267,
            50.527585,
            205.0,
            3.718098
          ],
          [
            -3.830106,
            50.527228,
            209.0,
            3.762544
          ],
          [
            -3.831303,
            50.527043,
            218.0,
            3.816812
          ],
          [
            -3.832263,
            50.527222,
            222.0,
            3.860883
          ],
          [
            -3.833403,
            50.528413,
            230.0,
            3.957319
          ],
          [
            -3.833351,
            50.528891,
            233.0,
            3.990438
          ],
          [
            -3.833033,
            50.529336,
            231.0,
            4.024238
          ],
          [
            -3.831699,
            50.528855,
            240.0,
            4.091764
          ],
          [
            -3.832322,
            50.529111,
            240.0,
            4.124422
          ],
          [
            -3.832846,
            50.529557,
            233.0,
            4.162937
          ],
          [
            -3.832935,
            50.530729,
            235.0,
            4.244041
          ],
          [
            -3.834996,
            50.531905,
            234.0,
            4.365911
          ],
          [
            -3.8383,
            50.532891,
            254.0,
            4.526636
          ],
          [
            -3.838666,
            50.533282,
            257.0,
            4.558107
          ],
          [
            -3.839004,
            50.534728,
            262.0,
            4.659159
          ],
          [
            -3.839874,
            50.535839,
            263.0,
            4.744985
          ],
          [
            -3.84127,
            50.536671,
            258.0,
            4.829182
          ],
          [
            -3.842621,
            50.537188,
            264.0,
            4.8986
          ],
          [
            -3.842303,
            50.537739,
            273.0,
            4.93918
          ],
          [
            -3.843279,
            50.53949,
            282.0,
            5.06762
          ],
          [
            -3.84254,
            50.540526,
            286.0,
            5.146281
          ],
          [
            -3.842859,
            50.540772,
            288.0,
            5.16834
          ],
          [
            -3.844293,
            50.541156,
            295.0,
            5.236854
          ],
          [
            -3.843401,
            50.542974,
            305.0,
            5.368515
          ]
        ]
      },
      "properties": {
        "name": "2026-07-16 @ 18-09-17",
        "date": "2026-07-16T18:09:17",
        "distance_km": 8.64,
        "distance_mi": 5.37,
        "duration": "2:38:47",
        "ascent": 238,
        "descent": -238,
        "center_lat": 50.536744241638964,
        "center_lon": -3.828174780512083,
        "place_name": "Ponsworthy, Widecombe-in-the-Moor, Teignbridge",
        "gridref": "SX 69556 73120",
        "googleMapsLink": "https://www.google.com/maps?q=50.543261,-3.842319",
        "download_link": "https://moorwalkers.github.io/track_downloads/2026-07-16_18-09-17.gpx",
        "ind_map_link": "https://moorwalkers.github.io/map.html?track_id=2026-07-16T18:09:17",
        "ind_map_link_os": "https://moorwalkers.github.io/map_os.html?track_id=2026-07-16T18:09:17",
        "elevation_profile_link": "https://moorwalkers.github.io/elevation_profiles/2026-07-16_18-09-17.png",
        "cluster_label": 1,
        "colour": "green"
      }
    }
  ]
}