{
  "type": "FeatureCollection",
  "features": [
    {
      "type": "Feature",
      "properties": {
        "name": "The Royal Oak (Meavy)",
        "description": "<a href=https://www.theroyaloakmeavy.co.uk/ target=_blank>The Royal Oak (Meavy)</a target=_blank>",
        "category": "Pub"
      },
      "geometry": {
        "type": "Point",
        "coordinates": [-4.058455, 50.486432]
      }
    },
    {
      "type": "Feature",
      "properties": {
        "name": "The Burrator Inn",
        "description": "<a href=https://www.burratorinn.com/ target=_blank>The Burrator Inn</a target=_blank>",
        "category": "Pub"
      },
      "geometry": {
        "type": "Point",
        "coordinates": [-4.064349, 50.501388]
      }
    },
    {
      "type": "Feature",
      "properties": {
        "name": "The Dolphon Inn",
        "description": "Renowned for its subterranean beer pipeline connecting the cellar across the street, as well as its occasional wakes and complimentary cuisine.",
        "category": "Pub"
      },
      "geometry": {
        "type": "Point",
        "coordinates": [-3.9175983, 50.314276]
      }
    },
    {
      "type": "Feature",
      "properties": {
        "name": "The Skylark Inn",
        "description": "<a href=https://www.skylarkinn.co.uk/ target=_blank>The Skylark Inn</a target=_blank>",
        "category": "Pub"
      },
      "geometry": {
        "type": "Point",
        "coordinates": [-4.085295, 50.470875]
      }
    },
    {
      "type": "Feature",
      "properties": {
        "name": "The Avon Inn",
        "description": "<a href=https://avon-inn.org.uk/ target=_blank>The Avon Inn</a target=_blank>",
        "category": "Pub"
      },
      "geometry": {
        "type": "Point",
        "coordinates": [-3.811540, 50.410430]
      }
    },
    {
      "type": "Feature",
      "properties": {
        "name": "The Church House Inn",
        "description": "<a href=https://www.churchhouseholne.co.uk/ target=_blank>The Church House Inn</a target=_blank>",
        "category": "Pub"
      },
      "geometry": {
        "type": "Point",
        "coordinates": [-3.826071, 50.510977]
      }
    },
    {
      "type": "Feature",
      "properties": {
        "name": "The Whitchurch Inn",
        "description": "<a href=https://www.thewhitchurchinn.pub/ target=_blank>The Whitchurch Inn</a target=_blank>",
        "category": "Pub"
      },
      "geometry": {
        "type": "Point",
        "coordinates": [-4.128098, 50.534298]
      }
    },
    {
      "type": "Feature",
      "properties": {
        "name": "The Leaping Salmon",
        "description": "<a href=https://www.theleapingsalmon.co.uk/ target=_blank>The Leaping Salmon</a target=_blank>",
        "category": "Pub"
      },
      "geometry": {
        "type": "Point",
        "coordinates": [-4.098480, 50.510524]
      }
    },
    {
      "type": "Feature",
      "properties": {
        "name": "Ye Olde Salutation Inne",
        "description": "<a href=http://www.yeoldesalutationinn-looe.foodanddrinksites.co.uk/ target=_blank>Ye Olde Salutation Inne</a target=_blank>",
        "category": "Pub"
      },
      "geometry": {
        "type": "Point",
        "coordinates": [-4.454001, 50.353576]
      }
    },
    {
      "type": "Feature",
      "properties": {
        "name": "Three Crowns",
        "description": "<a href=https://threecrowns-chagford.co.uk/ target=_blank>Three Crowns</a target=_blank>",
        "category": "Pub"
      },
      "geometry": {
        "type": "Point",
        "coordinates": [-3.840144, 50.672689]
      }
    },
    {
      "type": "Feature",
      "properties": {
        "name": "Two Bridges Hotel",
        "description": "<a href=https://twobridges.co.uk/ target=_blank>Two Bridges Hotel</a target=_blank>",
        "category": "Pub"
      },
      "geometry": {
        "type": "Point",
        "coordinates": [-3.965429, 50.558070]
      }
    },
    {
      "type": "Feature",
      "properties": {
        "name": "The White Thorn Inn",
        "description": "<a href=https://www.thewhitethorninn.co.uk/ target=_blank>The White Thorn Inn</a target=_blank>",
        "category": "Pub"
      },
      "geometry": {
        "type": "Point",
        "coordinates": [-4.055054, 50.449571]
      }
    },
    {
      "type": "Feature",
      "properties": {
        "name": "The Pack Horse Inn",
        "description": "",
        "category": "Pub"
      },
      "geometry": {
        "type": "Point",
        "coordinates": [-3.834054, 50.426194]
      }
    },
    {
      "type": "Feature",
      "properties": {
        "name": "The Rock Inn (Haytor)",
        "description": "<a href=https://www.rock-inn.co.uk/ target=_blank>The Rock Inn (Haytor)</a target=_blank>",
        "category": "Pub"
      },
      "geometry": {
        "type": "Point",
        "coordinates": [-3.736922, 50.581437]
      }
    },
    {
      "type": "Feature",
      "properties": {
        "name": "Drake Manor Inn",
        "description": "<a href=https://drakemanorinn.co.uk/ target=_blank>Drake Manor Inn</a target=_blank>",
        "category": "Pub"
      },
      "geometry": {
        "type": "Point",
        "coordinates": [-4.130521, 50.495080]
      }
    },
    {
      "type": "Feature",
      "properties": {
        "name": "Peter Tavy Inn",
        "description": "<a href=https://petertavyinn.co.uk/ target=_blank>Peter Tavy Inn</a target=_blank>",
        "category": "Pub"
      },
      "geometry": {
        "type": "Point",
        "coordinates": [-4.102832, 50.580647]
      }
    },
    {
      "type": "Feature",
      "properties": {
        "name": "Prince of Wales",
        "description": "<a href=https://www.princeofwalesprincetown.pub/ target=_blank>Prince of Wales</a target=_blank>",
        "category": "Pub"
      },
      "geometry": {
        "type": "Point",
        "coordinates": [-3.992708, 50.544761]
      }
    },
    {
      "type": "Feature",
      "properties": {
        "name": "The Plume of Feathers",
        "description": "<a href=https://plumedartmoor.co.uk/ target=_blank>The Plume of Feathers</a target=_blank>",
        "category": "Pub"
      },
      "geometry": {
        "type": "Point",
        "coordinates": [-3.990608, 50.543792]
      }
    },
    {
      "type": "Feature",
      "properties": {
        "name": "The Rugglestone Inn",
        "description": "<a href=https://www.rugglestoneinn.co.uk/ target=_blank>The Rugglestone Inn</a target=_blank>",
        "category": "Pub"
      },
      "geometry": {
        "type": "Point",
        "coordinates": [-3.808296, 50.574339]
      }
    },
    {
      "type": "Feature",
      "properties": {
        "name": "Tavistock Inn (Poundsgate)",
        "description": "",
        "category": "Pub"
      },
      "geometry": {
        "type": "Point",
        "coordinates": [-3.828877, 50.534367]
      }
    },
    {
      "type": "Feature",
      "properties": {
        "name": "East Dart Inn",
        "description": "<a href=https://east-dart-inn.co.uk/ target=_blank>East Dart Inn</a target=_blank>",
        "category": "Pub"
      },
      "geometry": {
        "type": "Point",
        "coordinates": [-3.9099276331692288, 50.59492550871564]
      }
    },
    {
      "type": "Feature",
      "properties": {
        "name": "Warren House Inn",
        "description": "<a href=http://www.warrenhouseinn.co.uk/ target=_blank>Warren House Inn</a target=_blank>",
        "category": "Pub"
      },
      "geometry": {
        "type": "Point",
        "coordinates": [-3.8751273930020833, 50.61302798817701]
      }
    },
    {
      "type": "Feature",
      "properties": {
        "name": "Forest Inn",
        "description": "<a href=https://forestinndartmoor.co.uk/ target=_blank>Forest Inn</a target=_blank>",
        "category": "Pub"
      },
      "geometry": {
        "type": "Point",
        "coordinates": [-3.8993143207093994, 50.53795728651605]
      }
    },
    {
      "type": "Feature",
      "properties": {
        "name": "The Walkhampton Inn",
        "description": "<a href=https://walkhamptoninn.co.uk/ target=_blank>The Walkhampton Inn</a target=_blank>",
        "category": "Pub"
      },
      "geometry": {
        "type": "Point",
        "coordinates": [-4.069995906522893, 50.50890748617563]
      }
    },
    {
      "type": "Feature",
      "properties": {
        "name": "The Rock Inn (Yelverton)",
        "description": "<a href=http://therockinnyelverton.pub/ target=_blank>The Rock Inn (Yelverton)</a target=_blank>",
        "category": "Pub"
      },
      "geometry": {
        "type": "Point",
        "coordinates": [-4.084326428238634, 50.49192662455946]
      }
    },
    {
      "type": "Feature",
      "properties": {
        "name": "The London Inn",
        "description": "",
        "category": "Pub"
      },
      "geometry": {
        "type": "Point",
        "coordinates": [-4.098898034608654, 50.509463097450315]
      }
    },
    {
      "type": "Feature",
      "properties": {
        "name": "The Mary Tavy Inn",
        "description": "<a href=https://themarytavyinn.co.uk/ target=_blank>The Mary Tavy Inn</a target=_blank>",
        "category": "Pub"
      },
      "geometry": {
        "type": "Point",
        "coordinates": [-4.113849453805444, 50.590207548807264]
      }
    },
    {
      "type": "Feature",
      "properties": {
        "name": "The Castle Inn",
        "description": "<a href=https://castleinnlydford.co.uk/ target=_blank>The Castle Inn</a target=_blank>",
        "category": "Pub"
      },
      "geometry": {
        "type": "Point",
        "coordinates": [-4.108867912467537, 50.64366085381667]
      }
    },
    {
      "type": "Feature",
      "properties": {
        "name": "The Fox & Hounds",
        "description": "<a href=http://www.foxandhoundshotel.com/ target=_blank>The Fox & Hounds</a target=_blank>",
        "category": "Pub"
      },
      "geometry": {
        "type": "Point",
        "coordinates": [-4.088005281321273, 50.66099123480529]
      }
    },
    {
      "type": "Feature",
      "properties": {
        "name": "Bearslake Inn",
        "description": "<a href=https://bearslakeinn.com/ target=_blank>Bearslake Inn</a target=_blank>",
        "category": "Pub"
      },
      "geometry": {
        "type": "Point",
        "coordinates": [-4.084554364253595, 50.68084354325581]
      }
    },
    {
      "type": "Feature",
      "properties": {
        "name": "The Tors Inn",
        "description": "<a href=https://thetorsinn.co.uk/ target=_blank>The Tors Inn</a target=_blank>",
        "category": "Pub"
      },
      "geometry": {
        "type": "Point",
        "coordinates": [-3.957456386737827, 50.72496727574511]
      }
    },
    {
      "type": "Feature",
      "properties": {
        "name": "The Pack Horse Inn",
        "description": "",
        "category": "Pub"
      },
      "geometry": {
        "type": "Point",
        "coordinates": [-3.834056409213958, 50.42624157245098]
      }
    },
    {
      "type": "Feature",
      "properties": {
        "name": "The Anchor Inn (Ugborough)",
        "description": "<a href=https://www.anchorinnugborough.co.uk/ target=_blank>The Anchor Inn (Ugborough)</a target=_blank>",
        "category": "Pub"
      },
      "geometry": {
        "type": "Point",
        "coordinates": [-3.8619165183034427, 50.38759218839427]
      }
    },
    {
      "type": "Feature",
      "properties": {
        "name": "The Ship Inn (Ugborough)",
        "description": "<a href=https://www.shipinnugborough.co.uk/ target=_blank>The Ship Inn (Ugborough)</a target=_blank>",
        "category": "Pub"
      },
      "geometry": {
        "type": "Point",
        "coordinates": [-3.861093817840464, 50.386757091930086]
      }
    },
    {
      "type": "Feature",
      "properties": {
        "name": "The Mountain Inn",
        "description": "",
        "category": "Pub"
      },
      "geometry": {
        "type": "Point",
        "coordinates": [-3.976839319611446, 50.41772153699395]
      }
    },
    {
      "type": "Feature",
      "properties": {
        "name": "Cornwood Inn",
        "description": "<a href=https://www.cornwood-inn.com/ target=_blank>Cornwood Inn</a target=_blank>",
        "category": "Pub"
      },
      "geometry": {
        "type": "Point",
        "coordinates": [-3.9644793421910176, 50.42040285575875]
      }
    },
    {
      "type": "Feature",
      "properties": {
        "name": "The Ship Inn (Noss Mayo)",
        "description": "<a href=https://www.shipinn-nossmayo.co.uk/ target=_blank>The Ship Inn (Noss Mayo)</a target=_blank>",
        "category": "Pub"
      },
      "geometry": {
        "type": "Point",
        "coordinates": [-4.040678774742404, 50.3108531310876]
      }
    },
    {
      "type": "Feature",
      "properties": {
        "name": "The Swan Inn (Noss Mayo)",
        "description": "<a href=https://www.swaninnnossmayo.com/ target=_blank>The Swan Inn (Noss Mayo)</a target=_blank>",
        "category": "Pub"
      },
      "geometry": {
        "type": "Point",
        "coordinates": [-4.039603535784548, 50.311754640972616]
      }
    }
  ]
}