<?xml version="1.0" encoding="UTF-8" ?>
<gpx
 version="1.0"
 creator="Maverick - http://www.maverickgps.com"
 xmlns:xsi="http://www.w3.org/2001/XMLSchema-instance"
 xmlns="http://www.topografix.com/GPX/1/0"
 xsi:schemaLocation="http://www.topografix.com/GPX/1/0 http://www.topografix.com/GPX/1/0/gpx.xsd">
<time>2026-08-13T17:09:21Z</time>
<trk>
 <name>2026-08-13 @ 18-09-21</name>
 <trkseg>
  <trkpt lat="50.523587" lon="-3.819761">
    <ele>48</ele>
    <time>2026-08-13T17:09:21Z</time>
    <speed>0.08</speed>
  </trkpt>
  <trkpt lat="50.523529" lon="-3.819636">
    <ele>45</ele>
    <time>2026-08-13T17:09:36Z</time>
    <speed>1.68</speed>
  </trkpt>
  <trkpt lat="50.523563" lon="-3.819485">
    <ele>45</ele>
    <time>2026-08-13T17:09:52Z</time>
    <speed>1.09</speed>
  </trkpt>
  <trkpt lat="50.523517" lon="-3.819363">
    <ele>40</ele>
    <time>2026-08-13T17:10:03Z</time>
    <speed>2.0</speed>
  </trkpt>
  <trkpt lat="50.523470" lon="-3.819129">
    <ele>47</ele>
    <time>2026-08-13T17:10:14Z</time>
    <speed>1.41</speed>
  </trkpt>
  <trkpt lat="50.523475" lon="-3.818983">
    <ele>44</ele>
    <time>2026-08-13T17:10:28Z</time>
    <speed>1.23</speed>
  </trkpt>
  <trkpt lat="50.523407" lon="-3.818837">
    <ele>43</ele>
    <time>2026-08-13T17:10:39Z</time>
    <speed>1.25</speed>
  </trkpt>
  <trkpt lat="50.523296" lon="-3.818705">
    <ele>46</ele>
    <time>2026-08-13T17:10:50Z</time>
    <speed>0.9</speed>
  </trkpt>
  <trkpt lat="50.523207" lon="-3.818777">
    <ele>47</ele>
    <time>2026-08-13T17:11:06Z</time>
    <speed>1.11</speed>
  </trkpt>
  <trkpt lat="50.523102" lon="-3.818854">
    <ele>46</ele>
    <time>2026-08-13T17:11:17Z</time>
    <speed>1.06</speed>
  </trkpt>
  <trkpt lat="50.522997" lon="-3.818838">
    <ele>46</ele>
    <time>2026-08-13T17:11:28Z</time>
    <speed>0.85999995</speed>
  </trkpt>
  <trkpt lat="50.522903" lon="-3.818855">
    <ele>43</ele>
    <time>2026-08-13T17:11:40Z</time>
    <speed>1.31</speed>
  </trkpt>
  <trkpt lat="50.522790" lon="-3.818856">
    <ele>42</ele>
    <time>2026-08-13T17:11:51Z</time>
    <speed>1.53</speed>
  </trkpt>
  <trkpt lat="50.522668" lon="-3.818873">
    <ele>47</ele>
    <time>2026-08-13T17:12:02Z</time>
    <speed>1.11</speed>
  </trkpt>
  <trkpt lat="50.522540" lon="-3.818829">
    <ele>47</ele>
    <time>2026-08-13T17:12:13Z</time>
    <speed>0.98999995</speed>
  </trkpt>
  <trkpt lat="50.522434" lon="-3.818868">
    <ele>49</ele>
    <time>2026-08-13T17:12:24Z</time>
    <speed>1.03</speed>
  </trkpt>
  <trkpt lat="50.522304" lon="-3.818934">
    <ele>46</ele>
    <time>2026-08-13T17:12:35Z</time>
    <speed>1.26</speed>
  </trkpt>
  <trkpt lat="50.522211" lon="-3.819023">
    <ele>44</ele>
    <time>2026-08-13T17:12:46Z</time>
    <speed>0.74</speed>
  </trkpt>
  <trkpt lat="50.522116" lon="-3.819083">
    <ele>40</ele>
    <time>2026-08-13T17:12:57Z</time>
    <speed>0.55</speed>
  </trkpt>
  <trkpt lat="50.522016" lon="-3.819116">
    <ele>48</ele>
    <time>2026-08-13T17:13:08Z</time>
    <speed>0.78999996</speed>
  </trkpt>
  <trkpt lat="50.521917" lon="-3.819164">
    <ele>46</ele>
    <time>2026-08-13T17:13:19Z</time>
    <speed>0.88</speed>
  </trkpt>
  <trkpt lat="50.521765" lon="-3.819197">
    <ele>48</ele>
    <time>2026-08-13T17:13:30Z</time>
    <speed>0.84999996</speed>
  </trkpt>
  <trkpt lat="50.521672" lon="-3.819288">
    <ele>46</ele>
    <time>2026-08-13T17:13:41Z</time>
    <speed>1.4599999</speed>
  </trkpt>
  <trkpt lat="50.521525" lon="-3.819404">
    <ele>42</ele>
    <time>2026-08-13T17:13:52Z</time>
    <speed>0.88</speed>
  </trkpt>
  <trkpt lat="50.521439" lon="-3.819537">
    <ele>48</ele>
    <time>2026-08-13T17:14:03Z</time>
    <speed>1.0699999</speed>
  </trkpt>
  <trkpt lat="50.521343" lon="-3.819519">
    <ele>50</ele>
    <time>2026-08-13T17:14:14Z</time>
    <speed>1.36</speed>
  </trkpt>
  <trkpt lat="50.521197" lon="-3.819529">
    <ele>49</ele>
    <time>2026-08-13T17:14:25Z</time>
    <speed>1.2099999</speed>
  </trkpt>
  <trkpt lat="50.521050" lon="-3.819612">
    <ele>47</ele>
    <time>2026-08-13T17:14:36Z</time>
    <speed>0.41</speed>
  </trkpt>
  <trkpt lat="50.520965" lon="-3.819682">
    <ele>50</ele>
    <time>2026-08-13T17:14:47Z</time>
    <speed>0.91999996</speed>
  </trkpt>
  <trkpt lat="50.520808" lon="-3.819824">
    <ele>49</ele>
    <time>2026-08-13T17:14:58Z</time>
    <speed>0.75</speed>
  </trkpt>
  <trkpt lat="50.520688" lon="-3.819891">
    <ele>42</ele>
    <time>2026-08-13T17:15:09Z</time>
    <speed>1.27</speed>
  </trkpt>
  <trkpt lat="50.520565" lon="-3.819927">
    <ele>48</ele>
    <time>2026-08-13T17:15:20Z</time>
    <speed>1.14</speed>
  </trkpt>
  <trkpt lat="50.520400" lon="-3.819970">
    <ele>43</ele>
    <time>2026-08-13T17:15:31Z</time>
    <speed>1.41</speed>
  </trkpt>
  <trkpt lat="50.520282" lon="-3.819909">
    <ele>48</ele>
    <time>2026-08-13T17:15:42Z</time>
    <speed>0.61</speed>
  </trkpt>
  <trkpt lat="50.520186" lon="-3.819862">
    <ele>48</ele>
    <time>2026-08-13T17:15:53Z</time>
    <speed>0.82</speed>
  </trkpt>
  <trkpt lat="50.520052" lon="-3.819880">
    <ele>47</ele>
    <time>2026-08-13T17:16:04Z</time>
    <speed>0.29</speed>
  </trkpt>
  <trkpt lat="50.519894" lon="-3.819892">
    <ele>46</ele>
    <time>2026-08-13T17:16:15Z</time>
    <speed>1.22</speed>
  </trkpt>
  <trkpt lat="50.519763" lon="-3.819845">
    <ele>47</ele>
    <time>2026-08-13T17:16:26Z</time>
    <speed>0.83</speed>
  </trkpt>
  <trkpt lat="50.519648" lon="-3.819890">
    <ele>49</ele>
    <time>2026-08-13T17:16:37Z</time>
    <speed>0.71</speed>
  </trkpt>
  <trkpt lat="50.519490" lon="-3.819885">
    <ele>53</ele>
    <time>2026-08-13T17:16:48Z</time>
    <speed>1.16</speed>
  </trkpt>
  <trkpt lat="50.519353" lon="-3.819889">
    <ele>53</ele>
    <time>2026-08-13T17:16:59Z</time>
    <speed>0.95</speed>
  </trkpt>
  <trkpt lat="50.519241" lon="-3.819876">
    <ele>50</ele>
    <time>2026-08-13T17:17:10Z</time>
    <speed>0.7</speed>
  </trkpt>
  <trkpt lat="50.519139" lon="-3.819856">
    <ele>52</ele>
    <time>2026-08-13T17:17:21Z</time>
    <speed>1.52</speed>
  </trkpt>
  <trkpt lat="50.518988" lon="-3.819777">
    <ele>50</ele>
    <time>2026-08-13T17:17:32Z</time>
    <speed>0.85999995</speed>
  </trkpt>
  <trkpt lat="50.518838" lon="-3.819769">
    <ele>50</ele>
    <time>2026-08-13T17:17:43Z</time>
    <speed>0.81</speed>
  </trkpt>
  <trkpt lat="50.518749" lon="-3.819726">
    <ele>49</ele>
    <time>2026-08-13T17:17:56Z</time>
    <speed>0.39999998</speed>
  </trkpt>
  <trkpt lat="50.518613" lon="-3.819740">
    <ele>44</ele>
    <time>2026-08-13T17:18:07Z</time>
    <speed>1.1</speed>
  </trkpt>
  <trkpt lat="50.518469" lon="-3.819816">
    <ele>55</ele>
    <time>2026-08-13T17:18:18Z</time>
    <speed>0.32</speed>
  </trkpt>
  <trkpt lat="50.518412" lon="-3.819930">
    <ele>50</ele>
    <time>2026-08-13T17:18:40Z</time>
    <speed>0.98999995</speed>
  </trkpt>
  <trkpt lat="50.518312" lon="-3.819985">
    <ele>43</ele>
    <time>2026-08-13T17:18:51Z</time>
    <speed>1.27</speed>
  </trkpt>
  <trkpt lat="50.518072" lon="-3.820117">
    <ele>48</ele>
    <time>2026-08-13T17:19:02Z</time>
    <speed>1.81</speed>
  </trkpt>
  <trkpt lat="50.517950" lon="-3.820185">
    <ele>51</ele>
    <time>2026-08-13T17:19:13Z</time>
    <speed>1.9599999</speed>
  </trkpt>
  <trkpt lat="50.517859" lon="-3.820260">
    <ele>51</ele>
    <time>2026-08-13T17:19:24Z</time>
    <speed>1.6899999</speed>
  </trkpt>
  <trkpt lat="50.517725" lon="-3.820298">
    <ele>54</ele>
    <time>2026-08-13T17:19:35Z</time>
    <speed>1.31</speed>
  </trkpt>
  <trkpt lat="50.517595" lon="-3.820423">
    <ele>54</ele>
    <time>2026-08-13T17:19:46Z</time>
    <speed>1.87</speed>
  </trkpt>
  <trkpt lat="50.517453" lon="-3.820556">
    <ele>54</ele>
    <time>2026-08-13T17:19:57Z</time>
    <speed>0.84</speed>
  </trkpt>
  <trkpt lat="50.517390" lon="-3.820697">
    <ele>56</ele>
    <time>2026-08-13T17:20:08Z</time>
    <speed>0.59999996</speed>
  </trkpt>
  <trkpt lat="50.517328" lon="-3.820819">
    <ele>50</ele>
    <time>2026-08-13T17:20:21Z</time>
    <speed>0.63</speed>
  </trkpt>
  <trkpt lat="50.517206" lon="-3.820991">
    <ele>59</ele>
    <time>2026-08-13T17:20:32Z</time>
    <speed>0.64</speed>
  </trkpt>
  <trkpt lat="50.517106" lon="-3.821123">
    <ele>54</ele>
    <time>2026-08-13T17:20:43Z</time>
    <speed>0.42999998</speed>
  </trkpt>
  <trkpt lat="50.516974" lon="-3.821267">
    <ele>58</ele>
    <time>2026-08-13T17:20:54Z</time>
    <speed>2.28</speed>
  </trkpt>
  <trkpt lat="50.516877" lon="-3.821500">
    <ele>58</ele>
    <time>2026-08-13T17:21:05Z</time>
    <speed>2.48</speed>
  </trkpt>
  <trkpt lat="50.516839" lon="-3.821652">
    <ele>54</ele>
    <time>2026-08-13T17:21:16Z</time>
    <speed>1.36</speed>
  </trkpt>
  <trkpt lat="50.516768" lon="-3.821751">
    <ele>55</ele>
    <time>2026-08-13T17:21:27Z</time>
    <speed>1.1999999</speed>
  </trkpt>
  <trkpt lat="50.516671" lon="-3.821841">
    <ele>50</ele>
    <time>2026-08-13T17:21:38Z</time>
    <speed>0.59999996</speed>
  </trkpt>
  <trkpt lat="50.516569" lon="-3.821969">
    <ele>52</ele>
    <time>2026-08-13T17:21:49Z</time>
    <speed>1.4699999</speed>
  </trkpt>
  <trkpt lat="50.516536" lon="-3.822118">
    <ele>54</ele>
    <time>2026-08-13T17:22:02Z</time>
    <speed>1.4399999</speed>
  </trkpt>
  <trkpt lat="50.516443" lon="-3.822363">
    <ele>56</ele>
    <time>2026-08-13T17:22:13Z</time>
    <speed>1.3399999</speed>
  </trkpt>
  <trkpt lat="50.516374" lon="-3.822577">
    <ele>52</ele>
    <time>2026-08-13T17:22:24Z</time>
    <speed>0.63</speed>
  </trkpt>
  <trkpt lat="50.516364" lon="-3.822733">
    <ele>54</ele>
    <time>2026-08-13T17:22:36Z</time>
    <speed>0.9</speed>
  </trkpt>
  <trkpt lat="50.516423" lon="-3.822919">
    <ele>50</ele>
    <time>2026-08-13T17:22:47Z</time>
    <speed>1.36</speed>
  </trkpt>
  <trkpt lat="50.516447" lon="-3.823083">
    <ele>49</ele>
    <time>2026-08-13T17:22:58Z</time>
    <speed>1.41</speed>
  </trkpt>
  <trkpt lat="50.516494" lon="-3.823281">
    <ele>51</ele>
    <time>2026-08-13T17:23:09Z</time>
    <speed>0.88</speed>
  </trkpt>
  <trkpt lat="50.516480" lon="-3.823538">
    <ele>50</ele>
    <time>2026-08-13T17:23:20Z</time>
    <speed>1.16</speed>
  </trkpt>
  <trkpt lat="50.516497" lon="-3.823766">
    <ele>50</ele>
    <time>2026-08-13T17:23:31Z</time>
    <speed>1.0699999</speed>
  </trkpt>
  <trkpt lat="50.516533" lon="-3.823966">
    <ele>49</ele>
    <time>2026-08-13T17:23:42Z</time>
    <speed>1.38</speed>
  </trkpt>
  <trkpt lat="50.516574" lon="-3.824121">
    <ele>51</ele>
    <time>2026-08-13T17:23:53Z</time>
    <speed>1.36</speed>
  </trkpt>
  <trkpt lat="50.516577" lon="-3.824391">
    <ele>51</ele>
    <time>2026-08-13T17:24:04Z</time>
    <speed>1.05</speed>
  </trkpt>
  <trkpt lat="50.516567" lon="-3.824648">
    <ele>57</ele>
    <time>2026-08-13T17:24:15Z</time>
    <speed>0.81</speed>
  </trkpt>
  <trkpt lat="50.516581" lon="-3.824829">
    <ele>51</ele>
    <time>2026-08-13T17:24:26Z</time>
    <speed>0.82</speed>
  </trkpt>
  <trkpt lat="50.516544" lon="-3.824993">
    <ele>52</ele>
    <time>2026-08-13T17:24:37Z</time>
    <speed>1.2099999</speed>
  </trkpt>
  <trkpt lat="50.516509" lon="-3.825141">
    <ele>50</ele>
    <time>2026-08-13T17:24:48Z</time>
    <speed>1.56</speed>
  </trkpt>
  <trkpt lat="50.516466" lon="-3.825372">
    <ele>52</ele>
    <time>2026-08-13T17:24:59Z</time>
    <speed>1.62</speed>
  </trkpt>
  <trkpt lat="50.516467" lon="-3.825598">
    <ele>51</ele>
    <time>2026-08-13T17:25:10Z</time>
    <speed>1.88</speed>
  </trkpt>
  <trkpt lat="50.516457" lon="-3.825794">
    <ele>51</ele>
    <time>2026-08-13T17:25:21Z</time>
    <speed>0.71</speed>
  </trkpt>
  <trkpt lat="50.516395" lon="-3.826000">
    <ele>52</ele>
    <time>2026-08-13T17:25:32Z</time>
    <speed>1.66</speed>
  </trkpt>
  <trkpt lat="50.516331" lon="-3.826134">
    <ele>49</ele>
    <time>2026-08-13T17:25:44Z</time>
    <speed>1.03</speed>
  </trkpt>
  <trkpt lat="50.516259" lon="-3.826306">
    <ele>49</ele>
    <time>2026-08-13T17:25:55Z</time>
    <speed>0.96999997</speed>
  </trkpt>
  <trkpt lat="50.516197" lon="-3.826440">
    <ele>58</ele>
    <time>2026-08-13T17:26:06Z</time>
    <speed>1.38</speed>
  </trkpt>
  <trkpt lat="50.516162" lon="-3.826586">
    <ele>58</ele>
    <time>2026-08-13T17:26:19Z</time>
    <speed>0.95</speed>
  </trkpt>
  <trkpt lat="50.516202" lon="-3.826740">
    <ele>59</ele>
    <time>2026-08-13T17:26:30Z</time>
    <speed>1.27</speed>
  </trkpt>
  <trkpt lat="50.516212" lon="-3.826944">
    <ele>61</ele>
    <time>2026-08-13T17:26:41Z</time>
    <speed>0.93</speed>
  </trkpt>
  <trkpt lat="50.516208" lon="-3.827088">
    <ele>66</ele>
    <time>2026-08-13T17:26:55Z</time>
    <speed>0.53</speed>
  </trkpt>
  <trkpt lat="50.516219" lon="-3.827233">
    <ele>67</ele>
    <time>2026-08-13T17:27:11Z</time>
    <speed>0.58</speed>
  </trkpt>
  <trkpt lat="50.516178" lon="-3.827363">
    <ele>71</ele>
    <time>2026-08-13T17:27:24Z</time>
    <speed>0.97999996</speed>
  </trkpt>
  <trkpt lat="50.516159" lon="-3.827504">
    <ele>66</ele>
    <time>2026-08-13T17:27:37Z</time>
    <speed>0.78</speed>
  </trkpt>
  <trkpt lat="50.516128" lon="-3.827651">
    <ele>71</ele>
    <time>2026-08-13T17:27:48Z</time>
    <speed>0.42</speed>
  </trkpt>
  <trkpt lat="50.516108" lon="-3.827791">
    <ele>76</ele>
    <time>2026-08-13T17:28:00Z</time>
    <speed>0.85999995</speed>
  </trkpt>
  <trkpt lat="50.516075" lon="-3.827934">
    <ele>77</ele>
    <time>2026-08-13T17:28:13Z</time>
    <speed>0.59</speed>
  </trkpt>
  <trkpt lat="50.516037" lon="-3.828064">
    <ele>77</ele>
    <time>2026-08-13T17:28:25Z</time>
    <speed>0.65</speed>
  </trkpt>
  <trkpt lat="50.516030" lon="-3.828214">
    <ele>79</ele>
    <time>2026-08-13T17:28:36Z</time>
    <speed>0.61</speed>
  </trkpt>
  <trkpt lat="50.516072" lon="-3.828400">
    <ele>79</ele>
    <time>2026-08-13T17:28:47Z</time>
    <speed>1.2099999</speed>
  </trkpt>
  <trkpt lat="50.516146" lon="-3.828543">
    <ele>75</ele>
    <time>2026-08-13T17:28:58Z</time>
    <speed>0.82</speed>
  </trkpt>
  <trkpt lat="50.516222" lon="-3.828698">
    <ele>74</ele>
    <time>2026-08-13T17:29:09Z</time>
    <speed>1.15</speed>
  </trkpt>
  <trkpt lat="50.516317" lon="-3.828833">
    <ele>70</ele>
    <time>2026-08-13T17:29:20Z</time>
    <speed>0.56</speed>
  </trkpt>
  <trkpt lat="50.516400" lon="-3.828960">
    <ele>70</ele>
    <time>2026-08-13T17:29:31Z</time>
    <speed>0.76</speed>
  </trkpt>
  <trkpt lat="50.516456" lon="-3.829070">
    <ele>67</ele>
    <time>2026-08-13T17:29:42Z</time>
    <speed>0.65</speed>
  </trkpt>
  <trkpt lat="50.516576" lon="-3.829184">
    <ele>66</ele>
    <time>2026-08-13T17:29:53Z</time>
    <speed>0.69</speed>
  </trkpt>
  <trkpt lat="50.516624" lon="-3.829325">
    <ele>64</ele>
    <time>2026-08-13T17:30:04Z</time>
    <speed>0.65999997</speed>
  </trkpt>
  <trkpt lat="50.516711" lon="-3.829395">
    <ele>62</ele>
    <time>2026-08-13T17:30:15Z</time>
    <speed>0.87</speed>
  </trkpt>
  <trkpt lat="50.516780" lon="-3.829506">
    <ele>59</ele>
    <time>2026-08-13T17:30:26Z</time>
    <speed>1.06</speed>
  </trkpt>
  <trkpt lat="50.516874" lon="-3.829630">
    <ele>58</ele>
    <time>2026-08-13T17:30:37Z</time>
    <speed>2.25</speed>
  </trkpt>
  <trkpt lat="50.517026" lon="-3.829671">
    <ele>57</ele>
    <time>2026-08-13T17:30:48Z</time>
    <speed>1.09</speed>
  </trkpt>
  <trkpt lat="50.517122" lon="-3.829757">
    <ele>55</ele>
    <time>2026-08-13T17:30:59Z</time>
    <speed>0.39</speed>
  </trkpt>
  <trkpt lat="50.517198" lon="-3.829891">
    <ele>56</ele>
    <time>2026-08-13T17:31:10Z</time>
    <speed>1.4699999</speed>
  </trkpt>
  <trkpt lat="50.517245" lon="-3.830022">
    <ele>54</ele>
    <time>2026-08-13T17:31:22Z</time>
    <speed>1.1999999</speed>
  </trkpt>
  <trkpt lat="50.517266" lon="-3.830188">
    <ele>57</ele>
    <time>2026-08-13T17:31:33Z</time>
    <speed>0.9</speed>
  </trkpt>
  <trkpt lat="50.517379" lon="-3.830319">
    <ele>55</ele>
    <time>2026-08-13T17:31:44Z</time>
    <speed>1.5899999</speed>
  </trkpt>
  <trkpt lat="50.517441" lon="-3.830502">
    <ele>53</ele>
    <time>2026-08-13T17:31:55Z</time>
    <speed>1.05</speed>
  </trkpt>
  <trkpt lat="50.517485" lon="-3.830702">
    <ele>57</ele>
    <time>2026-08-13T17:32:06Z</time>
    <speed>0.96</speed>
  </trkpt>
  <trkpt lat="50.517550" lon="-3.830829">
    <ele>56</ele>
    <time>2026-08-13T17:32:17Z</time>
    <speed>1.0699999</speed>
  </trkpt>
  <trkpt lat="50.517654" lon="-3.830988">
    <ele>56</ele>
    <time>2026-08-13T17:32:28Z</time>
    <speed>1.9599999</speed>
  </trkpt>
  <trkpt lat="50.517732" lon="-3.831173">
    <ele>57</ele>
    <time>2026-08-13T17:32:39Z</time>
    <speed>0.88</speed>
  </trkpt>
  <trkpt lat="50.517850" lon="-3.831306">
    <ele>59</ele>
    <time>2026-08-13T17:32:50Z</time>
    <speed>1.0</speed>
  </trkpt>
  <trkpt lat="50.517981" lon="-3.831369">
    <ele>59</ele>
    <time>2026-08-13T17:33:01Z</time>
    <speed>1.0699999</speed>
  </trkpt>
  <trkpt lat="50.518152" lon="-3.831455">
    <ele>58</ele>
    <time>2026-08-13T17:33:12Z</time>
    <speed>1.39</speed>
  </trkpt>
  <trkpt lat="50.518281" lon="-3.831463">
    <ele>56</ele>
    <time>2026-08-13T17:33:23Z</time>
    <speed>1.27</speed>
  </trkpt>
  <trkpt lat="50.518339" lon="-3.831601">
    <ele>53</ele>
    <time>2026-08-13T17:33:34Z</time>
    <speed>1.06</speed>
  </trkpt>
  <trkpt lat="50.518420" lon="-3.831736">
    <ele>59</ele>
    <time>2026-08-13T17:33:45Z</time>
    <speed>0.87</speed>
  </trkpt>
  <trkpt lat="50.518453" lon="-3.831958">
    <ele>58</ele>
    <time>2026-08-13T17:33:56Z</time>
    <speed>1.16</speed>
  </trkpt>
  <trkpt lat="50.518554" lon="-3.832120">
    <ele>57</ele>
    <time>2026-08-13T17:34:07Z</time>
    <speed>1.0699999</speed>
  </trkpt>
  <trkpt lat="50.518653" lon="-3.832252">
    <ele>58</ele>
    <time>2026-08-13T17:34:18Z</time>
    <speed>0.61</speed>
  </trkpt>
  <trkpt lat="50.518789" lon="-3.832232">
    <ele>56</ele>
    <time>2026-08-13T17:34:29Z</time>
    <speed>1.3299999</speed>
  </trkpt>
  <trkpt lat="50.518891" lon="-3.832313">
    <ele>57</ele>
    <time>2026-08-13T17:34:40Z</time>
    <speed>1.55</speed>
  </trkpt>
  <trkpt lat="50.519023" lon="-3.832431">
    <ele>60</ele>
    <time>2026-08-13T17:34:51Z</time>
    <speed>1.03</speed>
  </trkpt>
  <trkpt lat="50.519148" lon="-3.832489">
    <ele>59</ele>
    <time>2026-08-13T17:35:02Z</time>
    <speed>0.57</speed>
  </trkpt>
  <trkpt lat="50.519182" lon="-3.832634">
    <ele>59</ele>
    <time>2026-08-13T17:35:13Z</time>
    <speed>1.01</speed>
  </trkpt>
  <trkpt lat="50.519277" lon="-3.832751">
    <ele>59</ele>
    <time>2026-08-13T17:35:24Z</time>
    <speed>1.15</speed>
  </trkpt>
  <trkpt lat="50.519407" lon="-3.832845">
    <ele>60</ele>
    <time>2026-08-13T17:35:35Z</time>
    <speed>1.81</speed>
  </trkpt>
  <trkpt lat="50.519517" lon="-3.832954">
    <ele>60</ele>
    <time>2026-08-13T17:35:46Z</time>
    <speed>1.11</speed>
  </trkpt>
  <trkpt lat="50.519610" lon="-3.833052">
    <ele>60</ele>
    <time>2026-08-13T17:35:57Z</time>
    <speed>1.17</speed>
  </trkpt>
  <trkpt lat="50.519736" lon="-3.833182">
    <ele>59</ele>
    <time>2026-08-13T17:36:08Z</time>
    <speed>0.96999997</speed>
  </trkpt>
  <trkpt lat="50.519767" lon="-3.833330">
    <ele>61</ele>
    <time>2026-08-13T17:36:19Z</time>
    <speed>1.01</speed>
  </trkpt>
  <trkpt lat="50.519855" lon="-3.833428">
    <ele>61</ele>
    <time>2026-08-13T17:36:30Z</time>
    <speed>0.77</speed>
  </trkpt>
  <trkpt lat="50.519965" lon="-3.833563">
    <ele>62</ele>
    <time>2026-08-13T17:36:41Z</time>
    <speed>1.24</speed>
  </trkpt>
  <trkpt lat="50.520078" lon="-3.833711">
    <ele>62</ele>
    <time>2026-08-13T17:36:52Z</time>
    <speed>0.63</speed>
  </trkpt>
  <trkpt lat="50.520198" lon="-3.833796">
    <ele>60</ele>
    <time>2026-08-13T17:37:03Z</time>
    <speed>1.81</speed>
  </trkpt>
  <trkpt lat="50.520285" lon="-3.833947">
    <ele>63</ele>
    <time>2026-08-13T17:37:14Z</time>
    <speed>1.51</speed>
  </trkpt>
  <trkpt lat="50.520389" lon="-3.834076">
    <ele>62</ele>
    <time>2026-08-13T17:37:25Z</time>
    <speed>0.96</speed>
  </trkpt>
  <trkpt lat="50.520503" lon="-3.834215">
    <ele>62</ele>
    <time>2026-08-13T17:37:36Z</time>
    <speed>0.57</speed>
  </trkpt>
  <trkpt lat="50.520549" lon="-3.834471">
    <ele>62</ele>
    <time>2026-08-13T17:37:47Z</time>
    <speed>1.25</speed>
  </trkpt>
  <trkpt lat="50.520647" lon="-3.834567">
    <ele>61</ele>
    <time>2026-08-13T17:37:58Z</time>
    <speed>0.96</speed>
  </trkpt>
  <trkpt lat="50.520748" lon="-3.834633">
    <ele>62</ele>
    <time>2026-08-13T17:38:09Z</time>
    <speed>1.29</speed>
  </trkpt>
  <trkpt lat="50.520851" lon="-3.834582">
    <ele>60</ele>
    <time>2026-08-13T17:38:20Z</time>
    <speed>0.78</speed>
  </trkpt>
  <trkpt lat="50.520943" lon="-3.834560">
    <ele>56</ele>
    <time>2026-08-13T17:38:32Z</time>
    <speed>0.78</speed>
  </trkpt>
  <trkpt lat="50.521062" lon="-3.834499">
    <ele>66</ele>
    <time>2026-08-13T17:38:43Z</time>
    <speed>0.45</speed>
  </trkpt>
  <trkpt lat="50.521169" lon="-3.834498">
    <ele>68</ele>
    <time>2026-08-13T17:38:54Z</time>
    <speed>0.96999997</speed>
  </trkpt>
  <trkpt lat="50.521279" lon="-3.834470">
    <ele>64</ele>
    <time>2026-08-13T17:39:05Z</time>
    <speed>0.76</speed>
  </trkpt>
  <trkpt lat="50.521374" lon="-3.834464">
    <ele>68</ele>
    <time>2026-08-13T17:39:16Z</time>
    <speed>0.79999995</speed>
  </trkpt>
  <trkpt lat="50.521467" lon="-3.834478">
    <ele>66</ele>
    <time>2026-08-13T17:39:27Z</time>
    <speed>1.12</speed>
  </trkpt>
  <trkpt lat="50.521567" lon="-3.834606">
    <ele>71</ele>
    <time>2026-08-13T17:39:38Z</time>
    <speed>1.02</speed>
  </trkpt>
  <trkpt lat="50.521661" lon="-3.834732">
    <ele>73</ele>
    <time>2026-08-13T17:39:49Z</time>
    <speed>0.61</speed>
  </trkpt>
  <trkpt lat="50.521773" lon="-3.834844">
    <ele>73</ele>
    <time>2026-08-13T17:40:00Z</time>
    <speed>0.75</speed>
  </trkpt>
  <trkpt lat="50.521845" lon="-3.834997">
    <ele>73</ele>
    <time>2026-08-13T17:40:11Z</time>
    <speed>1.22</speed>
  </trkpt>
  <trkpt lat="50.521944" lon="-3.835090">
    <ele>77</ele>
    <time>2026-08-13T17:40:22Z</time>
    <speed>0.97999996</speed>
  </trkpt>
  <trkpt lat="50.522046" lon="-3.835212">
    <ele>72</ele>
    <time>2026-08-13T17:40:33Z</time>
    <speed>0.96</speed>
  </trkpt>
  <trkpt lat="50.522158" lon="-3.835329">
    <ele>68</ele>
    <time>2026-08-13T17:40:44Z</time>
    <speed>0.84999996</speed>
  </trkpt>
  <trkpt lat="50.522241" lon="-3.835449">
    <ele>72</ele>
    <time>2026-08-13T17:40:55Z</time>
    <speed>0.35999998</speed>
  </trkpt>
  <trkpt lat="50.522332" lon="-3.835585">
    <ele>78</ele>
    <time>2026-08-13T17:41:06Z</time>
    <speed>1.41</speed>
  </trkpt>
  <trkpt lat="50.522453" lon="-3.835659">
    <ele>72</ele>
    <time>2026-08-13T17:41:17Z</time>
    <speed>0.72999996</speed>
  </trkpt>
  <trkpt lat="50.522534" lon="-3.835792">
    <ele>74</ele>
    <time>2026-08-13T17:41:28Z</time>
    <speed>0.9</speed>
  </trkpt>
  <trkpt lat="50.522612" lon="-3.835918">
    <ele>77</ele>
    <time>2026-08-13T17:41:39Z</time>
    <speed>0.85999995</speed>
  </trkpt>
  <trkpt lat="50.522699" lon="-3.836027">
    <ele>76</ele>
    <time>2026-08-13T17:41:50Z</time>
    <speed>0.87</speed>
  </trkpt>
  <trkpt lat="50.522785" lon="-3.836184">
    <ele>76</ele>
    <time>2026-08-13T17:42:01Z</time>
    <speed>1.28</speed>
  </trkpt>
  <trkpt lat="50.522910" lon="-3.836300">
    <ele>76</ele>
    <time>2026-08-13T17:42:12Z</time>
    <speed>0.68</speed>
  </trkpt>
  <trkpt lat="50.523047" lon="-3.836418">
    <ele>76</ele>
    <time>2026-08-13T17:42:23Z</time>
    <speed>1.04</speed>
  </trkpt>
  <trkpt lat="50.523114" lon="-3.836566">
    <ele>75</ele>
    <time>2026-08-13T17:42:34Z</time>
    <speed>1.17</speed>
  </trkpt>
  <trkpt lat="50.523188" lon="-3.836682">
    <ele>76</ele>
    <time>2026-08-13T17:42:45Z</time>
    <speed>0.81</speed>
  </trkpt>
  <trkpt lat="50.523260" lon="-3.836831">
    <ele>75</ele>
    <time>2026-08-13T17:42:56Z</time>
    <speed>1.28</speed>
  </trkpt>
  <trkpt lat="50.523399" lon="-3.836959">
    <ele>76</ele>
    <time>2026-08-13T17:43:07Z</time>
    <speed>1.4599999</speed>
  </trkpt>
  <trkpt lat="50.523488" lon="-3.836915">
    <ele>77</ele>
    <time>2026-08-13T17:43:24Z</time>
    <speed>0.78</speed>
  </trkpt>
  <trkpt lat="50.523579" lon="-3.836907">
    <ele>76</ele>
    <time>2026-08-13T17:43:35Z</time>
    <speed>0.29</speed>
  </trkpt>
  <trkpt lat="50.523659" lon="-3.837024">
    <ele>76</ele>
    <time>2026-08-13T17:43:46Z</time>
    <speed>0.65999997</speed>
  </trkpt>
  <trkpt lat="50.523782" lon="-3.837051">
    <ele>77</ele>
    <time>2026-08-13T17:43:57Z</time>
    <speed>0.76</speed>
  </trkpt>
  <trkpt lat="50.523910" lon="-3.837156">
    <ele>75</ele>
    <time>2026-08-13T17:44:08Z</time>
    <speed>0.88</speed>
  </trkpt>
  <trkpt lat="50.523985" lon="-3.837242">
    <ele>73</ele>
    <time>2026-08-13T17:44:21Z</time>
    <speed>1.11</speed>
  </trkpt>
  <trkpt lat="50.524110" lon="-3.837293">
    <ele>78</ele>
    <time>2026-08-13T17:44:32Z</time>
    <speed>1.01</speed>
  </trkpt>
  <trkpt lat="50.524212" lon="-3.837326">
    <ele>83</ele>
    <time>2026-08-13T17:44:43Z</time>
    <speed>0.45</speed>
  </trkpt>
  <trkpt lat="50.524290" lon="-3.837403">
    <ele>74</ele>
    <time>2026-08-13T17:44:57Z</time>
    <speed>0.90999997</speed>
  </trkpt>
  <trkpt lat="50.524367" lon="-3.837479">
    <ele>86</ele>
    <time>2026-08-13T17:45:08Z</time>
    <speed>0.68</speed>
  </trkpt>
  <trkpt lat="50.524459" lon="-3.837506">
    <ele>83</ele>
    <time>2026-08-13T17:45:21Z</time>
    <speed>0.71999997</speed>
  </trkpt>
  <trkpt lat="50.524554" lon="-3.837522">
    <ele>84</ele>
    <time>2026-08-13T17:45:35Z</time>
    <speed>0.98999995</speed>
  </trkpt>
  <trkpt lat="50.524650" lon="-3.837605">
    <ele>86</ele>
    <time>2026-08-13T17:46:18Z</time>
    <speed>0.62</speed>
  </trkpt>
  <trkpt lat="50.524766" lon="-3.837711">
    <ele>92</ele>
    <time>2026-08-13T17:46:29Z</time>
    <speed>1.42</speed>
  </trkpt>
  <trkpt lat="50.524890" lon="-3.837724">
    <ele>88</ele>
    <time>2026-08-13T17:46:40Z</time>
    <speed>1.31</speed>
  </trkpt>
  <trkpt lat="50.525001" lon="-3.837697">
    <ele>92</ele>
    <time>2026-08-13T17:46:51Z</time>
    <speed>0.71</speed>
  </trkpt>
  <trkpt lat="50.525105" lon="-3.837641">
    <ele>83</ele>
    <time>2026-08-13T17:47:02Z</time>
    <speed>0.51</speed>
  </trkpt>
  <trkpt lat="50.525215" lon="-3.837651">
    <ele>89</ele>
    <time>2026-08-13T17:47:13Z</time>
    <speed>0.91999996</speed>
  </trkpt>
  <trkpt lat="50.525357" lon="-3.837668">
    <ele>88</ele>
    <time>2026-08-13T17:47:24Z</time>
    <speed>0.96999997</speed>
  </trkpt>
  <trkpt lat="50.525445" lon="-3.837626">
    <ele>86</ele>
    <time>2026-08-13T17:47:41Z</time>
    <speed>1.1</speed>
  </trkpt>
  <trkpt lat="50.525537" lon="-3.837682">
    <ele>72</ele>
    <time>2026-08-13T17:47:53Z</time>
    <speed>1.24</speed>
  </trkpt>
  <trkpt lat="50.525675" lon="-3.837722">
    <ele>89</ele>
    <time>2026-08-13T17:48:04Z</time>
    <speed>0.78</speed>
  </trkpt>
  <trkpt lat="50.525790" lon="-3.837718">
    <ele>90</ele>
    <time>2026-08-13T17:48:15Z</time>
    <speed>0.31</speed>
  </trkpt>
  <trkpt lat="50.525903" lon="-3.837711">
    <ele>89</ele>
    <time>2026-08-13T17:48:26Z</time>
    <speed>0.87</speed>
  </trkpt>
  <trkpt lat="50.526070" lon="-3.837703">
    <ele>90</ele>
    <time>2026-08-13T17:48:37Z</time>
    <speed>1.1999999</speed>
  </trkpt>
  <trkpt lat="50.526195" lon="-3.837733">
    <ele>86</ele>
    <time>2026-08-13T17:48:48Z</time>
    <speed>1.26</speed>
  </trkpt>
  <trkpt lat="50.526318" lon="-3.837703">
    <ele>87</ele>
    <time>2026-08-13T17:48:59Z</time>
    <speed>0.57</speed>
  </trkpt>
  <trkpt lat="50.526411" lon="-3.837636">
    <ele>86</ele>
    <time>2026-08-13T17:49:10Z</time>
    <speed>0.72999996</speed>
  </trkpt>
  <trkpt lat="50.526510" lon="-3.837568">
    <ele>81</ele>
    <time>2026-08-13T17:49:21Z</time>
    <speed>1.09</speed>
  </trkpt>
  <trkpt lat="50.526602" lon="-3.837546">
    <ele>85</ele>
    <time>2026-08-13T17:49:32Z</time>
    <speed>1.01</speed>
  </trkpt>
  <trkpt lat="50.526751" lon="-3.837497">
    <ele>84</ele>
    <time>2026-08-13T17:49:43Z</time>
    <speed>0.68</speed>
  </trkpt>
  <trkpt lat="50.526854" lon="-3.837468">
    <ele>81</ele>
    <time>2026-08-13T17:49:54Z</time>
    <speed>1.0</speed>
  </trkpt>
  <trkpt lat="50.526986" lon="-3.837615">
    <ele>83</ele>
    <time>2026-08-13T17:50:05Z</time>
    <speed>0.78999996</speed>
  </trkpt>
  <trkpt lat="50.527171" lon="-3.837661">
    <ele>83</ele>
    <time>2026-08-13T17:50:16Z</time>
    <speed>0.66999996</speed>
  </trkpt>
  <trkpt lat="50.527272" lon="-3.837723">
    <ele>81</ele>
    <time>2026-08-13T17:50:27Z</time>
    <speed>1.16</speed>
  </trkpt>
  <trkpt lat="50.527311" lon="-3.837877">
    <ele>85</ele>
    <time>2026-08-13T17:50:38Z</time>
    <speed>0.38</speed>
  </trkpt>
  <trkpt lat="50.527337" lon="-3.838015">
    <ele>88</ele>
    <time>2026-08-13T17:50:52Z</time>
    <speed>0.48999998</speed>
  </trkpt>
  <trkpt lat="50.527391" lon="-3.838133">
    <ele>89</ele>
    <time>2026-08-13T17:51:04Z</time>
    <speed>1.24</speed>
  </trkpt>
  <trkpt lat="50.527479" lon="-3.838173">
    <ele>91</ele>
    <time>2026-08-13T17:51:16Z</time>
    <speed>0.52</speed>
  </trkpt>
  <trkpt lat="50.527573" lon="-3.838292">
    <ele>92</ele>
    <time>2026-08-13T17:51:27Z</time>
    <speed>0.52</speed>
  </trkpt>
  <trkpt lat="50.527702" lon="-3.838281">
    <ele>85</ele>
    <time>2026-08-13T17:51:38Z</time>
    <speed>0.39999998</speed>
  </trkpt>
  <trkpt lat="50.527835" lon="-3.838314">
    <ele>89</ele>
    <time>2026-08-13T17:51:49Z</time>
    <speed>0.57</speed>
  </trkpt>
  <trkpt lat="50.528008" lon="-3.838440">
    <ele>84</ele>
    <time>2026-08-13T17:52:00Z</time>
    <speed>0.82</speed>
  </trkpt>
  <trkpt lat="50.528132" lon="-3.838519">
    <ele>91</ele>
    <time>2026-08-13T17:52:11Z</time>
    <speed>1.8299999</speed>
  </trkpt>
  <trkpt lat="50.528242" lon="-3.838651">
    <ele>91</ele>
    <time>2026-08-13T17:52:22Z</time>
    <speed>1.0</speed>
  </trkpt>
  <trkpt lat="50.528386" lon="-3.838762">
    <ele>93</ele>
    <time>2026-08-13T17:52:33Z</time>
    <speed>1.4699999</speed>
  </trkpt>
  <trkpt lat="50.528495" lon="-3.838832">
    <ele>92</ele>
    <time>2026-08-13T17:52:44Z</time>
    <speed>0.88</speed>
  </trkpt>
  <trkpt lat="50.528567" lon="-3.839009">
    <ele>96</ele>
    <time>2026-08-13T17:52:55Z</time>
    <speed>1.27</speed>
  </trkpt>
  <trkpt lat="50.528661" lon="-3.839062">
    <ele>94</ele>
    <time>2026-08-13T17:53:06Z</time>
    <speed>0.97999996</speed>
  </trkpt>
  <trkpt lat="50.528803" lon="-3.839181">
    <ele>93</ele>
    <time>2026-08-13T17:53:17Z</time>
    <speed>1.13</speed>
  </trkpt>
  <trkpt lat="50.528838" lon="-3.839328">
    <ele>94</ele>
    <time>2026-08-13T17:53:43Z</time>
    <speed>1.9</speed>
  </trkpt>
  <trkpt lat="50.528926" lon="-3.839378">
    <ele>94</ele>
    <time>2026-08-13T17:54:04Z</time>
    <speed>0.34</speed>
  </trkpt>
  <trkpt lat="50.529008" lon="-3.839436">
    <ele>91</ele>
    <time>2026-08-13T17:54:24Z</time>
    <speed>0.25</speed>
  </trkpt>
  <trkpt lat="50.529096" lon="-3.839547">
    <ele>93</ele>
    <time>2026-08-13T17:54:35Z</time>
    <speed>1.04</speed>
  </trkpt>
  <trkpt lat="50.529202" lon="-3.839552">
    <ele>89</ele>
    <time>2026-08-13T17:54:46Z</time>
    <speed>1.77</speed>
  </trkpt>
  <trkpt lat="50.529295" lon="-3.839717">
    <ele>93</ele>
    <time>2026-08-13T17:54:57Z</time>
    <speed>0.74</speed>
  </trkpt>
  <trkpt lat="50.529374" lon="-3.839793">
    <ele>90</ele>
    <time>2026-08-13T17:55:13Z</time>
    <speed>1.17</speed>
  </trkpt>
  <trkpt lat="50.529464" lon="-3.839775">
    <ele>85</ele>
    <time>2026-08-13T17:55:35Z</time>
    <speed>0.96999997</speed>
  </trkpt>
  <trkpt lat="50.529555" lon="-3.839808">
    <ele>81</ele>
    <time>2026-08-13T17:55:49Z</time>
    <speed>0.85999995</speed>
  </trkpt>
  <trkpt lat="50.529626" lon="-3.839912">
    <ele>84</ele>
    <time>2026-08-13T17:56:00Z</time>
    <speed>0.62</speed>
  </trkpt>
  <trkpt lat="50.529732" lon="-3.839971">
    <ele>85</ele>
    <time>2026-08-13T17:56:11Z</time>
    <speed>0.89</speed>
  </trkpt>
  <trkpt lat="50.529830" lon="-3.840078">
    <ele>86</ele>
    <time>2026-08-13T17:56:22Z</time>
    <speed>0.62</speed>
  </trkpt>
  <trkpt lat="50.529899" lon="-3.840191">
    <ele>85</ele>
    <time>2026-08-13T17:56:34Z</time>
    <speed>0.69</speed>
  </trkpt>
  <trkpt lat="50.529987" lon="-3.840263">
    <ele>85</ele>
    <time>2026-08-13T17:56:45Z</time>
    <speed>0.34</speed>
  </trkpt>
  <trkpt lat="50.530057" lon="-3.840173">
    <ele>84</ele>
    <time>2026-08-13T18:39:27Z</time>
    <speed>0.28</speed>
  </trkpt>
  <trkpt lat="50.529958" lon="-3.840187">
    <ele>84</ele>
    <time>2026-08-13T18:42:19Z</time>
    <speed>0.98999995</speed>
  </trkpt>
  <trkpt lat="50.529943" lon="-3.840330">
    <ele>83</ele>
    <time>2026-08-13T18:43:24Z</time>
    <speed>0.07</speed>
  </trkpt>
  <trkpt lat="50.529987" lon="-3.840206">
    <ele>99</ele>
    <time>2026-08-13T18:44:50Z</time>
    <speed>0.41</speed>
  </trkpt>
  <trkpt lat="50.530079" lon="-3.840196">
    <ele>81</ele>
    <time>2026-08-13T18:45:51Z</time>
    <speed>0.099999994</speed>
  </trkpt>
  <trkpt lat="50.529984" lon="-3.840209">
    <ele>87</ele>
    <time>2026-08-13T18:46:39Z</time>
    <speed>0.9</speed>
  </trkpt>
  <trkpt lat="50.529941" lon="-3.840081">
    <ele>83</ele>
    <time>2026-08-13T18:47:31Z</time>
    <speed>0.45999998</speed>
  </trkpt>
  <trkpt lat="50.529846" lon="-3.840069">
    <ele>82</ele>
    <time>2026-08-13T18:47:44Z</time>
    <speed>0.29999998</speed>
  </trkpt>
  <trkpt lat="50.529766" lon="-3.839984">
    <ele>82</ele>
    <time>2026-08-13T18:47:55Z</time>
    <speed>0.72999996</speed>
  </trkpt>
  <trkpt lat="50.529709" lon="-3.839868">
    <ele>83</ele>
    <time>2026-08-13T18:48:06Z</time>
    <speed>0.32999998</speed>
  </trkpt>
  <trkpt lat="50.529612" lon="-3.839817">
    <ele>83</ele>
    <time>2026-08-13T18:48:17Z</time>
    <speed>0.25</speed>
  </trkpt>
  <trkpt lat="50.529518" lon="-3.839773">
    <ele>88</ele>
    <time>2026-08-13T18:48:35Z</time>
    <speed>0.45</speed>
  </trkpt>
  <trkpt lat="50.529425" lon="-3.839810">
    <ele>89</ele>
    <time>2026-08-13T18:49:00Z</time>
    <speed>0.37</speed>
  </trkpt>
  <trkpt lat="50.529364" lon="-3.839701">
    <ele>87</ele>
    <time>2026-08-13T18:49:15Z</time>
    <speed>0.9</speed>
  </trkpt>
  <trkpt lat="50.529307" lon="-3.839588">
    <ele>90</ele>
    <time>2026-08-13T18:49:31Z</time>
    <speed>0.38</speed>
  </trkpt>
  <trkpt lat="50.529229" lon="-3.839510">
    <ele>90</ele>
    <time>2026-08-13T18:49:45Z</time>
    <speed>0.34</speed>
  </trkpt>
  <trkpt lat="50.529151" lon="-3.839434">
    <ele>91</ele>
    <time>2026-08-13T18:49:59Z</time>
    <speed>0.39999998</speed>
  </trkpt>
  <trkpt lat="50.529072" lon="-3.839361">
    <ele>91</ele>
    <time>2026-08-13T18:50:11Z</time>
    <speed>0.35</speed>
  </trkpt>
  <trkpt lat="50.528974" lon="-3.839326">
    <ele>92</ele>
    <time>2026-08-13T18:50:44Z</time>
    <speed>0.72999996</speed>
  </trkpt>
  <trkpt lat="50.528895" lon="-3.839245">
    <ele>91</ele>
    <time>2026-08-13T18:50:59Z</time>
    <speed>0.42999998</speed>
  </trkpt>
  <trkpt lat="50.528815" lon="-3.839157">
    <ele>91</ele>
    <time>2026-08-13T18:51:10Z</time>
    <speed>0.61</speed>
  </trkpt>
  <trkpt lat="50.528733" lon="-3.839069">
    <ele>90</ele>
    <time>2026-08-13T18:51:21Z</time>
    <speed>0.39</speed>
  </trkpt>
  <trkpt lat="50.528677" lon="-3.838939">
    <ele>88</ele>
    <time>2026-08-13T18:51:33Z</time>
    <speed>0.56</speed>
  </trkpt>
  <trkpt lat="50.528580" lon="-3.838833">
    <ele>90</ele>
    <time>2026-08-13T18:51:44Z</time>
    <speed>0.35</speed>
  </trkpt>
  <trkpt lat="50.528531" lon="-3.838714">
    <ele>89</ele>
    <time>2026-08-13T18:51:59Z</time>
    <speed>0.25</speed>
  </trkpt>
  <trkpt lat="50.528430" lon="-3.838608">
    <ele>87</ele>
    <time>2026-08-13T18:52:10Z</time>
    <speed>0.39999998</speed>
  </trkpt>
  <trkpt lat="50.528331" lon="-3.838568">
    <ele>88</ele>
    <time>2026-08-13T18:52:21Z</time>
    <speed>0.28</speed>
  </trkpt>
  <trkpt lat="50.528252" lon="-3.838458">
    <ele>85</ele>
    <time>2026-08-13T18:52:32Z</time>
    <speed>0.099999994</speed>
  </trkpt>
  <trkpt lat="50.528138" lon="-3.838410">
    <ele>87</ele>
    <time>2026-08-13T18:52:43Z</time>
    <speed>0.72999996</speed>
  </trkpt>
  <trkpt lat="50.528049" lon="-3.838383">
    <ele>86</ele>
    <time>2026-08-13T18:52:54Z</time>
    <speed>0.44</speed>
  </trkpt>
  <trkpt lat="50.527947" lon="-3.838285">
    <ele>87</ele>
    <time>2026-08-13T18:53:05Z</time>
    <speed>0.44</speed>
  </trkpt>
  <trkpt lat="50.527854" lon="-3.838258">
    <ele>88</ele>
    <time>2026-08-13T18:53:16Z</time>
    <speed>0.58</speed>
  </trkpt>
  <trkpt lat="50.527746" lon="-3.838220">
    <ele>87</ele>
    <time>2026-08-13T18:53:27Z</time>
    <speed>0.66999996</speed>
  </trkpt>
  <trkpt lat="50.527651" lon="-3.838182">
    <ele>87</ele>
    <time>2026-08-13T18:53:39Z</time>
    <speed>0.25</speed>
  </trkpt>
  <trkpt lat="50.527592" lon="-3.838068">
    <ele>84</ele>
    <time>2026-08-13T18:53:50Z</time>
    <speed>0.48999998</speed>
  </trkpt>
  <trkpt lat="50.527511" lon="-3.837961">
    <ele>83</ele>
    <time>2026-08-13T18:54:01Z</time>
    <speed>0.48</speed>
  </trkpt>
  <trkpt lat="50.527426" lon="-3.837899">
    <ele>82</ele>
    <time>2026-08-13T18:54:16Z</time>
    <speed>0.45999998</speed>
  </trkpt>
  <trkpt lat="50.527374" lon="-3.837783">
    <ele>81</ele>
    <time>2026-08-13T18:54:27Z</time>
    <speed>0.29999998</speed>
  </trkpt>
  <trkpt lat="50.527298" lon="-3.837708">
    <ele>81</ele>
    <time>2026-08-13T18:54:39Z</time>
    <speed>0.52</speed>
  </trkpt>
  <trkpt lat="50.527209" lon="-3.837604">
    <ele>80</ele>
    <time>2026-08-13T18:54:50Z</time>
    <speed>1.03</speed>
  </trkpt>
  <trkpt lat="50.527068" lon="-3.837526">
    <ele>81</ele>
    <time>2026-08-13T18:55:01Z</time>
    <speed>0.53999996</speed>
  </trkpt>
  <trkpt lat="50.526934" lon="-3.837507">
    <ele>82</ele>
    <time>2026-08-13T18:55:12Z</time>
    <speed>0.75</speed>
  </trkpt>
  <trkpt lat="50.526841" lon="-3.837541">
    <ele>82</ele>
    <time>2026-08-13T18:55:25Z</time>
    <speed>0.42</speed>
  </trkpt>
  <trkpt lat="50.526751" lon="-3.837533">
    <ele>83</ele>
    <time>2026-08-13T18:55:40Z</time>
    <speed>0.39999998</speed>
  </trkpt>
  <trkpt lat="50.526616" lon="-3.837520">
    <ele>84</ele>
    <time>2026-08-13T18:55:51Z</time>
    <speed>0.08</speed>
  </trkpt>
  <trkpt lat="50.526524" lon="-3.837538">
    <ele>85</ele>
    <time>2026-08-13T18:56:03Z</time>
    <speed>0.72999996</speed>
  </trkpt>
  <trkpt lat="50.526427" lon="-3.837561">
    <ele>83</ele>
    <time>2026-08-13T18:56:18Z</time>
    <speed>0.71999997</speed>
  </trkpt>
  <trkpt lat="50.526341" lon="-3.837633">
    <ele>86</ele>
    <time>2026-08-13T18:56:30Z</time>
    <speed>0.94</speed>
  </trkpt>
  <trkpt lat="50.526249" lon="-3.837680">
    <ele>87</ele>
    <time>2026-08-13T18:56:41Z</time>
    <speed>0.55</speed>
  </trkpt>
  <trkpt lat="50.526152" lon="-3.837659">
    <ele>87</ele>
    <time>2026-08-13T18:56:53Z</time>
    <speed>0.84999996</speed>
  </trkpt>
  <trkpt lat="50.526058" lon="-3.837703">
    <ele>87</ele>
    <time>2026-08-13T18:57:05Z</time>
    <speed>0.24</speed>
  </trkpt>
  <trkpt lat="50.525931" lon="-3.837693">
    <ele>86</ele>
    <time>2026-08-13T18:57:16Z</time>
    <speed>0.72999996</speed>
  </trkpt>
  <trkpt lat="50.525820" lon="-3.837685">
    <ele>85</ele>
    <time>2026-08-13T18:57:27Z</time>
    <speed>0.59</speed>
  </trkpt>
  <trkpt lat="50.525725" lon="-3.837686">
    <ele>85</ele>
    <time>2026-08-13T18:57:38Z</time>
    <speed>1.2099999</speed>
  </trkpt>
  <trkpt lat="50.525640" lon="-3.837740">
    <ele>85</ele>
    <time>2026-08-13T18:57:52Z</time>
    <speed>0.52</speed>
  </trkpt>
  <trkpt lat="50.525553" lon="-3.837693">
    <ele>85</ele>
    <time>2026-08-13T18:58:04Z</time>
    <speed>0.81</speed>
  </trkpt>
  <trkpt lat="50.525410" lon="-3.837664">
    <ele>86</ele>
    <time>2026-08-13T18:58:15Z</time>
    <speed>0.37</speed>
  </trkpt>
  <trkpt lat="50.525310" lon="-3.837654">
    <ele>87</ele>
    <time>2026-08-13T18:58:26Z</time>
    <speed>0.55</speed>
  </trkpt>
  <trkpt lat="50.525210" lon="-3.837670">
    <ele>87</ele>
    <time>2026-08-13T18:58:40Z</time>
    <speed>0.76</speed>
  </trkpt>
  <trkpt lat="50.525101" lon="-3.837672">
    <ele>85</ele>
    <time>2026-08-13T18:58:51Z</time>
    <speed>0.39999998</speed>
  </trkpt>
  <trkpt lat="50.524983" lon="-3.837657">
    <ele>85</ele>
    <time>2026-08-13T18:59:02Z</time>
    <speed>0.35999998</speed>
  </trkpt>
  <trkpt lat="50.524888" lon="-3.837576">
    <ele>84</ele>
    <time>2026-08-13T18:59:13Z</time>
    <speed>0.78999996</speed>
  </trkpt>
  <trkpt lat="50.524775" lon="-3.837563">
    <ele>82</ele>
    <time>2026-08-13T18:59:24Z</time>
    <speed>0.22999999</speed>
  </trkpt>
  <trkpt lat="50.524686" lon="-3.837509">
    <ele>82</ele>
    <time>2026-08-13T18:59:36Z</time>
    <speed>0.41</speed>
  </trkpt>
  <trkpt lat="50.524594" lon="-3.837489">
    <ele>80</ele>
    <time>2026-08-13T18:59:53Z</time>
    <speed>0.41</speed>
  </trkpt>
  <trkpt lat="50.524508" lon="-3.837423">
    <ele>80</ele>
    <time>2026-08-13T19:00:04Z</time>
    <speed>0.34</speed>
  </trkpt>
  <trkpt lat="50.524415" lon="-3.837370">
    <ele>80</ele>
    <time>2026-08-13T19:00:15Z</time>
    <speed>0.9</speed>
  </trkpt>
  <trkpt lat="50.524330" lon="-3.837319">
    <ele>79</ele>
    <time>2026-08-13T19:00:26Z</time>
    <speed>0.48</speed>
  </trkpt>
  <trkpt lat="50.524211" lon="-3.837275">
    <ele>78</ele>
    <time>2026-08-13T19:00:37Z</time>
    <speed>0.26999998</speed>
  </trkpt>
  <trkpt lat="50.524136" lon="-3.837175">
    <ele>75</ele>
    <time>2026-08-13T19:00:52Z</time>
    <speed>0.29999998</speed>
  </trkpt>
  <trkpt lat="50.524048" lon="-3.837135">
    <ele>75</ele>
    <time>2026-08-13T19:01:05Z</time>
    <speed>0.22</speed>
  </trkpt>
  <trkpt lat="50.523953" lon="-3.837078">
    <ele>75</ele>
    <time>2026-08-13T19:01:16Z</time>
    <speed>0.56</speed>
  </trkpt>
  <trkpt lat="50.523861" lon="-3.837023">
    <ele>74</ele>
    <time>2026-08-13T19:01:27Z</time>
    <speed>0.26999998</speed>
  </trkpt>
  <trkpt lat="50.523756" lon="-3.837010">
    <ele>74</ele>
    <time>2026-08-13T19:01:38Z</time>
    <speed>0.53999996</speed>
  </trkpt>
  <trkpt lat="50.523641" lon="-3.836997">
    <ele>74</ele>
    <time>2026-08-13T19:01:49Z</time>
    <speed>0.35999998</speed>
  </trkpt>
  <trkpt lat="50.523539" lon="-3.837058">
    <ele>73</ele>
    <time>2026-08-13T19:02:00Z</time>
    <speed>0.28</speed>
  </trkpt>
  <trkpt lat="50.523480" lon="-3.836942">
    <ele>74</ele>
    <time>2026-08-13T19:02:15Z</time>
    <speed>0.68</speed>
  </trkpt>
  <trkpt lat="50.523423" lon="-3.836824">
    <ele>75</ele>
    <time>2026-08-13T19:02:26Z</time>
    <speed>0.32</speed>
  </trkpt>
  <trkpt lat="50.523372" lon="-3.836699">
    <ele>74</ele>
    <time>2026-08-13T19:02:37Z</time>
    <speed>0.69</speed>
  </trkpt>
  <trkpt lat="50.523258" lon="-3.836548">
    <ele>74</ele>
    <time>2026-08-13T19:02:48Z</time>
    <speed>0.31</speed>
  </trkpt>
  <trkpt lat="50.523167" lon="-3.836413">
    <ele>74</ele>
    <time>2026-08-13T19:02:59Z</time>
    <speed>0.44</speed>
  </trkpt>
  <trkpt lat="50.523072" lon="-3.836292">
    <ele>74</ele>
    <time>2026-08-13T19:03:10Z</time>
    <speed>0.47</speed>
  </trkpt>
  <trkpt lat="50.522977" lon="-3.836150">
    <ele>75</ele>
    <time>2026-08-13T19:03:21Z</time>
    <speed>0.65</speed>
  </trkpt>
  <trkpt lat="50.522864" lon="-3.836016">
    <ele>76</ele>
    <time>2026-08-13T19:03:32Z</time>
    <speed>0.56</speed>
  </trkpt>
  <trkpt lat="50.522771" lon="-3.835913">
    <ele>76</ele>
    <time>2026-08-13T19:03:43Z</time>
    <speed>0.56</speed>
  </trkpt>
  <trkpt lat="50.522655" lon="-3.835818">
    <ele>76</ele>
    <time>2026-08-13T19:03:54Z</time>
    <speed>0.97999996</speed>
  </trkpt>
  <trkpt lat="50.522531" lon="-3.835708">
    <ele>75</ele>
    <time>2026-08-13T19:04:05Z</time>
    <speed>0.88</speed>
  </trkpt>
  <trkpt lat="50.522433" lon="-3.835612">
    <ele>74</ele>
    <time>2026-08-13T19:04:16Z</time>
    <speed>0.95</speed>
  </trkpt>
  <trkpt lat="50.522335" lon="-3.835473">
    <ele>72</ele>
    <time>2026-08-13T19:04:27Z</time>
    <speed>1.28</speed>
  </trkpt>
  <trkpt lat="50.522245" lon="-3.835368">
    <ele>72</ele>
    <time>2026-08-13T19:04:38Z</time>
    <speed>0.75</speed>
  </trkpt>
  <trkpt lat="50.522153" lon="-3.835237">
    <ele>70</ele>
    <time>2026-08-13T19:04:49Z</time>
    <speed>0.71</speed>
  </trkpt>
  <trkpt lat="50.522048" lon="-3.835121">
    <ele>69</ele>
    <time>2026-08-13T19:05:00Z</time>
    <speed>0.17999999</speed>
  </trkpt>
  <trkpt lat="50.521971" lon="-3.835022">
    <ele>68</ele>
    <time>2026-08-13T19:05:11Z</time>
    <speed>1.11</speed>
  </trkpt>
  <trkpt lat="50.521890" lon="-3.834917">
    <ele>69</ele>
    <time>2026-08-13T19:05:22Z</time>
    <speed>0.96</speed>
  </trkpt>
  <trkpt lat="50.521814" lon="-3.834802">
    <ele>67</ele>
    <time>2026-08-13T19:05:33Z</time>
    <speed>0.32</speed>
  </trkpt>
  <trkpt lat="50.521735" lon="-3.834673">
    <ele>67</ele>
    <time>2026-08-13T19:05:44Z</time>
    <speed>0.58</speed>
  </trkpt>
  <trkpt lat="50.521634" lon="-3.834493">
    <ele>65</ele>
    <time>2026-08-13T19:05:55Z</time>
    <speed>0.42</speed>
  </trkpt>
  <trkpt lat="50.521525" lon="-3.834438">
    <ele>64</ele>
    <time>2026-08-13T19:06:06Z</time>
    <speed>0.48</speed>
  </trkpt>
  <trkpt lat="50.521382" lon="-3.834410">
    <ele>63</ele>
    <time>2026-08-13T19:06:17Z</time>
    <speed>0.62</speed>
  </trkpt>
  <trkpt lat="50.521255" lon="-3.834435">
    <ele>61</ele>
    <time>2026-08-13T19:06:28Z</time>
    <speed>0.66999996</speed>
  </trkpt>
  <trkpt lat="50.521142" lon="-3.834498">
    <ele>61</ele>
    <time>2026-08-13T19:06:39Z</time>
    <speed>0.32999998</speed>
  </trkpt>
  <trkpt lat="50.521051" lon="-3.834523">
    <ele>60</ele>
    <time>2026-08-13T19:06:50Z</time>
    <speed>0.59</speed>
  </trkpt>
  <trkpt lat="50.520925" lon="-3.834650">
    <ele>60</ele>
    <time>2026-08-13T19:07:01Z</time>
    <speed>0.22</speed>
  </trkpt>
  <trkpt lat="50.520815" lon="-3.834635">
    <ele>59</ele>
    <time>2026-08-13T19:07:12Z</time>
    <speed>0.17999999</speed>
  </trkpt>
  <trkpt lat="50.520700" lon="-3.834589">
    <ele>59</ele>
    <time>2026-08-13T19:07:23Z</time>
    <speed>1.2099999</speed>
  </trkpt>
  <trkpt lat="50.520595" lon="-3.834432">
    <ele>60</ele>
    <time>2026-08-13T19:07:34Z</time>
    <speed>0.38</speed>
  </trkpt>
  <trkpt lat="50.520461" lon="-3.834240">
    <ele>59</ele>
    <time>2026-08-13T19:07:45Z</time>
    <speed>1.02</speed>
  </trkpt>
  <trkpt lat="50.520367" lon="-3.834105">
    <ele>57</ele>
    <time>2026-08-13T19:07:56Z</time>
    <speed>0.58</speed>
  </trkpt>
  <trkpt lat="50.520276" lon="-3.833981">
    <ele>59</ele>
    <time>2026-08-13T19:08:07Z</time>
    <speed>1.0799999</speed>
  </trkpt>
  <trkpt lat="50.520192" lon="-3.833900">
    <ele>59</ele>
    <time>2026-08-13T19:08:18Z</time>
    <speed>0.72999996</speed>
  </trkpt>
  <trkpt lat="50.520089" lon="-3.833750">
    <ele>59</ele>
    <time>2026-08-13T19:08:29Z</time>
    <speed>1.01</speed>
  </trkpt>
  <trkpt lat="50.520025" lon="-3.833581">
    <ele>59</ele>
    <time>2026-08-13T19:08:40Z</time>
    <speed>0.93</speed>
  </trkpt>
  <trkpt lat="50.519929" lon="-3.833418">
    <ele>58</ele>
    <time>2026-08-13T19:08:51Z</time>
    <speed>1.35</speed>
  </trkpt>
  <trkpt lat="50.519864" lon="-3.833268">
    <ele>58</ele>
    <time>2026-08-13T19:09:02Z</time>
    <speed>1.0</speed>
  </trkpt>
  <trkpt lat="50.519760" lon="-3.833141">
    <ele>58</ele>
    <time>2026-08-13T19:09:13Z</time>
    <speed>0.97999996</speed>
  </trkpt>
  <trkpt lat="50.519654" lon="-3.833059">
    <ele>57</ele>
    <time>2026-08-13T19:09:24Z</time>
    <speed>0.63</speed>
  </trkpt>
  <trkpt lat="50.519545" lon="-3.832979">
    <ele>56</ele>
    <time>2026-08-13T19:09:35Z</time>
    <speed>0.85999995</speed>
  </trkpt>
  <trkpt lat="50.519439" lon="-3.832852">
    <ele>57</ele>
    <time>2026-08-13T19:09:46Z</time>
    <speed>0.53</speed>
  </trkpt>
  <trkpt lat="50.519367" lon="-3.832738">
    <ele>56</ele>
    <time>2026-08-13T19:09:57Z</time>
    <speed>0.85999995</speed>
  </trkpt>
  <trkpt lat="50.519263" lon="-3.832622">
    <ele>56</ele>
    <time>2026-08-13T19:10:08Z</time>
    <speed>0.65999997</speed>
  </trkpt>
  <trkpt lat="50.519177" lon="-3.832454">
    <ele>55</ele>
    <time>2026-08-13T19:10:19Z</time>
    <speed>0.77</speed>
  </trkpt>
  <trkpt lat="50.519083" lon="-3.832347">
    <ele>54</ele>
    <time>2026-08-13T19:10:30Z</time>
    <speed>0.69</speed>
  </trkpt>
  <trkpt lat="50.518977" lon="-3.832280">
    <ele>55</ele>
    <time>2026-08-13T19:10:41Z</time>
    <speed>0.34</speed>
  </trkpt>
  <trkpt lat="50.518859" lon="-3.832199">
    <ele>55</ele>
    <time>2026-08-13T19:10:52Z</time>
    <speed>0.59</speed>
  </trkpt>
  <trkpt lat="50.518711" lon="-3.832151">
    <ele>55</ele>
    <time>2026-08-13T19:11:03Z</time>
    <speed>0.76</speed>
  </trkpt>
  <trkpt lat="50.518557" lon="-3.832089">
    <ele>55</ele>
    <time>2026-08-13T19:11:14Z</time>
    <speed>0.72999996</speed>
  </trkpt>
  <trkpt lat="50.518501" lon="-3.831922">
    <ele>54</ele>
    <time>2026-08-13T19:11:25Z</time>
    <speed>0.74</speed>
  </trkpt>
  <trkpt lat="50.518434" lon="-3.831726">
    <ele>55</ele>
    <time>2026-08-13T19:11:36Z</time>
    <speed>1.01</speed>
  </trkpt>
  <trkpt lat="50.518361" lon="-3.831594">
    <ele>55</ele>
    <time>2026-08-13T19:11:47Z</time>
    <speed>0.94</speed>
  </trkpt>
  <trkpt lat="50.518245" lon="-3.831499">
    <ele>55</ele>
    <time>2026-08-13T19:11:58Z</time>
    <speed>1.2099999</speed>
  </trkpt>
  <trkpt lat="50.518130" lon="-3.831375">
    <ele>55</ele>
    <time>2026-08-13T19:12:09Z</time>
    <speed>0.64</speed>
  </trkpt>
  <trkpt lat="50.518001" lon="-3.831259">
    <ele>54</ele>
    <time>2026-08-13T19:12:20Z</time>
    <speed>0.75</speed>
  </trkpt>
  <trkpt lat="50.517907" lon="-3.831196">
    <ele>53</ele>
    <time>2026-08-13T19:12:31Z</time>
    <speed>1.13</speed>
  </trkpt>
  <trkpt lat="50.517766" lon="-3.831130">
    <ele>54</ele>
    <time>2026-08-13T19:12:42Z</time>
    <speed>0.65</speed>
  </trkpt>
  <trkpt lat="50.517660" lon="-3.831033">
    <ele>55</ele>
    <time>2026-08-13T19:12:53Z</time>
    <speed>0.91999996</speed>
  </trkpt>
  <trkpt lat="50.517551" lon="-3.830915">
    <ele>54</ele>
    <time>2026-08-13T19:13:04Z</time>
    <speed>1.12</speed>
  </trkpt>
  <trkpt lat="50.517460" lon="-3.830782">
    <ele>52</ele>
    <time>2026-08-13T19:13:15Z</time>
    <speed>0.51</speed>
  </trkpt>
  <trkpt lat="50.517408" lon="-3.830643">
    <ele>53</ele>
    <time>2026-08-13T19:13:26Z</time>
    <speed>0.76</speed>
  </trkpt>
  <trkpt lat="50.517359" lon="-3.830469">
    <ele>53</ele>
    <time>2026-08-13T19:13:37Z</time>
    <speed>0.55</speed>
  </trkpt>
  <trkpt lat="50.517303" lon="-3.830240">
    <ele>52</ele>
    <time>2026-08-13T19:13:48Z</time>
    <speed>0.53999996</speed>
  </trkpt>
  <trkpt lat="50.517250" lon="-3.830120">
    <ele>52</ele>
    <time>2026-08-13T19:14:00Z</time>
    <speed>0.77</speed>
  </trkpt>
  <trkpt lat="50.517184" lon="-3.829940">
    <ele>53</ele>
    <time>2026-08-13T19:14:11Z</time>
    <speed>0.72999996</speed>
  </trkpt>
  <trkpt lat="50.517158" lon="-3.829756">
    <ele>55</ele>
    <time>2026-08-13T19:14:22Z</time>
    <speed>0.76</speed>
  </trkpt>
  <trkpt lat="50.517081" lon="-3.829648">
    <ele>55</ele>
    <time>2026-08-13T19:14:33Z</time>
    <speed>0.59</speed>
  </trkpt>
  <trkpt lat="50.516950" lon="-3.829594">
    <ele>57</ele>
    <time>2026-08-13T19:14:44Z</time>
    <speed>0.7</speed>
  </trkpt>
  <trkpt lat="50.516828" lon="-3.829556">
    <ele>58</ele>
    <time>2026-08-13T19:14:55Z</time>
    <speed>0.29</speed>
  </trkpt>
  <trkpt lat="50.516768" lon="-3.829441">
    <ele>61</ele>
    <time>2026-08-13T19:15:06Z</time>
    <speed>0.45</speed>
  </trkpt>
  <trkpt lat="50.516690" lon="-3.829347">
    <ele>62</ele>
    <time>2026-08-13T19:15:17Z</time>
    <speed>0.35999998</speed>
  </trkpt>
  <trkpt lat="50.516608" lon="-3.829265">
    <ele>64</ele>
    <time>2026-08-13T19:15:28Z</time>
    <speed>1.0</speed>
  </trkpt>
  <trkpt lat="50.516551" lon="-3.829154">
    <ele>65</ele>
    <time>2026-08-13T19:15:40Z</time>
    <speed>0.57</speed>
  </trkpt>
  <trkpt lat="50.516467" lon="-3.829068">
    <ele>68</ele>
    <time>2026-08-13T19:15:52Z</time>
    <speed>0.59999996</speed>
  </trkpt>
  <trkpt lat="50.516418" lon="-3.828947">
    <ele>69</ele>
    <time>2026-08-13T19:16:05Z</time>
    <speed>0.61</speed>
  </trkpt>
  <trkpt lat="50.516350" lon="-3.828836">
    <ele>71</ele>
    <time>2026-08-13T19:16:16Z</time>
    <speed>0.89</speed>
  </trkpt>
  <trkpt lat="50.516265" lon="-3.828726">
    <ele>73</ele>
    <time>2026-08-13T19:16:27Z</time>
    <speed>0.66999996</speed>
  </trkpt>
  <trkpt lat="50.516226" lon="-3.828594">
    <ele>75</ele>
    <time>2026-08-13T19:16:41Z</time>
    <speed>0.34</speed>
  </trkpt>
  <trkpt lat="50.516150" lon="-3.828478">
    <ele>76</ele>
    <time>2026-08-13T19:16:52Z</time>
    <speed>0.56</speed>
  </trkpt>
  <trkpt lat="50.516116" lon="-3.828341">
    <ele>74</ele>
    <time>2026-08-13T19:17:06Z</time>
    <speed>0.57</speed>
  </trkpt>
  <trkpt lat="50.516144" lon="-3.828169">
    <ele>73</ele>
    <time>2026-08-13T19:17:17Z</time>
    <speed>0.48</speed>
  </trkpt>
  <trkpt lat="50.516144" lon="-3.828025">
    <ele>71</ele>
    <time>2026-08-13T19:17:28Z</time>
    <speed>0.19999999</speed>
  </trkpt>
  <trkpt lat="50.516147" lon="-3.827880">
    <ele>67</ele>
    <time>2026-08-13T19:17:39Z</time>
    <speed>0.53</speed>
  </trkpt>
  <trkpt lat="50.516158" lon="-3.827734">
    <ele>67</ele>
    <time>2026-08-13T19:17:52Z</time>
    <speed>0.39</speed>
  </trkpt>
  <trkpt lat="50.516191" lon="-3.827577">
    <ele>63</ele>
    <time>2026-08-13T19:18:03Z</time>
    <speed>0.35999998</speed>
  </trkpt>
  <trkpt lat="50.516207" lon="-3.827433">
    <ele>61</ele>
    <time>2026-08-13T19:18:16Z</time>
    <speed>0.06</speed>
  </trkpt>
  <trkpt lat="50.516230" lon="-3.827283">
    <ele>59</ele>
    <time>2026-08-13T19:18:27Z</time>
    <speed>0.39999998</speed>
  </trkpt>
  <trkpt lat="50.516226" lon="-3.827141">
    <ele>58</ele>
    <time>2026-08-13T19:18:38Z</time>
    <speed>0.37</speed>
  </trkpt>
  <trkpt lat="50.516212" lon="-3.826985">
    <ele>56</ele>
    <time>2026-08-13T19:18:49Z</time>
    <speed>0.64</speed>
  </trkpt>
  <trkpt lat="50.516194" lon="-3.826821">
    <ele>52</ele>
    <time>2026-08-13T19:19:00Z</time>
    <speed>0.74</speed>
  </trkpt>
  <trkpt lat="50.516223" lon="-3.826684">
    <ele>48</ele>
    <time>2026-08-13T19:19:12Z</time>
    <speed>0.61</speed>
  </trkpt>
  <trkpt lat="50.516254" lon="-3.826540">
    <ele>49</ele>
    <time>2026-08-13T19:19:26Z</time>
    <speed>0.5</speed>
  </trkpt>
  <trkpt lat="50.516305" lon="-3.826374">
    <ele>49</ele>
    <time>2026-08-13T19:19:37Z</time>
    <speed>0.45999998</speed>
  </trkpt>
  <trkpt lat="50.516368" lon="-3.826201">
    <ele>49</ele>
    <time>2026-08-13T19:19:48Z</time>
    <speed>0.47</speed>
  </trkpt>
  <trkpt lat="50.516443" lon="-3.826008">
    <ele>47</ele>
    <time>2026-08-13T19:19:59Z</time>
    <speed>0.24</speed>
  </trkpt>
  <trkpt lat="50.516453" lon="-3.825792">
    <ele>48</ele>
    <time>2026-08-13T19:20:10Z</time>
    <speed>0.42</speed>
  </trkpt>
  <trkpt lat="50.516469" lon="-3.825586">
    <ele>48</ele>
    <time>2026-08-13T19:20:21Z</time>
    <speed>0.71</speed>
  </trkpt>
  <trkpt lat="50.516467" lon="-3.825370">
    <ele>48</ele>
    <time>2026-08-13T19:20:32Z</time>
    <speed>0.48</speed>
  </trkpt>
  <trkpt lat="50.516499" lon="-3.825210">
    <ele>48</ele>
    <time>2026-08-13T19:20:43Z</time>
    <speed>0.53</speed>
  </trkpt>
  <trkpt lat="50.516527" lon="-3.825007">
    <ele>47</ele>
    <time>2026-08-13T19:20:54Z</time>
    <speed>0.76</speed>
  </trkpt>
  <trkpt lat="50.516512" lon="-3.824772">
    <ele>47</ele>
    <time>2026-08-13T19:21:05Z</time>
    <speed>0.57</speed>
  </trkpt>
  <trkpt lat="50.516492" lon="-3.824590">
    <ele>48</ele>
    <time>2026-08-13T19:21:16Z</time>
    <speed>0.66999996</speed>
  </trkpt>
  <trkpt lat="50.516484" lon="-3.824390">
    <ele>47</ele>
    <time>2026-08-13T19:21:27Z</time>
    <speed>0.41</speed>
  </trkpt>
  <trkpt lat="50.516439" lon="-3.824219">
    <ele>47</ele>
    <time>2026-08-13T19:21:38Z</time>
    <speed>0.65</speed>
  </trkpt>
  <trkpt lat="50.516388" lon="-3.823982">
    <ele>45</ele>
    <time>2026-08-13T19:21:49Z</time>
    <speed>0.95</speed>
  </trkpt>
  <trkpt lat="50.516334" lon="-3.823764">
    <ele>46</ele>
    <time>2026-08-13T19:22:00Z</time>
    <speed>0.76</speed>
  </trkpt>
  <trkpt lat="50.516326" lon="-3.823606">
    <ele>47</ele>
    <time>2026-08-13T19:22:11Z</time>
    <speed>0.55</speed>
  </trkpt>
  <trkpt lat="50.516328" lon="-3.823423">
    <ele>48</ele>
    <time>2026-08-13T19:22:22Z</time>
    <speed>0.58</speed>
  </trkpt>
  <trkpt lat="50.516325" lon="-3.823230">
    <ele>49</ele>
    <time>2026-08-13T19:22:33Z</time>
    <speed>0.90999997</speed>
  </trkpt>
  <trkpt lat="50.516303" lon="-3.823001">
    <ele>49</ele>
    <time>2026-08-13T19:22:44Z</time>
    <speed>0.48999998</speed>
  </trkpt>
  <trkpt lat="50.516321" lon="-3.822841">
    <ele>48</ele>
    <time>2026-08-13T19:22:55Z</time>
    <speed>0.37</speed>
  </trkpt>
  <trkpt lat="50.516370" lon="-3.822637">
    <ele>50</ele>
    <time>2026-08-13T19:23:06Z</time>
    <speed>0.38</speed>
  </trkpt>
  <trkpt lat="50.516418" lon="-3.822482">
    <ele>50</ele>
    <time>2026-08-13T19:23:17Z</time>
    <speed>0.45</speed>
  </trkpt>
  <trkpt lat="50.516465" lon="-3.822311">
    <ele>51</ele>
    <time>2026-08-13T19:23:28Z</time>
    <speed>0.32999998</speed>
  </trkpt>
  <trkpt lat="50.516574" lon="-3.822177">
    <ele>50</ele>
    <time>2026-08-13T19:23:39Z</time>
    <speed>0.75</speed>
  </trkpt>
  <trkpt lat="50.516685" lon="-3.822044">
    <ele>51</ele>
    <time>2026-08-13T19:23:50Z</time>
    <speed>1.4399999</speed>
  </trkpt>
  <trkpt lat="50.516784" lon="-3.821914">
    <ele>52</ele>
    <time>2026-08-13T19:24:01Z</time>
    <speed>0.95</speed>
  </trkpt>
  <trkpt lat="50.516857" lon="-3.821769">
    <ele>53</ele>
    <time>2026-08-13T19:24:12Z</time>
    <speed>0.78999996</speed>
  </trkpt>
  <trkpt lat="50.516920" lon="-3.821597">
    <ele>52</ele>
    <time>2026-08-13T19:24:23Z</time>
    <speed>0.75</speed>
  </trkpt>
  <trkpt lat="50.516966" lon="-3.821418">
    <ele>52</ele>
    <time>2026-08-13T19:24:34Z</time>
    <speed>1.02</speed>
  </trkpt>
  <trkpt lat="50.517031" lon="-3.821293">
    <ele>53</ele>
    <time>2026-08-13T19:24:45Z</time>
    <speed>0.87</speed>
  </trkpt>
  <trkpt lat="50.517131" lon="-3.821212">
    <ele>53</ele>
    <time>2026-08-13T19:24:56Z</time>
    <speed>0.65999997</speed>
  </trkpt>
  <trkpt lat="50.517209" lon="-3.821083">
    <ele>50</ele>
    <time>2026-08-13T19:25:07Z</time>
    <speed>0.51</speed>
  </trkpt>
  <trkpt lat="50.517289" lon="-3.820945">
    <ele>50</ele>
    <time>2026-08-13T19:25:18Z</time>
    <speed>0.91999996</speed>
  </trkpt>
  <trkpt lat="50.517392" lon="-3.820872">
    <ele>47</ele>
    <time>2026-08-13T19:25:29Z</time>
    <speed>0.26999998</speed>
  </trkpt>
  <trkpt lat="50.517503" lon="-3.820758">
    <ele>45</ele>
    <time>2026-08-13T19:25:40Z</time>
    <speed>0.98999995</speed>
  </trkpt>
  <trkpt lat="50.517598" lon="-3.820602">
    <ele>46</ele>
    <time>2026-08-13T19:25:51Z</time>
    <speed>0.31</speed>
  </trkpt>
  <trkpt lat="50.517686" lon="-3.820476">
    <ele>46</ele>
    <time>2026-08-13T19:26:02Z</time>
    <speed>0.66999996</speed>
  </trkpt>
  <trkpt lat="50.517811" lon="-3.820393">
    <ele>45</ele>
    <time>2026-08-13T19:26:13Z</time>
    <speed>0.71</speed>
  </trkpt>
  <trkpt lat="50.517964" lon="-3.820349">
    <ele>44</ele>
    <time>2026-08-13T19:26:24Z</time>
    <speed>0.95</speed>
  </trkpt>
  <trkpt lat="50.518100" lon="-3.820223">
    <ele>45</ele>
    <time>2026-08-13T19:26:35Z</time>
    <speed>1.01</speed>
  </trkpt>
  <trkpt lat="50.518201" lon="-3.820173">
    <ele>46</ele>
    <time>2026-08-13T19:26:46Z</time>
    <speed>0.90999997</speed>
  </trkpt>
  <trkpt lat="50.518326" lon="-3.820085">
    <ele>45</ele>
    <time>2026-08-13T19:26:57Z</time>
    <speed>0.91999996</speed>
  </trkpt>
  <trkpt lat="50.518433" lon="-3.820035">
    <ele>44</ele>
    <time>2026-08-13T19:27:08Z</time>
    <speed>0.79999995</speed>
  </trkpt>
  <trkpt lat="50.518541" lon="-3.819979">
    <ele>45</ele>
    <time>2026-08-13T19:27:19Z</time>
    <speed>0.75</speed>
  </trkpt>
  <trkpt lat="50.518633" lon="-3.819965">
    <ele>45</ele>
    <time>2026-08-13T19:27:32Z</time>
    <speed>0.62</speed>
  </trkpt>
  <trkpt lat="50.518768" lon="-3.819910">
    <ele>44</ele>
    <time>2026-08-13T19:27:43Z</time>
    <speed>0.71</speed>
  </trkpt>
  <trkpt lat="50.518884" lon="-3.819969">
    <ele>47</ele>
    <time>2026-08-13T19:27:54Z</time>
    <speed>0.89</speed>
  </trkpt>
  <trkpt lat="50.519036" lon="-3.819969">
    <ele>46</ele>
    <time>2026-08-13T19:28:05Z</time>
    <speed>1.17</speed>
  </trkpt>
  <trkpt lat="50.519192" lon="-3.819987">
    <ele>47</ele>
    <time>2026-08-13T19:28:16Z</time>
    <speed>0.65</speed>
  </trkpt>
  <trkpt lat="50.519297" lon="-3.819980">
    <ele>47</ele>
    <time>2026-08-13T19:28:27Z</time>
    <speed>0.95</speed>
  </trkpt>
  <trkpt lat="50.519405" lon="-3.819952">
    <ele>43</ele>
    <time>2026-08-13T19:28:38Z</time>
    <speed>0.97999996</speed>
  </trkpt>
  <trkpt lat="50.519527" lon="-3.819938">
    <ele>45</ele>
    <time>2026-08-13T19:28:49Z</time>
    <speed>0.42999998</speed>
  </trkpt>
  <trkpt lat="50.519661" lon="-3.819950">
    <ele>41</ele>
    <time>2026-08-13T19:29:00Z</time>
    <speed>1.06</speed>
  </trkpt>
  <trkpt lat="50.519781" lon="-3.819956">
    <ele>42</ele>
    <time>2026-08-13T19:29:11Z</time>
    <speed>1.0799999</speed>
  </trkpt>
  <trkpt lat="50.519917" lon="-3.819952">
    <ele>43</ele>
    <time>2026-08-13T19:29:22Z</time>
    <speed>1.15</speed>
  </trkpt>
  <trkpt lat="50.520051" lon="-3.819940">
    <ele>42</ele>
    <time>2026-08-13T19:29:33Z</time>
    <speed>0.78999996</speed>
  </trkpt>
  <trkpt lat="50.520200" lon="-3.819979">
    <ele>42</ele>
    <time>2026-08-13T19:29:44Z</time>
    <speed>0.52</speed>
  </trkpt>
  <trkpt lat="50.520302" lon="-3.819968">
    <ele>42</ele>
    <time>2026-08-13T19:29:55Z</time>
    <speed>0.42</speed>
  </trkpt>
  <trkpt lat="50.520465" lon="-3.819963">
    <ele>42</ele>
    <time>2026-08-13T19:30:06Z</time>
    <speed>0.61</speed>
  </trkpt>
  <trkpt lat="50.520622" lon="-3.819943">
    <ele>42</ele>
    <time>2026-08-13T19:30:17Z</time>
    <speed>0.51</speed>
  </trkpt>
  <trkpt lat="50.520743" lon="-3.819916">
    <ele>44</ele>
    <time>2026-08-13T19:30:28Z</time>
    <speed>0.91999996</speed>
  </trkpt>
  <trkpt lat="50.520876" lon="-3.819862">
    <ele>43</ele>
    <time>2026-08-13T19:30:39Z</time>
    <speed>0.82</speed>
  </trkpt>
  <trkpt lat="50.521014" lon="-3.819800">
    <ele>43</ele>
    <time>2026-08-13T19:30:50Z</time>
    <speed>0.48999998</speed>
  </trkpt>
  <trkpt lat="50.521126" lon="-3.819705">
    <ele>43</ele>
    <time>2026-08-13T19:31:01Z</time>
    <speed>0.62</speed>
  </trkpt>
  <trkpt lat="50.521277" lon="-3.819617">
    <ele>42</ele>
    <time>2026-08-13T19:31:12Z</time>
    <speed>0.96</speed>
  </trkpt>
  <trkpt lat="50.521404" lon="-3.819594">
    <ele>42</ele>
    <time>2026-08-13T19:31:23Z</time>
    <speed>0.5</speed>
  </trkpt>
  <trkpt lat="50.521510" lon="-3.819534">
    <ele>41</ele>
    <time>2026-08-13T19:31:34Z</time>
    <speed>0.71</speed>
  </trkpt>
  <trkpt lat="50.521614" lon="-3.819403">
    <ele>40</ele>
    <time>2026-08-13T19:31:45Z</time>
    <speed>0.48</speed>
  </trkpt>
  <trkpt lat="50.521738" lon="-3.819304">
    <ele>40</ele>
    <time>2026-08-13T19:31:56Z</time>
    <speed>0.76</speed>
  </trkpt>
  <trkpt lat="50.521872" lon="-3.819239">
    <ele>42</ele>
    <time>2026-08-13T19:32:07Z</time>
    <speed>0.53</speed>
  </trkpt>
  <trkpt lat="50.522001" lon="-3.819197">
    <ele>41</ele>
    <time>2026-08-13T19:32:18Z</time>
    <speed>0.45999998</speed>
  </trkpt>
  <trkpt lat="50.522132" lon="-3.819119">
    <ele>41</ele>
    <time>2026-08-13T19:32:29Z</time>
    <speed>0.59999996</speed>
  </trkpt>
  <trkpt lat="50.522266" lon="-3.819037">
    <ele>40</ele>
    <time>2026-08-13T19:32:40Z</time>
    <speed>0.12</speed>
  </trkpt>
  <trkpt lat="50.522376" lon="-3.818918">
    <ele>39</ele>
    <time>2026-08-13T19:32:51Z</time>
    <speed>0.47</speed>
  </trkpt>
  <trkpt lat="50.522485" lon="-3.818857">
    <ele>39</ele>
    <time>2026-08-13T19:33:02Z</time>
    <speed>0.45999998</speed>
  </trkpt>
  <trkpt lat="50.522615" lon="-3.818841">
    <ele>41</ele>
    <time>2026-08-13T19:33:13Z</time>
    <speed>0.22999999</speed>
  </trkpt>
  <trkpt lat="50.522733" lon="-3.818844">
    <ele>40</ele>
    <time>2026-08-13T19:33:24Z</time>
    <speed>0.42</speed>
  </trkpt>
  <trkpt lat="50.522873" lon="-3.818838">
    <ele>38</ele>
    <time>2026-08-13T19:33:35Z</time>
    <speed>0.72999996</speed>
  </trkpt>
  <trkpt lat="50.523025" lon="-3.818813">
    <ele>39</ele>
    <time>2026-08-13T19:33:46Z</time>
    <speed>0.39999998</speed>
  </trkpt>
  <trkpt lat="50.523119" lon="-3.818801">
    <ele>40</ele>
    <time>2026-08-13T19:34:01Z</time>
    <speed>0.51</speed>
  </trkpt>
  <trkpt lat="50.523221" lon="-3.818773">
    <ele>40</ele>
    <time>2026-08-13T19:34:12Z</time>
    <speed>1.02</speed>
  </trkpt>
  <trkpt lat="50.523325" lon="-3.818800">
    <ele>38</ele>
    <time>2026-08-13T19:34:23Z</time>
    <speed>0.71</speed>
  </trkpt>
  <trkpt lat="50.523369" lon="-3.818930">
    <ele>40</ele>
    <time>2026-08-13T19:34:34Z</time>
    <speed>0.69</speed>
  </trkpt>
  <trkpt lat="50.523408" lon="-3.819061">
    <ele>40</ele>
    <time>2026-08-13T19:34:45Z</time>
    <speed>0.74</speed>
  </trkpt>
  <trkpt lat="50.523469" lon="-3.819283">
    <ele>39</ele>
    <time>2026-08-13T19:34:56Z</time>
    <speed>0.71</speed>
  </trkpt>
  <trkpt lat="50.523526" lon="-3.819479">
    <ele>39</ele>
    <time>2026-08-13T19:35:07Z</time>
    <speed>0.65999997</speed>
  </trkpt>
  <trkpt lat="50.523449" lon="-3.819580">
    <ele>39</ele>
    <time>2026-08-13T19:35:18Z</time>
    <speed>0.59</speed>
  </trkpt>
  <trkpt lat="50.523400" lon="-3.819718">
    <ele>38</ele>
    <time>2026-08-13T19:35:29Z</time>
    <speed>0.76</speed>
  </trkpt>
  <trkpt lat="50.523402" lon="-3.819859">
    <ele>40</ele>
    <time>2026-08-13T19:35:41Z</time>
    <speed>0.83</speed>
  </trkpt>
 </trkseg>
</trk>
</gpx>
