<?xml version="1.0" encoding="UTF-8" ?>
<gpx
 version="1.0"
 creator="Maverick - http://www.maverickgps.com"
 xmlns:xsi="http://www.w3.org/2001/XMLSchema-instance"
 xmlns="http://www.topografix.com/GPX/1/0"
 xsi:schemaLocation="http://www.topografix.com/GPX/1/0 http://www.topografix.com/GPX/1/0/gpx.xsd">
<time>2026-10-01T17:13:03Z</time>
<trk>
 <name>2026-10-01 @ 18-13-03</name>
 <trkseg>
  <trkpt lat="50.637563" lon="-3.900526">
    <ele>251</ele>
    <time>2026-10-01T17:13:05Z</time>
    <speed>0.17</speed>
  </trkpt>
  <trkpt lat="50.637649" lon="-3.900583">
    <ele>253</ele>
    <time>2026-10-01T17:13:32Z</time>
    <speed>1.03</speed>
  </trkpt>
  <trkpt lat="50.637694" lon="-3.900737">
    <ele>255</ele>
    <time>2026-10-01T17:13:43Z</time>
    <speed>0.84</speed>
  </trkpt>
  <trkpt lat="50.637758" lon="-3.900850">
    <ele>254</ele>
    <time>2026-10-01T17:13:54Z</time>
    <speed>0.93</speed>
  </trkpt>
  <trkpt lat="50.637804" lon="-3.901027">
    <ele>253</ele>
    <time>2026-10-01T17:14:05Z</time>
    <speed>1.01</speed>
  </trkpt>
  <trkpt lat="50.637865" lon="-3.901232">
    <ele>257</ele>
    <time>2026-10-01T17:14:16Z</time>
    <speed>1.28</speed>
  </trkpt>
  <trkpt lat="50.637949" lon="-3.901386">
    <ele>251</ele>
    <time>2026-10-01T17:14:27Z</time>
    <speed>1.36</speed>
  </trkpt>
  <trkpt lat="50.638054" lon="-3.901492">
    <ele>247</ele>
    <time>2026-10-01T17:14:38Z</time>
    <speed>0.97999996</speed>
  </trkpt>
  <trkpt lat="50.638146" lon="-3.901581">
    <ele>265</ele>
    <time>2026-10-01T17:14:49Z</time>
    <speed>1.3399999</speed>
  </trkpt>
  <trkpt lat="50.638226" lon="-3.901722">
    <ele>252</ele>
    <time>2026-10-01T17:15:00Z</time>
    <speed>1.18</speed>
  </trkpt>
  <trkpt lat="50.638317" lon="-3.901870">
    <ele>254</ele>
    <time>2026-10-01T17:15:11Z</time>
    <speed>1.09</speed>
  </trkpt>
  <trkpt lat="50.638378" lon="-3.902073">
    <ele>267</ele>
    <time>2026-10-01T17:15:22Z</time>
    <speed>1.17</speed>
  </trkpt>
  <trkpt lat="50.638416" lon="-3.902285">
    <ele>265</ele>
    <time>2026-10-01T17:15:33Z</time>
    <speed>0.69</speed>
  </trkpt>
  <trkpt lat="50.638453" lon="-3.902538">
    <ele>256</ele>
    <time>2026-10-01T17:15:44Z</time>
    <speed>0.97999996</speed>
  </trkpt>
  <trkpt lat="50.638448" lon="-3.902811">
    <ele>257</ele>
    <time>2026-10-01T17:15:55Z</time>
    <speed>0.79999995</speed>
  </trkpt>
  <trkpt lat="50.638515" lon="-3.903016">
    <ele>267</ele>
    <time>2026-10-01T17:16:06Z</time>
    <speed>0.84999996</speed>
  </trkpt>
  <trkpt lat="50.638571" lon="-3.903181">
    <ele>269</ele>
    <time>2026-10-01T17:16:17Z</time>
    <speed>0.65999997</speed>
  </trkpt>
  <trkpt lat="50.638627" lon="-3.903352">
    <ele>255</ele>
    <time>2026-10-01T17:16:28Z</time>
    <speed>1.43</speed>
  </trkpt>
  <trkpt lat="50.638683" lon="-3.903531">
    <ele>262</ele>
    <time>2026-10-01T17:16:39Z</time>
    <speed>0.74</speed>
  </trkpt>
  <trkpt lat="50.638733" lon="-3.903713">
    <ele>260</ele>
    <time>2026-10-01T17:16:50Z</time>
    <speed>1.0</speed>
  </trkpt>
  <trkpt lat="50.638767" lon="-3.903898">
    <ele>272</ele>
    <time>2026-10-01T17:17:01Z</time>
    <speed>0.68</speed>
  </trkpt>
  <trkpt lat="50.638829" lon="-3.904061">
    <ele>267</ele>
    <time>2026-10-01T17:17:12Z</time>
    <speed>0.71999997</speed>
  </trkpt>
  <trkpt lat="50.638881" lon="-3.904285">
    <ele>264</ele>
    <time>2026-10-01T17:17:23Z</time>
    <speed>0.96999997</speed>
  </trkpt>
  <trkpt lat="50.638942" lon="-3.904513">
    <ele>269</ele>
    <time>2026-10-01T17:17:34Z</time>
    <speed>1.24</speed>
  </trkpt>
  <trkpt lat="50.639005" lon="-3.904674">
    <ele>283</ele>
    <time>2026-10-01T17:17:45Z</time>
    <speed>1.15</speed>
  </trkpt>
  <trkpt lat="50.639055" lon="-3.904891">
    <ele>272</ele>
    <time>2026-10-01T17:17:56Z</time>
    <speed>0.48</speed>
  </trkpt>
  <trkpt lat="50.639063" lon="-3.905117">
    <ele>266</ele>
    <time>2026-10-01T17:18:07Z</time>
    <speed>1.04</speed>
  </trkpt>
  <trkpt lat="50.639066" lon="-3.905321">
    <ele>279</ele>
    <time>2026-10-01T17:18:18Z</time>
    <speed>1.02</speed>
  </trkpt>
  <trkpt lat="50.639049" lon="-3.905543">
    <ele>275</ele>
    <time>2026-10-01T17:18:29Z</time>
    <speed>0.9</speed>
  </trkpt>
  <trkpt lat="50.639020" lon="-3.905717">
    <ele>269</ele>
    <time>2026-10-01T17:18:40Z</time>
    <speed>0.72999996</speed>
  </trkpt>
  <trkpt lat="50.638917" lon="-3.905854">
    <ele>274</ele>
    <time>2026-10-01T17:18:51Z</time>
    <speed>1.14</speed>
  </trkpt>
  <trkpt lat="50.638809" lon="-3.905952">
    <ele>275</ele>
    <time>2026-10-01T17:19:02Z</time>
    <speed>0.87</speed>
  </trkpt>
  <trkpt lat="50.638673" lon="-3.906058">
    <ele>281</ele>
    <time>2026-10-01T17:19:13Z</time>
    <speed>1.12</speed>
  </trkpt>
  <trkpt lat="50.638564" lon="-3.906181">
    <ele>274</ele>
    <time>2026-10-01T17:19:24Z</time>
    <speed>1.03</speed>
  </trkpt>
  <trkpt lat="50.638442" lon="-3.906279">
    <ele>276</ele>
    <time>2026-10-01T17:19:35Z</time>
    <speed>1.49</speed>
  </trkpt>
  <trkpt lat="50.638352" lon="-3.906434">
    <ele>291</ele>
    <time>2026-10-01T17:19:46Z</time>
    <speed>1.02</speed>
  </trkpt>
  <trkpt lat="50.638274" lon="-3.906614">
    <ele>285</ele>
    <time>2026-10-01T17:19:57Z</time>
    <speed>1.67</speed>
  </trkpt>
  <trkpt lat="50.638208" lon="-3.906793">
    <ele>292</ele>
    <time>2026-10-01T17:20:08Z</time>
    <speed>0.98999995</speed>
  </trkpt>
  <trkpt lat="50.638106" lon="-3.907000">
    <ele>287</ele>
    <time>2026-10-01T17:20:19Z</time>
    <speed>0.78999996</speed>
  </trkpt>
  <trkpt lat="50.638028" lon="-3.907185">
    <ele>280</ele>
    <time>2026-10-01T17:20:30Z</time>
    <speed>1.1999999</speed>
  </trkpt>
  <trkpt lat="50.637953" lon="-3.907366">
    <ele>293</ele>
    <time>2026-10-01T17:20:41Z</time>
    <speed>1.27</speed>
  </trkpt>
  <trkpt lat="50.637869" lon="-3.907579">
    <ele>290</ele>
    <time>2026-10-01T17:20:52Z</time>
    <speed>1.3</speed>
  </trkpt>
  <trkpt lat="50.637798" lon="-3.907748">
    <ele>283</ele>
    <time>2026-10-01T17:21:03Z</time>
    <speed>1.35</speed>
  </trkpt>
  <trkpt lat="50.637726" lon="-3.907852">
    <ele>280</ele>
    <time>2026-10-01T17:21:15Z</time>
    <speed>1.03</speed>
  </trkpt>
  <trkpt lat="50.637629" lon="-3.907888">
    <ele>279</ele>
    <time>2026-10-01T17:21:26Z</time>
    <speed>0.72999996</speed>
  </trkpt>
  <trkpt lat="50.637521" lon="-3.907893">
    <ele>294</ele>
    <time>2026-10-01T17:21:37Z</time>
    <speed>1.01</speed>
  </trkpt>
  <trkpt lat="50.637399" lon="-3.907877">
    <ele>293</ele>
    <time>2026-10-01T17:21:48Z</time>
    <speed>1.5699999</speed>
  </trkpt>
  <trkpt lat="50.637275" lon="-3.907883">
    <ele>288</ele>
    <time>2026-10-01T17:21:59Z</time>
    <speed>1.15</speed>
  </trkpt>
  <trkpt lat="50.637125" lon="-3.907908">
    <ele>300</ele>
    <time>2026-10-01T17:22:10Z</time>
    <speed>0.76</speed>
  </trkpt>
  <trkpt lat="50.637008" lon="-3.907881">
    <ele>300</ele>
    <time>2026-10-01T17:22:21Z</time>
    <speed>0.81</speed>
  </trkpt>
  <trkpt lat="50.636862" lon="-3.907867">
    <ele>292</ele>
    <time>2026-10-01T17:22:32Z</time>
    <speed>0.34</speed>
  </trkpt>
  <trkpt lat="50.636741" lon="-3.907876">
    <ele>308</ele>
    <time>2026-10-01T17:22:43Z</time>
    <speed>1.4599999</speed>
  </trkpt>
  <trkpt lat="50.636588" lon="-3.907854">
    <ele>289</ele>
    <time>2026-10-01T17:22:54Z</time>
    <speed>0.9</speed>
  </trkpt>
  <trkpt lat="50.636445" lon="-3.907844">
    <ele>304</ele>
    <time>2026-10-01T17:23:05Z</time>
    <speed>1.14</speed>
  </trkpt>
  <trkpt lat="50.636335" lon="-3.907884">
    <ele>306</ele>
    <time>2026-10-01T17:23:16Z</time>
    <speed>0.65</speed>
  </trkpt>
  <trkpt lat="50.636145" lon="-3.907884">
    <ele>306</ele>
    <time>2026-10-01T17:23:27Z</time>
    <speed>1.56</speed>
  </trkpt>
  <trkpt lat="50.636013" lon="-3.907876">
    <ele>310</ele>
    <time>2026-10-01T17:23:38Z</time>
    <speed>1.11</speed>
  </trkpt>
  <trkpt lat="50.635876" lon="-3.907880">
    <ele>307</ele>
    <time>2026-10-01T17:23:49Z</time>
    <speed>1.49</speed>
  </trkpt>
  <trkpt lat="50.635734" lon="-3.907878">
    <ele>309</ele>
    <time>2026-10-01T17:24:00Z</time>
    <speed>0.83</speed>
  </trkpt>
  <trkpt lat="50.635591" lon="-3.907865">
    <ele>308</ele>
    <time>2026-10-01T17:24:11Z</time>
    <speed>0.7</speed>
  </trkpt>
  <trkpt lat="50.635463" lon="-3.907878">
    <ele>309</ele>
    <time>2026-10-01T17:24:22Z</time>
    <speed>1.29</speed>
  </trkpt>
  <trkpt lat="50.635339" lon="-3.907870">
    <ele>307</ele>
    <time>2026-10-01T17:24:33Z</time>
    <speed>1.01</speed>
  </trkpt>
  <trkpt lat="50.635191" lon="-3.907869">
    <ele>301</ele>
    <time>2026-10-01T17:24:44Z</time>
    <speed>1.79</speed>
  </trkpt>
  <trkpt lat="50.635043" lon="-3.907940">
    <ele>298</ele>
    <time>2026-10-01T17:24:55Z</time>
    <speed>0.85999995</speed>
  </trkpt>
  <trkpt lat="50.634910" lon="-3.908115">
    <ele>307</ele>
    <time>2026-10-01T17:25:06Z</time>
    <speed>1.02</speed>
  </trkpt>
  <trkpt lat="50.634806" lon="-3.908243">
    <ele>311</ele>
    <time>2026-10-01T17:25:17Z</time>
    <speed>0.95</speed>
  </trkpt>
  <trkpt lat="50.634692" lon="-3.908397">
    <ele>312</ele>
    <time>2026-10-01T17:25:28Z</time>
    <speed>1.5</speed>
  </trkpt>
  <trkpt lat="50.634572" lon="-3.908544">
    <ele>308</ele>
    <time>2026-10-01T17:25:39Z</time>
    <speed>1.37</speed>
  </trkpt>
  <trkpt lat="50.634462" lon="-3.908680">
    <ele>310</ele>
    <time>2026-10-01T17:25:50Z</time>
    <speed>0.88</speed>
  </trkpt>
  <trkpt lat="50.634392" lon="-3.908882">
    <ele>300</ele>
    <time>2026-10-01T17:26:01Z</time>
    <speed>1.17</speed>
  </trkpt>
  <trkpt lat="50.634293" lon="-3.909030">
    <ele>302</ele>
    <time>2026-10-01T17:26:12Z</time>
    <speed>0.83</speed>
  </trkpt>
  <trkpt lat="50.634185" lon="-3.909175">
    <ele>306</ele>
    <time>2026-10-01T17:26:23Z</time>
    <speed>1.22</speed>
  </trkpt>
  <trkpt lat="50.634119" lon="-3.909310">
    <ele>305</ele>
    <time>2026-10-01T17:26:34Z</time>
    <speed>0.0</speed>
  </trkpt>
  <trkpt lat="50.634072" lon="-3.909458">
    <ele>305</ele>
    <time>2026-10-01T17:27:08Z</time>
    <speed>0.34536523</speed>
  </trkpt>
  <trkpt lat="50.633997" lon="-3.909608">
    <ele>307</ele>
    <time>2026-10-01T17:27:19Z</time>
    <speed>1.16</speed>
  </trkpt>
  <trkpt lat="50.633909" lon="-3.909766">
    <ele>304</ele>
    <time>2026-10-01T17:27:30Z</time>
    <speed>1.23</speed>
  </trkpt>
  <trkpt lat="50.633838" lon="-3.909917">
    <ele>304</ele>
    <time>2026-10-01T17:27:41Z</time>
    <speed>0.51</speed>
  </trkpt>
  <trkpt lat="50.633756" lon="-3.910105">
    <ele>301</ele>
    <time>2026-10-01T17:27:52Z</time>
    <speed>1.38</speed>
  </trkpt>
  <trkpt lat="50.633691" lon="-3.910310">
    <ele>298</ele>
    <time>2026-10-01T17:28:03Z</time>
    <speed>1.31</speed>
  </trkpt>
  <trkpt lat="50.633670" lon="-3.910543">
    <ele>307</ele>
    <time>2026-10-01T17:28:14Z</time>
    <speed>1.26</speed>
  </trkpt>
  <trkpt lat="50.633659" lon="-3.910732">
    <ele>300</ele>
    <time>2026-10-01T17:28:25Z</time>
    <speed>1.14</speed>
  </trkpt>
  <trkpt lat="50.633726" lon="-3.910924">
    <ele>302</ele>
    <time>2026-10-01T17:28:36Z</time>
    <speed>0.55</speed>
  </trkpt>
  <trkpt lat="50.633768" lon="-3.911149">
    <ele>295</ele>
    <time>2026-10-01T17:28:47Z</time>
    <speed>1.1899999</speed>
  </trkpt>
  <trkpt lat="50.633785" lon="-3.911360">
    <ele>304</ele>
    <time>2026-10-01T17:28:58Z</time>
    <speed>0.75</speed>
  </trkpt>
  <trkpt lat="50.633845" lon="-3.911585">
    <ele>297</ele>
    <time>2026-10-01T17:29:09Z</time>
    <speed>1.25</speed>
  </trkpt>
  <trkpt lat="50.633872" lon="-3.911799">
    <ele>302</ele>
    <time>2026-10-01T17:29:20Z</time>
    <speed>1.24</speed>
  </trkpt>
  <trkpt lat="50.633918" lon="-3.912014">
    <ele>295</ele>
    <time>2026-10-01T17:29:31Z</time>
    <speed>1.03</speed>
  </trkpt>
  <trkpt lat="50.633908" lon="-3.912246">
    <ele>299</ele>
    <time>2026-10-01T17:29:42Z</time>
    <speed>0.69</speed>
  </trkpt>
  <trkpt lat="50.633812" lon="-3.912442">
    <ele>292</ele>
    <time>2026-10-01T17:29:53Z</time>
    <speed>0.84</speed>
  </trkpt>
  <trkpt lat="50.633685" lon="-3.912609">
    <ele>301</ele>
    <time>2026-10-01T17:30:04Z</time>
    <speed>1.68</speed>
  </trkpt>
  <trkpt lat="50.633596" lon="-3.912763">
    <ele>295</ele>
    <time>2026-10-01T17:30:15Z</time>
    <speed>1.02</speed>
  </trkpt>
  <trkpt lat="50.633563" lon="-3.913006">
    <ele>303</ele>
    <time>2026-10-01T17:30:26Z</time>
    <speed>1.6999999</speed>
  </trkpt>
  <trkpt lat="50.633602" lon="-3.913236">
    <ele>305</ele>
    <time>2026-10-01T17:30:37Z</time>
    <speed>1.4699999</speed>
  </trkpt>
  <trkpt lat="50.633585" lon="-3.913423">
    <ele>291</ele>
    <time>2026-10-01T17:30:48Z</time>
    <speed>0.71</speed>
  </trkpt>
  <trkpt lat="50.633465" lon="-3.913543">
    <ele>301</ele>
    <time>2026-10-01T17:30:59Z</time>
    <speed>0.97999996</speed>
  </trkpt>
  <trkpt lat="50.633364" lon="-3.913532">
    <ele>302</ele>
    <time>2026-10-01T17:31:10Z</time>
    <speed>0.74</speed>
  </trkpt>
  <trkpt lat="50.633224" lon="-3.913532">
    <ele>286</ele>
    <time>2026-10-01T17:31:21Z</time>
    <speed>1.0</speed>
  </trkpt>
  <trkpt lat="50.633075" lon="-3.913557">
    <ele>291</ele>
    <time>2026-10-01T17:31:32Z</time>
    <speed>1.1899999</speed>
  </trkpt>
  <trkpt lat="50.632918" lon="-3.913616">
    <ele>300</ele>
    <time>2026-10-01T17:31:43Z</time>
    <speed>1.43</speed>
  </trkpt>
  <trkpt lat="50.632818" lon="-3.913735">
    <ele>292</ele>
    <time>2026-10-01T17:31:54Z</time>
    <speed>0.84999996</speed>
  </trkpt>
  <trkpt lat="50.632700" lon="-3.913846">
    <ele>298</ele>
    <time>2026-10-01T17:32:05Z</time>
    <speed>1.22</speed>
  </trkpt>
  <trkpt lat="50.632548" lon="-3.913951">
    <ele>303</ele>
    <time>2026-10-01T17:32:16Z</time>
    <speed>0.65999997</speed>
  </trkpt>
  <trkpt lat="50.632441" lon="-3.914073">
    <ele>304</ele>
    <time>2026-10-01T17:32:27Z</time>
    <speed>1.31</speed>
  </trkpt>
  <trkpt lat="50.632340" lon="-3.914193">
    <ele>302</ele>
    <time>2026-10-01T17:32:38Z</time>
    <speed>1.25</speed>
  </trkpt>
  <trkpt lat="50.632262" lon="-3.914309">
    <ele>308</ele>
    <time>2026-10-01T17:32:49Z</time>
    <speed>1.04</speed>
  </trkpt>
  <trkpt lat="50.632159" lon="-3.914405">
    <ele>300</ele>
    <time>2026-10-01T17:33:00Z</time>
    <speed>0.35</speed>
  </trkpt>
  <trkpt lat="50.632041" lon="-3.914463">
    <ele>308</ele>
    <time>2026-10-01T17:33:11Z</time>
    <speed>1.5</speed>
  </trkpt>
  <trkpt lat="50.631957" lon="-3.914564">
    <ele>306</ele>
    <time>2026-10-01T17:33:22Z</time>
    <speed>0.89</speed>
  </trkpt>
  <trkpt lat="50.631859" lon="-3.914595">
    <ele>308</ele>
    <time>2026-10-01T17:33:33Z</time>
    <speed>0.35999998</speed>
  </trkpt>
  <trkpt lat="50.631772" lon="-3.914672">
    <ele>308</ele>
    <time>2026-10-01T17:33:44Z</time>
    <speed>0.71999997</speed>
  </trkpt>
  <trkpt lat="50.631701" lon="-3.914765">
    <ele>308</ele>
    <time>2026-10-01T17:34:44Z</time>
    <speed>0.87</speed>
  </trkpt>
  <trkpt lat="50.631739" lon="-3.914900">
    <ele>313</ele>
    <time>2026-10-01T17:35:12Z</time>
    <speed>0.69</speed>
  </trkpt>
  <trkpt lat="50.631763" lon="-3.915049">
    <ele>311</ele>
    <time>2026-10-01T17:35:25Z</time>
    <speed>1.16</speed>
  </trkpt>
  <trkpt lat="50.631809" lon="-3.915177">
    <ele>309</ele>
    <time>2026-10-01T17:36:04Z</time>
    <speed>0.42</speed>
  </trkpt>
  <trkpt lat="50.631832" lon="-3.915322">
    <ele>313</ele>
    <time>2026-10-01T17:36:40Z</time>
    <speed>0.69</speed>
  </trkpt>
  <trkpt lat="50.631800" lon="-3.915458">
    <ele>312</ele>
    <time>2026-10-01T17:36:52Z</time>
    <speed>1.03</speed>
  </trkpt>
  <trkpt lat="50.631785" lon="-3.915598">
    <ele>321</ele>
    <time>2026-10-01T17:37:09Z</time>
    <speed>0.84999996</speed>
  </trkpt>
  <trkpt lat="50.631805" lon="-3.915747">
    <ele>324</ele>
    <time>2026-10-01T17:37:23Z</time>
    <speed>0.84</speed>
  </trkpt>
  <trkpt lat="50.631876" lon="-3.915840">
    <ele>312</ele>
    <time>2026-10-01T17:37:35Z</time>
    <speed>1.05</speed>
  </trkpt>
  <trkpt lat="50.631964" lon="-3.915902">
    <ele>331</ele>
    <time>2026-10-01T17:37:56Z</time>
    <speed>2.24</speed>
  </trkpt>
  <trkpt lat="50.632027" lon="-3.916020">
    <ele>326</ele>
    <time>2026-10-01T17:38:15Z</time>
    <speed>0.88</speed>
  </trkpt>
  <trkpt lat="50.632044" lon="-3.916171">
    <ele>336</ele>
    <time>2026-10-01T17:38:40Z</time>
    <speed>0.56</speed>
  </trkpt>
  <trkpt lat="50.632013" lon="-3.916316">
    <ele>334</ele>
    <time>2026-10-01T17:39:04Z</time>
    <speed>0.91999996</speed>
  </trkpt>
  <trkpt lat="50.631946" lon="-3.916422">
    <ele>329</ele>
    <time>2026-10-01T17:39:26Z</time>
    <speed>0.65999997</speed>
  </trkpt>
  <trkpt lat="50.631908" lon="-3.916555">
    <ele>333</ele>
    <time>2026-10-01T17:39:56Z</time>
    <speed>0.77</speed>
  </trkpt>
  <trkpt lat="50.631850" lon="-3.916674">
    <ele>342</ele>
    <time>2026-10-01T17:40:40Z</time>
    <speed>0.88</speed>
  </trkpt>
  <trkpt lat="50.631877" lon="-3.916815">
    <ele>340</ele>
    <time>2026-10-01T17:41:11Z</time>
    <speed>1.04</speed>
  </trkpt>
  <trkpt lat="50.631892" lon="-3.916955">
    <ele>344</ele>
    <time>2026-10-01T17:41:33Z</time>
    <speed>0.17</speed>
  </trkpt>
  <trkpt lat="50.631928" lon="-3.917093">
    <ele>346</ele>
    <time>2026-10-01T17:41:59Z</time>
    <speed>0.12</speed>
  </trkpt>
  <trkpt lat="50.631941" lon="-3.917234">
    <ele>337</ele>
    <time>2026-10-01T17:42:13Z</time>
    <speed>0.96999997</speed>
  </trkpt>
  <trkpt lat="50.631928" lon="-3.917386">
    <ele>348</ele>
    <time>2026-10-01T17:42:33Z</time>
    <speed>0.5</speed>
  </trkpt>
  <trkpt lat="50.631949" lon="-3.917529">
    <ele>353</ele>
    <time>2026-10-01T17:43:02Z</time>
    <speed>0.77</speed>
  </trkpt>
  <trkpt lat="50.631926" lon="-3.917669">
    <ele>347</ele>
    <time>2026-10-01T17:43:18Z</time>
    <speed>0.78999996</speed>
  </trkpt>
  <trkpt lat="50.631985" lon="-3.917779">
    <ele>347</ele>
    <time>2026-10-01T17:43:45Z</time>
    <speed>0.64</speed>
  </trkpt>
  <trkpt lat="50.631984" lon="-3.917924">
    <ele>350</ele>
    <time>2026-10-01T17:44:12Z</time>
    <speed>0.44</speed>
  </trkpt>
  <trkpt lat="50.631964" lon="-3.918068">
    <ele>354</ele>
    <time>2026-10-01T17:44:42Z</time>
    <speed>0.11</speed>
  </trkpt>
  <trkpt lat="50.631916" lon="-3.918193">
    <ele>353</ele>
    <time>2026-10-01T17:45:09Z</time>
    <speed>0.34</speed>
  </trkpt>
  <trkpt lat="50.631932" lon="-3.918335">
    <ele>358</ele>
    <time>2026-10-01T17:45:41Z</time>
    <speed>0.77</speed>
  </trkpt>
  <trkpt lat="50.631921" lon="-3.918477">
    <ele>363</ele>
    <time>2026-10-01T17:46:09Z</time>
    <speed>0.65999997</speed>
  </trkpt>
  <trkpt lat="50.631900" lon="-3.918618">
    <ele>357</ele>
    <time>2026-10-01T17:46:36Z</time>
    <speed>0.81</speed>
  </trkpt>
  <trkpt lat="50.631883" lon="-3.918760">
    <ele>356</ele>
    <time>2026-10-01T17:46:50Z</time>
    <speed>0.93</speed>
  </trkpt>
  <trkpt lat="50.631889" lon="-3.918901">
    <ele>355</ele>
    <time>2026-10-01T17:47:21Z</time>
    <speed>1.0799999</speed>
  </trkpt>
  <trkpt lat="50.631881" lon="-3.919048">
    <ele>353</ele>
    <time>2026-10-01T17:47:38Z</time>
    <speed>0.95</speed>
  </trkpt>
  <trkpt lat="50.631927" lon="-3.919172">
    <ele>358</ele>
    <time>2026-10-01T17:48:16Z</time>
    <speed>0.97999996</speed>
  </trkpt>
  <trkpt lat="50.631961" lon="-3.919311">
    <ele>361</ele>
    <time>2026-10-01T17:48:49Z</time>
    <speed>1.2099999</speed>
  </trkpt>
  <trkpt lat="50.632015" lon="-3.919429">
    <ele>361</ele>
    <time>2026-10-01T17:49:08Z</time>
    <speed>0.28</speed>
  </trkpt>
  <trkpt lat="50.632054" lon="-3.919563">
    <ele>357</ele>
    <time>2026-10-01T17:49:29Z</time>
    <speed>0.51</speed>
  </trkpt>
  <trkpt lat="50.632055" lon="-3.919713">
    <ele>359</ele>
    <time>2026-10-01T17:49:40Z</time>
    <speed>0.76</speed>
  </trkpt>
  <trkpt lat="50.632114" lon="-3.919824">
    <ele>362</ele>
    <time>2026-10-01T17:50:02Z</time>
    <speed>0.45</speed>
  </trkpt>
  <trkpt lat="50.632133" lon="-3.919969">
    <ele>364</ele>
    <time>2026-10-01T17:50:35Z</time>
    <speed>1.1999999</speed>
  </trkpt>
  <trkpt lat="50.632200" lon="-3.920074">
    <ele>366</ele>
    <time>2026-10-01T17:50:51Z</time>
    <speed>0.89</speed>
  </trkpt>
  <trkpt lat="50.632251" lon="-3.920202">
    <ele>366</ele>
    <time>2026-10-01T17:51:18Z</time>
    <speed>1.17</speed>
  </trkpt>
  <trkpt lat="50.632281" lon="-3.920336">
    <ele>367</ele>
    <time>2026-10-01T17:51:38Z</time>
    <speed>0.41</speed>
  </trkpt>
  <trkpt lat="50.632348" lon="-3.920434">
    <ele>369</ele>
    <time>2026-10-01T17:52:09Z</time>
    <speed>0.45999998</speed>
  </trkpt>
  <trkpt lat="50.632370" lon="-3.920581">
    <ele>367</ele>
    <time>2026-10-01T17:52:25Z</time>
    <speed>0.84</speed>
  </trkpt>
  <trkpt lat="50.632402" lon="-3.920720">
    <ele>369</ele>
    <time>2026-10-01T17:52:41Z</time>
    <speed>0.57</speed>
  </trkpt>
  <trkpt lat="50.632423" lon="-3.920859">
    <ele>369</ele>
    <time>2026-10-01T17:53:05Z</time>
    <speed>0.81</speed>
  </trkpt>
  <trkpt lat="50.632486" lon="-3.920964">
    <ele>370</ele>
    <time>2026-10-01T17:53:35Z</time>
    <speed>0.42999998</speed>
  </trkpt>
  <trkpt lat="50.632506" lon="-3.921130">
    <ele>372</ele>
    <time>2026-10-01T17:53:46Z</time>
    <speed>0.9</speed>
  </trkpt>
  <trkpt lat="50.632449" lon="-3.921249">
    <ele>369</ele>
    <time>2026-10-01T17:54:25Z</time>
    <speed>1.1999999</speed>
  </trkpt>
  <trkpt lat="50.632489" lon="-3.921386">
    <ele>370</ele>
    <time>2026-10-01T17:55:11Z</time>
    <speed>0.29999998</speed>
  </trkpt>
  <trkpt lat="50.632473" lon="-3.921525">
    <ele>370</ele>
    <time>2026-10-01T17:57:07Z</time>
    <speed>0.0</speed>
  </trkpt>
  <trkpt lat="50.632459" lon="-3.921684">
    <ele>369</ele>
    <time>2026-10-01T17:57:22Z</time>
    <speed>0.7560417</speed>
  </trkpt>
  <trkpt lat="50.632434" lon="-3.921865">
    <ele>369</ele>
    <time>2026-10-01T17:57:33Z</time>
    <speed>1.0699999</speed>
  </trkpt>
  <trkpt lat="50.632403" lon="-3.922051">
    <ele>365</ele>
    <time>2026-10-01T17:57:44Z</time>
    <speed>1.1</speed>
  </trkpt>
  <trkpt lat="50.632399" lon="-3.922192">
    <ele>366</ele>
    <time>2026-10-01T17:57:57Z</time>
    <speed>1.42</speed>
  </trkpt>
  <trkpt lat="50.632376" lon="-3.922365">
    <ele>368</ele>
    <time>2026-10-01T17:58:08Z</time>
    <speed>0.96</speed>
  </trkpt>
  <trkpt lat="50.632396" lon="-3.922549">
    <ele>368</ele>
    <time>2026-10-01T17:58:19Z</time>
    <speed>1.35</speed>
  </trkpt>
  <trkpt lat="50.632368" lon="-3.922707">
    <ele>367</ele>
    <time>2026-10-01T17:58:30Z</time>
    <speed>1.22</speed>
  </trkpt>
  <trkpt lat="50.632349" lon="-3.922848">
    <ele>367</ele>
    <time>2026-10-01T17:58:43Z</time>
    <speed>0.74</speed>
  </trkpt>
  <trkpt lat="50.632329" lon="-3.922990">
    <ele>367</ele>
    <time>2026-10-01T17:58:55Z</time>
    <speed>0.88</speed>
  </trkpt>
  <trkpt lat="50.632280" lon="-3.923114">
    <ele>367</ele>
    <time>2026-10-01T17:59:08Z</time>
    <speed>1.0699999</speed>
  </trkpt>
  <trkpt lat="50.632277" lon="-3.923265">
    <ele>367</ele>
    <time>2026-10-01T17:59:19Z</time>
    <speed>0.53999996</speed>
  </trkpt>
  <trkpt lat="50.632244" lon="-3.923414">
    <ele>367</ele>
    <time>2026-10-01T17:59:31Z</time>
    <speed>1.0799999</speed>
  </trkpt>
  <trkpt lat="50.632228" lon="-3.923559">
    <ele>366</ele>
    <time>2026-10-01T17:59:42Z</time>
    <speed>0.85999995</speed>
  </trkpt>
  <trkpt lat="50.632223" lon="-3.923702">
    <ele>367</ele>
    <time>2026-10-01T17:59:56Z</time>
    <speed>0.79999995</speed>
  </trkpt>
  <trkpt lat="50.632166" lon="-3.923845">
    <ele>366</ele>
    <time>2026-10-01T18:00:07Z</time>
    <speed>1.22</speed>
  </trkpt>
  <trkpt lat="50.632147" lon="-3.923985">
    <ele>366</ele>
    <time>2026-10-01T18:00:18Z</time>
    <speed>0.56</speed>
  </trkpt>
  <trkpt lat="50.632104" lon="-3.924134">
    <ele>368</ele>
    <time>2026-10-01T18:00:31Z</time>
    <speed>1.55</speed>
  </trkpt>
  <trkpt lat="50.632053" lon="-3.924258">
    <ele>369</ele>
    <time>2026-10-01T18:00:43Z</time>
    <speed>1.03</speed>
  </trkpt>
  <trkpt lat="50.632042" lon="-3.924401">
    <ele>368</ele>
    <time>2026-10-01T18:00:54Z</time>
    <speed>1.04</speed>
  </trkpt>
  <trkpt lat="50.632001" lon="-3.924538">
    <ele>369</ele>
    <time>2026-10-01T18:01:06Z</time>
    <speed>0.85999995</speed>
  </trkpt>
  <trkpt lat="50.631967" lon="-3.924684">
    <ele>369</ele>
    <time>2026-10-01T18:01:19Z</time>
    <speed>0.84</speed>
  </trkpt>
  <trkpt lat="50.631912" lon="-3.924812">
    <ele>369</ele>
    <time>2026-10-01T18:01:30Z</time>
    <speed>1.15</speed>
  </trkpt>
  <trkpt lat="50.631868" lon="-3.924941">
    <ele>370</ele>
    <time>2026-10-01T18:01:41Z</time>
    <speed>1.02</speed>
  </trkpt>
  <trkpt lat="50.631850" lon="-3.925083">
    <ele>368</ele>
    <time>2026-10-01T18:01:52Z</time>
    <speed>1.15</speed>
  </trkpt>
  <trkpt lat="50.631850" lon="-3.925239">
    <ele>376</ele>
    <time>2026-10-01T18:02:03Z</time>
    <speed>2.03</speed>
  </trkpt>
  <trkpt lat="50.631833" lon="-3.925389">
    <ele>375</ele>
    <time>2026-10-01T18:02:15Z</time>
    <speed>1.11</speed>
  </trkpt>
  <trkpt lat="50.631847" lon="-3.925542">
    <ele>366</ele>
    <time>2026-10-01T18:02:29Z</time>
    <speed>0.96</speed>
  </trkpt>
  <trkpt lat="50.631826" lon="-3.925707">
    <ele>369</ele>
    <time>2026-10-01T18:02:40Z</time>
    <speed>0.83</speed>
  </trkpt>
  <trkpt lat="50.631770" lon="-3.925822">
    <ele>371</ele>
    <time>2026-10-01T18:02:56Z</time>
    <speed>1.01</speed>
  </trkpt>
  <trkpt lat="50.631759" lon="-3.925973">
    <ele>372</ele>
    <time>2026-10-01T18:03:11Z</time>
    <speed>0.85999995</speed>
  </trkpt>
  <trkpt lat="50.631793" lon="-3.926115">
    <ele>361</ele>
    <time>2026-10-01T18:03:27Z</time>
    <speed>0.65999997</speed>
  </trkpt>
  <trkpt lat="50.631844" lon="-3.926247">
    <ele>373</ele>
    <time>2026-10-01T18:03:40Z</time>
    <speed>1.04</speed>
  </trkpt>
  <trkpt lat="50.631951" lon="-3.926272">
    <ele>373</ele>
    <time>2026-10-01T18:03:51Z</time>
    <speed>1.11</speed>
  </trkpt>
  <trkpt lat="50.632048" lon="-3.926251">
    <ele>373</ele>
    <time>2026-10-01T18:04:02Z</time>
    <speed>1.89</speed>
  </trkpt>
  <trkpt lat="50.632139" lon="-3.926219">
    <ele>375</ele>
    <time>2026-10-01T18:04:13Z</time>
    <speed>1.04</speed>
  </trkpt>
  <trkpt lat="50.632059" lon="-3.926300">
    <ele>372</ele>
    <time>2026-10-01T18:04:40Z</time>
    <speed>1.38</speed>
  </trkpt>
  <trkpt lat="50.631961" lon="-3.926312">
    <ele>374</ele>
    <time>2026-10-01T18:04:51Z</time>
    <speed>0.93</speed>
  </trkpt>
  <trkpt lat="50.631860" lon="-3.926295">
    <ele>371</ele>
    <time>2026-10-01T18:05:02Z</time>
    <speed>0.72999996</speed>
  </trkpt>
  <trkpt lat="50.631791" lon="-3.926194">
    <ele>374</ele>
    <time>2026-10-01T18:07:57Z</time>
    <speed>1.04</speed>
  </trkpt>
  <trkpt lat="50.631702" lon="-3.926127">
    <ele>376</ele>
    <time>2026-10-01T18:08:08Z</time>
    <speed>1.15</speed>
  </trkpt>
  <trkpt lat="50.631556" lon="-3.926027">
    <ele>375</ele>
    <time>2026-10-01T18:08:19Z</time>
    <speed>0.51</speed>
  </trkpt>
  <trkpt lat="50.631439" lon="-3.925932">
    <ele>374</ele>
    <time>2026-10-01T18:08:30Z</time>
    <speed>1.0799999</speed>
  </trkpt>
  <trkpt lat="50.631302" lon="-3.925822">
    <ele>372</ele>
    <time>2026-10-01T18:08:41Z</time>
    <speed>1.64</speed>
  </trkpt>
  <trkpt lat="50.631191" lon="-3.925715">
    <ele>372</ele>
    <time>2026-10-01T18:08:52Z</time>
    <speed>1.35</speed>
  </trkpt>
  <trkpt lat="50.631047" lon="-3.925620">
    <ele>368</ele>
    <time>2026-10-01T18:09:03Z</time>
    <speed>1.11</speed>
  </trkpt>
  <trkpt lat="50.630911" lon="-3.925529">
    <ele>374</ele>
    <time>2026-10-01T18:09:14Z</time>
    <speed>1.03</speed>
  </trkpt>
  <trkpt lat="50.630804" lon="-3.925447">
    <ele>371</ele>
    <time>2026-10-01T18:09:25Z</time>
    <speed>1.03</speed>
  </trkpt>
  <trkpt lat="50.630678" lon="-3.925319">
    <ele>369</ele>
    <time>2026-10-01T18:09:36Z</time>
    <speed>1.41</speed>
  </trkpt>
  <trkpt lat="50.630542" lon="-3.925274">
    <ele>370</ele>
    <time>2026-10-01T18:09:47Z</time>
    <speed>0.82</speed>
  </trkpt>
  <trkpt lat="50.630406" lon="-3.925226">
    <ele>367</ele>
    <time>2026-10-01T18:09:58Z</time>
    <speed>1.42</speed>
  </trkpt>
  <trkpt lat="50.630245" lon="-3.925151">
    <ele>368</ele>
    <time>2026-10-01T18:10:09Z</time>
    <speed>2.1399999</speed>
  </trkpt>
  <trkpt lat="50.630084" lon="-3.925092">
    <ele>364</ele>
    <time>2026-10-01T18:10:20Z</time>
    <speed>1.5</speed>
  </trkpt>
  <trkpt lat="50.629936" lon="-3.925032">
    <ele>361</ele>
    <time>2026-10-01T18:10:31Z</time>
    <speed>1.51</speed>
  </trkpt>
  <trkpt lat="50.629796" lon="-3.924982">
    <ele>362</ele>
    <time>2026-10-01T18:10:42Z</time>
    <speed>1.39</speed>
  </trkpt>
  <trkpt lat="50.629648" lon="-3.924938">
    <ele>362</ele>
    <time>2026-10-01T18:10:53Z</time>
    <speed>1.53</speed>
  </trkpt>
  <trkpt lat="50.629515" lon="-3.924831">
    <ele>358</ele>
    <time>2026-10-01T18:11:04Z</time>
    <speed>1.14</speed>
  </trkpt>
  <trkpt lat="50.629383" lon="-3.924744">
    <ele>359</ele>
    <time>2026-10-01T18:11:15Z</time>
    <speed>1.49</speed>
  </trkpt>
  <trkpt lat="50.629249" lon="-3.924705">
    <ele>358</ele>
    <time>2026-10-01T18:11:26Z</time>
    <speed>1.28</speed>
  </trkpt>
  <trkpt lat="50.629125" lon="-3.924697">
    <ele>357</ele>
    <time>2026-10-01T18:11:37Z</time>
    <speed>1.4699999</speed>
  </trkpt>
  <trkpt lat="50.628993" lon="-3.924719">
    <ele>355</ele>
    <time>2026-10-01T18:11:48Z</time>
    <speed>1.4</speed>
  </trkpt>
  <trkpt lat="50.628851" lon="-3.924764">
    <ele>355</ele>
    <time>2026-10-01T18:11:59Z</time>
    <speed>1.4399999</speed>
  </trkpt>
  <trkpt lat="50.628717" lon="-3.924824">
    <ele>353</ele>
    <time>2026-10-01T18:12:10Z</time>
    <speed>1.38</speed>
  </trkpt>
  <trkpt lat="50.628582" lon="-3.924877">
    <ele>353</ele>
    <time>2026-10-01T18:12:21Z</time>
    <speed>1.28</speed>
  </trkpt>
  <trkpt lat="50.628452" lon="-3.924912">
    <ele>353</ele>
    <time>2026-10-01T18:12:32Z</time>
    <speed>1.24</speed>
  </trkpt>
  <trkpt lat="50.628337" lon="-3.924947">
    <ele>353</ele>
    <time>2026-10-01T18:12:43Z</time>
    <speed>0.95</speed>
  </trkpt>
  <trkpt lat="50.628232" lon="-3.925004">
    <ele>352</ele>
    <time>2026-10-01T18:12:54Z</time>
    <speed>1.42</speed>
  </trkpt>
  <trkpt lat="50.628097" lon="-3.925003">
    <ele>353</ele>
    <time>2026-10-01T18:13:05Z</time>
    <speed>1.5999999</speed>
  </trkpt>
  <trkpt lat="50.627955" lon="-3.925034">
    <ele>352</ele>
    <time>2026-10-01T18:13:16Z</time>
    <speed>1.55</speed>
  </trkpt>
  <trkpt lat="50.627823" lon="-3.925050">
    <ele>352</ele>
    <time>2026-10-01T18:13:27Z</time>
    <speed>1.18</speed>
  </trkpt>
  <trkpt lat="50.627721" lon="-3.924945">
    <ele>352</ele>
    <time>2026-10-01T18:13:38Z</time>
    <speed>1.24</speed>
  </trkpt>
  <trkpt lat="50.627624" lon="-3.924827">
    <ele>352</ele>
    <time>2026-10-01T18:13:49Z</time>
    <speed>1.22</speed>
  </trkpt>
  <trkpt lat="50.627552" lon="-3.924658">
    <ele>349</ele>
    <time>2026-10-01T18:14:00Z</time>
    <speed>1.64</speed>
  </trkpt>
  <trkpt lat="50.627455" lon="-3.924484">
    <ele>351</ele>
    <time>2026-10-01T18:14:11Z</time>
    <speed>1.13</speed>
  </trkpt>
  <trkpt lat="50.627342" lon="-3.924414">
    <ele>347</ele>
    <time>2026-10-01T18:14:22Z</time>
    <speed>1.5</speed>
  </trkpt>
  <trkpt lat="50.627223" lon="-3.924305">
    <ele>349</ele>
    <time>2026-10-01T18:14:33Z</time>
    <speed>0.85999995</speed>
  </trkpt>
  <trkpt lat="50.627131" lon="-3.924236">
    <ele>344</ele>
    <time>2026-10-01T18:14:44Z</time>
    <speed>0.90999997</speed>
  </trkpt>
  <trkpt lat="50.627048" lon="-3.924105">
    <ele>346</ele>
    <time>2026-10-01T18:14:55Z</time>
    <speed>0.83</speed>
  </trkpt>
  <trkpt lat="50.626915" lon="-3.924022">
    <ele>348</ele>
    <time>2026-10-01T18:15:06Z</time>
    <speed>1.52</speed>
  </trkpt>
  <trkpt lat="50.626824" lon="-3.923844">
    <ele>347</ele>
    <time>2026-10-01T18:15:17Z</time>
    <speed>1.63</speed>
  </trkpt>
  <trkpt lat="50.626680" lon="-3.923799">
    <ele>349</ele>
    <time>2026-10-01T18:15:28Z</time>
    <speed>1.27</speed>
  </trkpt>
  <trkpt lat="50.626568" lon="-3.923713">
    <ele>345</ele>
    <time>2026-10-01T18:15:39Z</time>
    <speed>1.04</speed>
  </trkpt>
  <trkpt lat="50.626543" lon="-3.923566">
    <ele>342</ele>
    <time>2026-10-01T18:15:51Z</time>
    <speed>0.53999996</speed>
  </trkpt>
  <trkpt lat="50.626455" lon="-3.923480">
    <ele>346</ele>
    <time>2026-10-01T18:16:03Z</time>
    <speed>1.36</speed>
  </trkpt>
  <trkpt lat="50.626387" lon="-3.923352">
    <ele>344</ele>
    <time>2026-10-01T18:16:14Z</time>
    <speed>1.12</speed>
  </trkpt>
  <trkpt lat="50.626347" lon="-3.923189">
    <ele>345</ele>
    <time>2026-10-01T18:16:25Z</time>
    <speed>1.05</speed>
  </trkpt>
  <trkpt lat="50.626338" lon="-3.923009">
    <ele>341</ele>
    <time>2026-10-01T18:16:36Z</time>
    <speed>0.96</speed>
  </trkpt>
  <trkpt lat="50.626311" lon="-3.922805">
    <ele>344</ele>
    <time>2026-10-01T18:16:47Z</time>
    <speed>0.82</speed>
  </trkpt>
  <trkpt lat="50.626283" lon="-3.922593">
    <ele>347</ele>
    <time>2026-10-01T18:16:58Z</time>
    <speed>0.82</speed>
  </trkpt>
  <trkpt lat="50.626263" lon="-3.922403">
    <ele>341</ele>
    <time>2026-10-01T18:17:09Z</time>
    <speed>1.15</speed>
  </trkpt>
  <trkpt lat="50.626200" lon="-3.922242">
    <ele>350</ele>
    <time>2026-10-01T18:17:20Z</time>
    <speed>1.25</speed>
  </trkpt>
  <trkpt lat="50.626145" lon="-3.922048">
    <ele>352</ele>
    <time>2026-10-01T18:17:31Z</time>
    <speed>1.42</speed>
  </trkpt>
  <trkpt lat="50.626136" lon="-3.921879">
    <ele>350</ele>
    <time>2026-10-01T18:17:42Z</time>
    <speed>1.1899999</speed>
  </trkpt>
  <trkpt lat="50.626091" lon="-3.921701">
    <ele>351</ele>
    <time>2026-10-01T18:17:53Z</time>
    <speed>1.01</speed>
  </trkpt>
  <trkpt lat="50.626038" lon="-3.921528">
    <ele>352</ele>
    <time>2026-10-01T18:18:04Z</time>
    <speed>1.0</speed>
  </trkpt>
  <trkpt lat="50.625974" lon="-3.921328">
    <ele>348</ele>
    <time>2026-10-01T18:18:15Z</time>
    <speed>1.13</speed>
  </trkpt>
  <trkpt lat="50.625928" lon="-3.921118">
    <ele>345</ele>
    <time>2026-10-01T18:18:26Z</time>
    <speed>1.14</speed>
  </trkpt>
  <trkpt lat="50.625888" lon="-3.920932">
    <ele>351</ele>
    <time>2026-10-01T18:18:37Z</time>
    <speed>1.27</speed>
  </trkpt>
  <trkpt lat="50.625855" lon="-3.920730">
    <ele>354</ele>
    <time>2026-10-01T18:18:48Z</time>
    <speed>1.04</speed>
  </trkpt>
  <trkpt lat="50.625786" lon="-3.920602">
    <ele>348</ele>
    <time>2026-10-01T18:18:59Z</time>
    <speed>1.12</speed>
  </trkpt>
  <trkpt lat="50.625761" lon="-3.920424">
    <ele>348</ele>
    <time>2026-10-01T18:19:10Z</time>
    <speed>0.91999996</speed>
  </trkpt>
  <trkpt lat="50.625719" lon="-3.920230">
    <ele>362</ele>
    <time>2026-10-01T18:19:21Z</time>
    <speed>0.94</speed>
  </trkpt>
  <trkpt lat="50.625657" lon="-3.920052">
    <ele>360</ele>
    <time>2026-10-01T18:19:32Z</time>
    <speed>1.03</speed>
  </trkpt>
  <trkpt lat="50.625609" lon="-3.919855">
    <ele>356</ele>
    <time>2026-10-01T18:19:43Z</time>
    <speed>1.12</speed>
  </trkpt>
  <trkpt lat="50.625553" lon="-3.919699">
    <ele>354</ele>
    <time>2026-10-01T18:19:54Z</time>
    <speed>1.04</speed>
  </trkpt>
  <trkpt lat="50.625511" lon="-3.919534">
    <ele>358</ele>
    <time>2026-10-01T18:20:05Z</time>
    <speed>0.47</speed>
  </trkpt>
  <trkpt lat="50.625479" lon="-3.919353">
    <ele>352</ele>
    <time>2026-10-01T18:20:16Z</time>
    <speed>0.89</speed>
  </trkpt>
  <trkpt lat="50.625428" lon="-3.919170">
    <ele>365</ele>
    <time>2026-10-01T18:20:27Z</time>
    <speed>0.97999996</speed>
  </trkpt>
  <trkpt lat="50.625387" lon="-3.918995">
    <ele>363</ele>
    <time>2026-10-01T18:20:38Z</time>
    <speed>0.74</speed>
  </trkpt>
  <trkpt lat="50.625282" lon="-3.918806">
    <ele>355</ele>
    <time>2026-10-01T18:20:49Z</time>
    <speed>1.09</speed>
  </trkpt>
  <trkpt lat="50.625231" lon="-3.918643">
    <ele>367</ele>
    <time>2026-10-01T18:21:00Z</time>
    <speed>1.16</speed>
  </trkpt>
  <trkpt lat="50.625177" lon="-3.918453">
    <ele>371</ele>
    <time>2026-10-01T18:21:11Z</time>
    <speed>0.57</speed>
  </trkpt>
  <trkpt lat="50.625130" lon="-3.918272">
    <ele>369</ele>
    <time>2026-10-01T18:21:22Z</time>
    <speed>1.6899999</speed>
  </trkpt>
  <trkpt lat="50.625074" lon="-3.918087">
    <ele>378</ele>
    <time>2026-10-01T18:21:33Z</time>
    <speed>1.4499999</speed>
  </trkpt>
  <trkpt lat="50.625019" lon="-3.917924">
    <ele>368</ele>
    <time>2026-10-01T18:21:44Z</time>
    <speed>0.74</speed>
  </trkpt>
  <trkpt lat="50.624950" lon="-3.917775">
    <ele>373</ele>
    <time>2026-10-01T18:21:55Z</time>
    <speed>0.71</speed>
  </trkpt>
  <trkpt lat="50.624881" lon="-3.917636">
    <ele>372</ele>
    <time>2026-10-01T18:22:06Z</time>
    <speed>0.58</speed>
  </trkpt>
  <trkpt lat="50.624801" lon="-3.917497">
    <ele>381</ele>
    <time>2026-10-01T18:22:17Z</time>
    <speed>1.68</speed>
  </trkpt>
  <trkpt lat="50.624720" lon="-3.917324">
    <ele>378</ele>
    <time>2026-10-01T18:22:28Z</time>
    <speed>1.74</speed>
  </trkpt>
  <trkpt lat="50.624717" lon="-3.917116">
    <ele>370</ele>
    <time>2026-10-01T18:22:39Z</time>
    <speed>1.03</speed>
  </trkpt>
  <trkpt lat="50.624692" lon="-3.916943">
    <ele>376</ele>
    <time>2026-10-01T18:22:50Z</time>
    <speed>1.2099999</speed>
  </trkpt>
  <trkpt lat="50.624640" lon="-3.916770">
    <ele>374</ele>
    <time>2026-10-01T18:23:01Z</time>
    <speed>0.94</speed>
  </trkpt>
  <trkpt lat="50.624601" lon="-3.916602">
    <ele>380</ele>
    <time>2026-10-01T18:23:12Z</time>
    <speed>1.35</speed>
  </trkpt>
  <trkpt lat="50.624546" lon="-3.916411">
    <ele>386</ele>
    <time>2026-10-01T18:23:23Z</time>
    <speed>1.91</speed>
  </trkpt>
  <trkpt lat="50.624474" lon="-3.916257">
    <ele>389</ele>
    <time>2026-10-01T18:23:34Z</time>
    <speed>1.41</speed>
  </trkpt>
  <trkpt lat="50.624421" lon="-3.916135">
    <ele>385</ele>
    <time>2026-10-01T18:23:45Z</time>
    <speed>1.1999999</speed>
  </trkpt>
  <trkpt lat="50.624366" lon="-3.915976">
    <ele>388</ele>
    <time>2026-10-01T18:23:56Z</time>
    <speed>1.11</speed>
  </trkpt>
  <trkpt lat="50.624305" lon="-3.915794">
    <ele>387</ele>
    <time>2026-10-01T18:24:07Z</time>
    <speed>1.02</speed>
  </trkpt>
  <trkpt lat="50.624220" lon="-3.915609">
    <ele>381</ele>
    <time>2026-10-01T18:24:18Z</time>
    <speed>1.1899999</speed>
  </trkpt>
  <trkpt lat="50.624153" lon="-3.915426">
    <ele>387</ele>
    <time>2026-10-01T18:24:29Z</time>
    <speed>1.49</speed>
  </trkpt>
  <trkpt lat="50.624077" lon="-3.915246">
    <ele>390</ele>
    <time>2026-10-01T18:24:40Z</time>
    <speed>1.28</speed>
  </trkpt>
  <trkpt lat="50.624005" lon="-3.915079">
    <ele>392</ele>
    <time>2026-10-01T18:24:51Z</time>
    <speed>0.96999997</speed>
  </trkpt>
  <trkpt lat="50.623960" lon="-3.914915">
    <ele>391</ele>
    <time>2026-10-01T18:25:02Z</time>
    <speed>0.66999996</speed>
  </trkpt>
  <trkpt lat="50.623903" lon="-3.914728">
    <ele>393</ele>
    <time>2026-10-01T18:25:13Z</time>
    <speed>1.1999999</speed>
  </trkpt>
  <trkpt lat="50.623895" lon="-3.914523">
    <ele>384</ele>
    <time>2026-10-01T18:25:24Z</time>
    <speed>1.11</speed>
  </trkpt>
  <trkpt lat="50.623863" lon="-3.914333">
    <ele>386</ele>
    <time>2026-10-01T18:25:35Z</time>
    <speed>1.27</speed>
  </trkpt>
  <trkpt lat="50.623860" lon="-3.914117">
    <ele>393</ele>
    <time>2026-10-01T18:25:46Z</time>
    <speed>1.55</speed>
  </trkpt>
  <trkpt lat="50.623889" lon="-3.913944">
    <ele>398</ele>
    <time>2026-10-01T18:25:57Z</time>
    <speed>0.77</speed>
  </trkpt>
  <trkpt lat="50.623860" lon="-3.913728">
    <ele>394</ele>
    <time>2026-10-01T18:26:08Z</time>
    <speed>0.75</speed>
  </trkpt>
  <trkpt lat="50.623877" lon="-3.913539">
    <ele>394</ele>
    <time>2026-10-01T18:26:19Z</time>
    <speed>1.0</speed>
  </trkpt>
  <trkpt lat="50.623877" lon="-3.913317">
    <ele>397</ele>
    <time>2026-10-01T18:26:30Z</time>
    <speed>0.95</speed>
  </trkpt>
  <trkpt lat="50.623865" lon="-3.913113">
    <ele>397</ele>
    <time>2026-10-01T18:26:41Z</time>
    <speed>1.0799999</speed>
  </trkpt>
  <trkpt lat="50.623852" lon="-3.912911">
    <ele>395</ele>
    <time>2026-10-01T18:26:52Z</time>
    <speed>0.88</speed>
  </trkpt>
  <trkpt lat="50.623859" lon="-3.912691">
    <ele>394</ele>
    <time>2026-10-01T18:27:03Z</time>
    <speed>1.63</speed>
  </trkpt>
  <trkpt lat="50.623868" lon="-3.912496">
    <ele>395</ele>
    <time>2026-10-01T18:27:14Z</time>
    <speed>1.1</speed>
  </trkpt>
  <trkpt lat="50.623847" lon="-3.912334">
    <ele>395</ele>
    <time>2026-10-01T18:27:25Z</time>
    <speed>1.12</speed>
  </trkpt>
  <trkpt lat="50.623853" lon="-3.912138">
    <ele>397</ele>
    <time>2026-10-01T18:27:36Z</time>
    <speed>1.51</speed>
  </trkpt>
  <trkpt lat="50.623857" lon="-3.911940">
    <ele>398</ele>
    <time>2026-10-01T18:27:47Z</time>
    <speed>1.26</speed>
  </trkpt>
  <trkpt lat="50.623793" lon="-3.911745">
    <ele>399</ele>
    <time>2026-10-01T18:27:58Z</time>
    <speed>1.11</speed>
  </trkpt>
  <trkpt lat="50.623761" lon="-3.911553">
    <ele>396</ele>
    <time>2026-10-01T18:28:09Z</time>
    <speed>1.04</speed>
  </trkpt>
  <trkpt lat="50.623730" lon="-3.911353">
    <ele>397</ele>
    <time>2026-10-01T18:28:20Z</time>
    <speed>1.1899999</speed>
  </trkpt>
  <trkpt lat="50.623682" lon="-3.911170">
    <ele>397</ele>
    <time>2026-10-01T18:28:31Z</time>
    <speed>1.06</speed>
  </trkpt>
  <trkpt lat="50.623596" lon="-3.910958">
    <ele>400</ele>
    <time>2026-10-01T18:28:42Z</time>
    <speed>1.37</speed>
  </trkpt>
  <trkpt lat="50.623560" lon="-3.910763">
    <ele>396</ele>
    <time>2026-10-01T18:28:53Z</time>
    <speed>0.85999995</speed>
  </trkpt>
  <trkpt lat="50.623541" lon="-3.910576">
    <ele>397</ele>
    <time>2026-10-01T18:29:04Z</time>
    <speed>0.97999996</speed>
  </trkpt>
  <trkpt lat="50.623500" lon="-3.910436">
    <ele>396</ele>
    <time>2026-10-01T18:29:21Z</time>
    <speed>1.0799999</speed>
  </trkpt>
  <trkpt lat="50.623454" lon="-3.910268">
    <ele>396</ele>
    <time>2026-10-01T18:29:32Z</time>
    <speed>0.74</speed>
  </trkpt>
  <trkpt lat="50.623409" lon="-3.910118">
    <ele>396</ele>
    <time>2026-10-01T18:29:43Z</time>
    <speed>0.85999995</speed>
  </trkpt>
  <trkpt lat="50.623366" lon="-3.909919">
    <ele>398</ele>
    <time>2026-10-01T18:29:54Z</time>
    <speed>1.3</speed>
  </trkpt>
  <trkpt lat="50.623333" lon="-3.909742">
    <ele>394</ele>
    <time>2026-10-01T18:30:05Z</time>
    <speed>0.81</speed>
  </trkpt>
  <trkpt lat="50.623293" lon="-3.909573">
    <ele>395</ele>
    <time>2026-10-01T18:30:16Z</time>
    <speed>1.31</speed>
  </trkpt>
  <trkpt lat="50.623223" lon="-3.909383">
    <ele>394</ele>
    <time>2026-10-01T18:30:27Z</time>
    <speed>1.3199999</speed>
  </trkpt>
  <trkpt lat="50.623182" lon="-3.909199">
    <ele>395</ele>
    <time>2026-10-01T18:30:38Z</time>
    <speed>1.31</speed>
  </trkpt>
  <trkpt lat="50.623146" lon="-3.908971">
    <ele>394</ele>
    <time>2026-10-01T18:30:49Z</time>
    <speed>1.4</speed>
  </trkpt>
  <trkpt lat="50.623125" lon="-3.908753">
    <ele>393</ele>
    <time>2026-10-01T18:31:00Z</time>
    <speed>1.26</speed>
  </trkpt>
  <trkpt lat="50.623123" lon="-3.908542">
    <ele>398</ele>
    <time>2026-10-01T18:31:11Z</time>
    <speed>1.09</speed>
  </trkpt>
  <trkpt lat="50.623103" lon="-3.908333">
    <ele>396</ele>
    <time>2026-10-01T18:31:22Z</time>
    <speed>1.4599999</speed>
  </trkpt>
  <trkpt lat="50.623116" lon="-3.908140">
    <ele>390</ele>
    <time>2026-10-01T18:31:33Z</time>
    <speed>1.22</speed>
  </trkpt>
  <trkpt lat="50.623133" lon="-3.907996">
    <ele>394</ele>
    <time>2026-10-01T18:31:57Z</time>
    <speed>0.78</speed>
  </trkpt>
  <trkpt lat="50.623154" lon="-3.907854">
    <ele>394</ele>
    <time>2026-10-01T18:32:40Z</time>
    <speed>0.66999996</speed>
  </trkpt>
  <trkpt lat="50.623094" lon="-3.907740">
    <ele>388</ele>
    <time>2026-10-01T18:40:46Z</time>
    <speed>0.94</speed>
  </trkpt>
  <trkpt lat="50.623019" lon="-3.907623">
    <ele>392</ele>
    <time>2026-10-01T18:40:57Z</time>
    <speed>1.01</speed>
  </trkpt>
  <trkpt lat="50.622914" lon="-3.907527">
    <ele>392</ele>
    <time>2026-10-01T18:41:08Z</time>
    <speed>0.71</speed>
  </trkpt>
  <trkpt lat="50.622827" lon="-3.907381">
    <ele>386</ele>
    <time>2026-10-01T18:41:19Z</time>
    <speed>0.94</speed>
  </trkpt>
  <trkpt lat="50.622770" lon="-3.907259">
    <ele>386</ele>
    <time>2026-10-01T18:41:30Z</time>
    <speed>1.2099999</speed>
  </trkpt>
  <trkpt lat="50.622723" lon="-3.907134">
    <ele>387</ele>
    <time>2026-10-01T18:42:00Z</time>
    <speed>0.16</speed>
  </trkpt>
  <trkpt lat="50.622657" lon="-3.907030">
    <ele>386</ele>
    <time>2026-10-01T18:42:18Z</time>
    <speed>1.2099999</speed>
  </trkpt>
  <trkpt lat="50.622578" lon="-3.906871">
    <ele>383</ele>
    <time>2026-10-01T18:42:29Z</time>
    <speed>1.16</speed>
  </trkpt>
  <trkpt lat="50.622522" lon="-3.906653">
    <ele>375</ele>
    <time>2026-10-01T18:42:40Z</time>
    <speed>1.12</speed>
  </trkpt>
  <trkpt lat="50.622457" lon="-3.906479">
    <ele>382</ele>
    <time>2026-10-01T18:42:51Z</time>
    <speed>0.9</speed>
  </trkpt>
  <trkpt lat="50.622396" lon="-3.906309">
    <ele>377</ele>
    <time>2026-10-01T18:43:02Z</time>
    <speed>1.1899999</speed>
  </trkpt>
  <trkpt lat="50.622349" lon="-3.906132">
    <ele>376</ele>
    <time>2026-10-01T18:43:13Z</time>
    <speed>1.13</speed>
  </trkpt>
  <trkpt lat="50.622306" lon="-3.905949">
    <ele>375</ele>
    <time>2026-10-01T18:43:24Z</time>
    <speed>1.0799999</speed>
  </trkpt>
  <trkpt lat="50.622291" lon="-3.905765">
    <ele>373</ele>
    <time>2026-10-01T18:43:35Z</time>
    <speed>1.18</speed>
  </trkpt>
  <trkpt lat="50.622263" lon="-3.905562">
    <ele>368</ele>
    <time>2026-10-01T18:43:46Z</time>
    <speed>1.31</speed>
  </trkpt>
  <trkpt lat="50.622191" lon="-3.905429">
    <ele>369</ele>
    <time>2026-10-01T18:43:57Z</time>
    <speed>1.23</speed>
  </trkpt>
  <trkpt lat="50.622183" lon="-3.905221">
    <ele>358</ele>
    <time>2026-10-01T18:44:08Z</time>
    <speed>1.2099999</speed>
  </trkpt>
  <trkpt lat="50.622175" lon="-3.905029">
    <ele>366</ele>
    <time>2026-10-01T18:44:19Z</time>
    <speed>1.15</speed>
  </trkpt>
  <trkpt lat="50.622171" lon="-3.904862">
    <ele>362</ele>
    <time>2026-10-01T18:44:30Z</time>
    <speed>1.77</speed>
  </trkpt>
  <trkpt lat="50.622142" lon="-3.904690">
    <ele>362</ele>
    <time>2026-10-01T18:44:41Z</time>
    <speed>0.93</speed>
  </trkpt>
  <trkpt lat="50.622121" lon="-3.904531">
    <ele>362</ele>
    <time>2026-10-01T18:44:52Z</time>
    <speed>1.26</speed>
  </trkpt>
  <trkpt lat="50.622086" lon="-3.904363">
    <ele>354</ele>
    <time>2026-10-01T18:45:03Z</time>
    <speed>0.88</speed>
  </trkpt>
  <trkpt lat="50.622034" lon="-3.904243">
    <ele>359</ele>
    <time>2026-10-01T18:45:17Z</time>
    <speed>1.17</speed>
  </trkpt>
  <trkpt lat="50.622002" lon="-3.904089">
    <ele>355</ele>
    <time>2026-10-01T18:45:28Z</time>
    <speed>1.1</speed>
  </trkpt>
  <trkpt lat="50.621925" lon="-3.903974">
    <ele>354</ele>
    <time>2026-10-01T18:45:39Z</time>
    <speed>1.4499999</speed>
  </trkpt>
  <trkpt lat="50.621875" lon="-3.903822">
    <ele>354</ele>
    <time>2026-10-01T18:45:50Z</time>
    <speed>0.96999997</speed>
  </trkpt>
  <trkpt lat="50.621820" lon="-3.903706">
    <ele>351</ele>
    <time>2026-10-01T18:46:01Z</time>
    <speed>0.68</speed>
  </trkpt>
  <trkpt lat="50.621751" lon="-3.903607">
    <ele>350</ele>
    <time>2026-10-01T18:46:13Z</time>
    <speed>1.2099999</speed>
  </trkpt>
  <trkpt lat="50.621674" lon="-3.903524">
    <ele>349</ele>
    <time>2026-10-01T18:46:24Z</time>
    <speed>1.0</speed>
  </trkpt>
  <trkpt lat="50.621580" lon="-3.903412">
    <ele>349</ele>
    <time>2026-10-01T18:46:35Z</time>
    <speed>1.28</speed>
  </trkpt>
  <trkpt lat="50.621505" lon="-3.903266">
    <ele>348</ele>
    <time>2026-10-01T18:46:46Z</time>
    <speed>0.84999996</speed>
  </trkpt>
  <trkpt lat="50.621422" lon="-3.903163">
    <ele>346</ele>
    <time>2026-10-01T18:46:57Z</time>
    <speed>1.25</speed>
  </trkpt>
  <trkpt lat="50.621317" lon="-3.903078">
    <ele>342</ele>
    <time>2026-10-01T18:47:08Z</time>
    <speed>0.90999997</speed>
  </trkpt>
  <trkpt lat="50.621192" lon="-3.902985">
    <ele>344</ele>
    <time>2026-10-01T18:47:19Z</time>
    <speed>1.14</speed>
  </trkpt>
  <trkpt lat="50.621084" lon="-3.902886">
    <ele>337</ele>
    <time>2026-10-01T18:47:30Z</time>
    <speed>1.05</speed>
  </trkpt>
  <trkpt lat="50.620983" lon="-3.902770">
    <ele>338</ele>
    <time>2026-10-01T18:47:41Z</time>
    <speed>1.17</speed>
  </trkpt>
  <trkpt lat="50.620897" lon="-3.902637">
    <ele>346</ele>
    <time>2026-10-01T18:47:52Z</time>
    <speed>1.25</speed>
  </trkpt>
  <trkpt lat="50.620825" lon="-3.902484">
    <ele>340</ele>
    <time>2026-10-01T18:48:03Z</time>
    <speed>1.03</speed>
  </trkpt>
  <trkpt lat="50.620729" lon="-3.902361">
    <ele>337</ele>
    <time>2026-10-01T18:48:14Z</time>
    <speed>1.35</speed>
  </trkpt>
  <trkpt lat="50.620613" lon="-3.902251">
    <ele>340</ele>
    <time>2026-10-01T18:48:25Z</time>
    <speed>1.26</speed>
  </trkpt>
  <trkpt lat="50.620516" lon="-3.902106">
    <ele>340</ele>
    <time>2026-10-01T18:48:36Z</time>
    <speed>1.2099999</speed>
  </trkpt>
  <trkpt lat="50.620447" lon="-3.901925">
    <ele>343</ele>
    <time>2026-10-01T18:48:47Z</time>
    <speed>1.41</speed>
  </trkpt>
  <trkpt lat="50.620405" lon="-3.901758">
    <ele>335</ele>
    <time>2026-10-01T18:48:58Z</time>
    <speed>1.55</speed>
  </trkpt>
  <trkpt lat="50.620353" lon="-3.901531">
    <ele>335</ele>
    <time>2026-10-01T18:49:09Z</time>
    <speed>1.14</speed>
  </trkpt>
  <trkpt lat="50.620299" lon="-3.901359">
    <ele>335</ele>
    <time>2026-10-01T18:49:20Z</time>
    <speed>1.06</speed>
  </trkpt>
  <trkpt lat="50.620282" lon="-3.901193">
    <ele>334</ele>
    <time>2026-10-01T18:49:31Z</time>
    <speed>1.31</speed>
  </trkpt>
  <trkpt lat="50.620259" lon="-3.901021">
    <ele>332</ele>
    <time>2026-10-01T18:49:42Z</time>
    <speed>1.23</speed>
  </trkpt>
  <trkpt lat="50.620236" lon="-3.900836">
    <ele>332</ele>
    <time>2026-10-01T18:49:53Z</time>
    <speed>1.55</speed>
  </trkpt>
  <trkpt lat="50.620213" lon="-3.900644">
    <ele>331</ele>
    <time>2026-10-01T18:50:04Z</time>
    <speed>1.1899999</speed>
  </trkpt>
  <trkpt lat="50.620189" lon="-3.900456">
    <ele>331</ele>
    <time>2026-10-01T18:50:15Z</time>
    <speed>1.38</speed>
  </trkpt>
  <trkpt lat="50.620152" lon="-3.900267">
    <ele>330</ele>
    <time>2026-10-01T18:50:26Z</time>
    <speed>1.14</speed>
  </trkpt>
  <trkpt lat="50.620135" lon="-3.900095">
    <ele>331</ele>
    <time>2026-10-01T18:50:37Z</time>
    <speed>1.01</speed>
  </trkpt>
  <trkpt lat="50.620106" lon="-3.899929">
    <ele>329</ele>
    <time>2026-10-01T18:50:48Z</time>
    <speed>1.2099999</speed>
  </trkpt>
  <trkpt lat="50.620095" lon="-3.899743">
    <ele>329</ele>
    <time>2026-10-01T18:50:59Z</time>
    <speed>1.14</speed>
  </trkpt>
  <trkpt lat="50.620081" lon="-3.899572">
    <ele>329</ele>
    <time>2026-10-01T18:51:10Z</time>
    <speed>1.03</speed>
  </trkpt>
  <trkpt lat="50.620116" lon="-3.899398">
    <ele>331</ele>
    <time>2026-10-01T18:51:21Z</time>
    <speed>1.16</speed>
  </trkpt>
  <trkpt lat="50.620147" lon="-3.899221">
    <ele>330</ele>
    <time>2026-10-01T18:51:32Z</time>
    <speed>1.06</speed>
  </trkpt>
  <trkpt lat="50.620205" lon="-3.899078">
    <ele>327</ele>
    <time>2026-10-01T18:51:43Z</time>
    <speed>0.81</speed>
  </trkpt>
  <trkpt lat="50.620265" lon="-3.898902">
    <ele>326</ele>
    <time>2026-10-01T18:51:54Z</time>
    <speed>0.96</speed>
  </trkpt>
  <trkpt lat="50.620329" lon="-3.898802">
    <ele>324</ele>
    <time>2026-10-01T18:52:05Z</time>
    <speed>1.0</speed>
  </trkpt>
  <trkpt lat="50.620389" lon="-3.898670">
    <ele>325</ele>
    <time>2026-10-01T18:52:16Z</time>
    <speed>0.84</speed>
  </trkpt>
  <trkpt lat="50.620444" lon="-3.898543">
    <ele>325</ele>
    <time>2026-10-01T18:52:27Z</time>
    <speed>0.95</speed>
  </trkpt>
  <trkpt lat="50.620522" lon="-3.898446">
    <ele>324</ele>
    <time>2026-10-01T18:52:38Z</time>
    <speed>1.14</speed>
  </trkpt>
  <trkpt lat="50.620593" lon="-3.898355">
    <ele>323</ele>
    <time>2026-10-01T18:52:50Z</time>
    <speed>0.89</speed>
  </trkpt>
  <trkpt lat="50.620664" lon="-3.898256">
    <ele>323</ele>
    <time>2026-10-01T18:53:02Z</time>
    <speed>0.84</speed>
  </trkpt>
  <trkpt lat="50.620750" lon="-3.898198">
    <ele>320</ele>
    <time>2026-10-01T18:53:16Z</time>
    <speed>1.12</speed>
  </trkpt>
  <trkpt lat="50.620806" lon="-3.898086">
    <ele>320</ele>
    <time>2026-10-01T18:53:27Z</time>
    <speed>1.06</speed>
  </trkpt>
  <trkpt lat="50.620875" lon="-3.897992">
    <ele>317</ele>
    <time>2026-10-01T18:53:38Z</time>
    <speed>1.11</speed>
  </trkpt>
  <trkpt lat="50.620954" lon="-3.897858">
    <ele>317</ele>
    <time>2026-10-01T18:53:49Z</time>
    <speed>0.62</speed>
  </trkpt>
  <trkpt lat="50.620874" lon="-3.897710">
    <ele>314</ele>
    <time>2026-10-01T18:54:23Z</time>
    <speed>6.12</speed>
  </trkpt>
  <trkpt lat="50.620949" lon="-3.897632">
    <ele>314</ele>
    <time>2026-10-01T18:55:13Z</time>
    <speed>0.21</speed>
  </trkpt>
  <trkpt lat="50.620940" lon="-3.897484">
    <ele>316</ele>
    <time>2026-10-01T18:55:24Z</time>
    <speed>2.3799999</speed>
  </trkpt>
  <trkpt lat="50.621018" lon="-3.897377">
    <ele>317</ele>
    <time>2026-10-01T18:55:36Z</time>
    <speed>1.68</speed>
  </trkpt>
  <trkpt lat="50.621047" lon="-3.897202">
    <ele>311</ele>
    <time>2026-10-01T18:55:47Z</time>
    <speed>1.0699999</speed>
  </trkpt>
  <trkpt lat="50.621014" lon="-3.897025">
    <ele>316</ele>
    <time>2026-10-01T18:55:58Z</time>
    <speed>1.27</speed>
  </trkpt>
  <trkpt lat="50.621006" lon="-3.896876">
    <ele>320</ele>
    <time>2026-10-01T18:56:11Z</time>
    <speed>0.68</speed>
  </trkpt>
  <trkpt lat="50.621003" lon="-3.896724">
    <ele>321</ele>
    <time>2026-10-01T18:56:24Z</time>
    <speed>1.09</speed>
  </trkpt>
  <trkpt lat="50.621021" lon="-3.896582">
    <ele>323</ele>
    <time>2026-10-01T18:56:35Z</time>
    <speed>1.24</speed>
  </trkpt>
  <trkpt lat="50.621021" lon="-3.896400">
    <ele>323</ele>
    <time>2026-10-01T18:56:46Z</time>
    <speed>1.17</speed>
  </trkpt>
  <trkpt lat="50.621011" lon="-3.896195">
    <ele>314</ele>
    <time>2026-10-01T18:56:57Z</time>
    <speed>1.5999999</speed>
  </trkpt>
  <trkpt lat="50.621039" lon="-3.896024">
    <ele>307</ele>
    <time>2026-10-01T18:57:08Z</time>
    <speed>0.91999996</speed>
  </trkpt>
  <trkpt lat="50.621083" lon="-3.895869">
    <ele>329</ele>
    <time>2026-10-01T18:57:19Z</time>
    <speed>0.35</speed>
  </trkpt>
  <trkpt lat="50.621142" lon="-3.895753">
    <ele>331</ele>
    <time>2026-10-01T18:57:30Z</time>
    <speed>0.9</speed>
  </trkpt>
  <trkpt lat="50.621188" lon="-3.895582">
    <ele>330</ele>
    <time>2026-10-01T18:57:41Z</time>
    <speed>0.89</speed>
  </trkpt>
  <trkpt lat="50.621185" lon="-3.895425">
    <ele>325</ele>
    <time>2026-10-01T18:57:52Z</time>
    <speed>0.66999996</speed>
  </trkpt>
  <trkpt lat="50.621209" lon="-3.895243">
    <ele>333</ele>
    <time>2026-10-01T18:58:03Z</time>
    <speed>0.95</speed>
  </trkpt>
  <trkpt lat="50.621251" lon="-3.895074">
    <ele>334</ele>
    <time>2026-10-01T18:58:14Z</time>
    <speed>1.05</speed>
  </trkpt>
  <trkpt lat="50.621299" lon="-3.894934">
    <ele>336</ele>
    <time>2026-10-01T18:58:25Z</time>
    <speed>0.48</speed>
  </trkpt>
  <trkpt lat="50.621328" lon="-3.894800">
    <ele>337</ele>
    <time>2026-10-01T18:58:36Z</time>
    <speed>0.29</speed>
  </trkpt>
  <trkpt lat="50.621417" lon="-3.894760">
    <ele>334</ele>
    <time>2026-10-01T18:58:52Z</time>
    <speed>0.76</speed>
  </trkpt>
  <trkpt lat="50.621507" lon="-3.894757">
    <ele>335</ele>
    <time>2026-10-01T19:02:01Z</time>
    <speed>0.16</speed>
  </trkpt>
  <trkpt lat="50.621438" lon="-3.894857">
    <ele>333</ele>
    <time>2026-10-01T19:05:27Z</time>
    <speed>0.62</speed>
  </trkpt>
  <trkpt lat="50.621499" lon="-3.894750">
    <ele>334</ele>
    <time>2026-10-01T19:06:31Z</time>
    <speed>1.04</speed>
  </trkpt>
  <trkpt lat="50.621417" lon="-3.894838">
    <ele>333</ele>
    <time>2026-10-01T19:10:46Z</time>
    <speed>0.32</speed>
  </trkpt>
  <trkpt lat="50.621477" lon="-3.894720">
    <ele>334</ele>
    <time>2026-10-01T19:10:58Z</time>
    <speed>0.24</speed>
  </trkpt>
  <trkpt lat="50.621451" lon="-3.894860">
    <ele>333</ele>
    <time>2026-10-01T19:12:19Z</time>
    <speed>0.02</speed>
  </trkpt>
  <trkpt lat="50.621539" lon="-3.894805">
    <ele>334</ele>
    <time>2026-10-01T19:13:04Z</time>
    <speed>0.55</speed>
  </trkpt>
  <trkpt lat="50.621655" lon="-3.894781">
    <ele>336</ele>
    <time>2026-10-01T19:13:15Z</time>
    <speed>1.25</speed>
  </trkpt>
  <trkpt lat="50.621748" lon="-3.894767">
    <ele>337</ele>
    <time>2026-10-01T19:13:26Z</time>
    <speed>0.68</speed>
  </trkpt>
  <trkpt lat="50.621838" lon="-3.894739">
    <ele>335</ele>
    <time>2026-10-01T19:13:39Z</time>
    <speed>0.76</speed>
  </trkpt>
  <trkpt lat="50.621954" lon="-3.894735">
    <ele>332</ele>
    <time>2026-10-01T19:13:50Z</time>
    <speed>0.85999995</speed>
  </trkpt>
  <trkpt lat="50.622058" lon="-3.894734">
    <ele>336</ele>
    <time>2026-10-01T19:14:01Z</time>
    <speed>0.32</speed>
  </trkpt>
  <trkpt lat="50.622212" lon="-3.894679">
    <ele>337</ele>
    <time>2026-10-01T19:14:12Z</time>
    <speed>0.44</speed>
  </trkpt>
  <trkpt lat="50.622305" lon="-3.894670">
    <ele>335</ele>
    <time>2026-10-01T19:14:24Z</time>
    <speed>1.17</speed>
  </trkpt>
  <trkpt lat="50.622463" lon="-3.894638">
    <ele>339</ele>
    <time>2026-10-01T19:14:35Z</time>
    <speed>1.5699999</speed>
  </trkpt>
  <trkpt lat="50.622634" lon="-3.894595">
    <ele>337</ele>
    <time>2026-10-01T19:14:46Z</time>
    <speed>0.88</speed>
  </trkpt>
  <trkpt lat="50.622760" lon="-3.894587">
    <ele>337</ele>
    <time>2026-10-01T19:14:57Z</time>
    <speed>1.4399999</speed>
  </trkpt>
  <trkpt lat="50.622888" lon="-3.894564">
    <ele>340</ele>
    <time>2026-10-01T19:15:08Z</time>
    <speed>1.31</speed>
  </trkpt>
  <trkpt lat="50.623008" lon="-3.894530">
    <ele>333</ele>
    <time>2026-10-01T19:15:19Z</time>
    <speed>1.24</speed>
  </trkpt>
  <trkpt lat="50.623153" lon="-3.894528">
    <ele>340</ele>
    <time>2026-10-01T19:15:30Z</time>
    <speed>1.29</speed>
  </trkpt>
  <trkpt lat="50.623259" lon="-3.894546">
    <ele>335</ele>
    <time>2026-10-01T19:15:41Z</time>
    <speed>0.9</speed>
  </trkpt>
  <trkpt lat="50.623399" lon="-3.894501">
    <ele>336</ele>
    <time>2026-10-01T19:15:52Z</time>
    <speed>0.41</speed>
  </trkpt>
  <trkpt lat="50.623509" lon="-3.894486">
    <ele>341</ele>
    <time>2026-10-01T19:16:03Z</time>
    <speed>0.84</speed>
  </trkpt>
  <trkpt lat="50.623652" lon="-3.894486">
    <ele>339</ele>
    <time>2026-10-01T19:16:14Z</time>
    <speed>0.78999996</speed>
  </trkpt>
  <trkpt lat="50.623784" lon="-3.894453">
    <ele>340</ele>
    <time>2026-10-01T19:16:25Z</time>
    <speed>1.03</speed>
  </trkpt>
  <trkpt lat="50.623924" lon="-3.894459">
    <ele>338</ele>
    <time>2026-10-01T19:16:36Z</time>
    <speed>1.2099999</speed>
  </trkpt>
  <trkpt lat="50.624043" lon="-3.894420">
    <ele>337</ele>
    <time>2026-10-01T19:16:47Z</time>
    <speed>0.98999995</speed>
  </trkpt>
  <trkpt lat="50.624168" lon="-3.894393">
    <ele>340</ele>
    <time>2026-10-01T19:16:58Z</time>
    <speed>0.87</speed>
  </trkpt>
  <trkpt lat="50.624299" lon="-3.894380">
    <ele>338</ele>
    <time>2026-10-01T19:17:09Z</time>
    <speed>1.24</speed>
  </trkpt>
  <trkpt lat="50.624400" lon="-3.894409">
    <ele>339</ele>
    <time>2026-10-01T19:17:20Z</time>
    <speed>0.59999996</speed>
  </trkpt>
  <trkpt lat="50.624550" lon="-3.894415">
    <ele>340</ele>
    <time>2026-10-01T19:17:31Z</time>
    <speed>1.51</speed>
  </trkpt>
  <trkpt lat="50.624685" lon="-3.894410">
    <ele>340</ele>
    <time>2026-10-01T19:17:42Z</time>
    <speed>0.95</speed>
  </trkpt>
  <trkpt lat="50.624822" lon="-3.894400">
    <ele>339</ele>
    <time>2026-10-01T19:17:53Z</time>
    <speed>1.0699999</speed>
  </trkpt>
  <trkpt lat="50.624957" lon="-3.894405">
    <ele>340</ele>
    <time>2026-10-01T19:18:04Z</time>
    <speed>0.41</speed>
  </trkpt>
  <trkpt lat="50.625082" lon="-3.894378">
    <ele>340</ele>
    <time>2026-10-01T19:18:15Z</time>
    <speed>0.82</speed>
  </trkpt>
  <trkpt lat="50.625204" lon="-3.894384">
    <ele>339</ele>
    <time>2026-10-01T19:18:26Z</time>
    <speed>1.29</speed>
  </trkpt>
  <trkpt lat="50.625344" lon="-3.894375">
    <ele>337</ele>
    <time>2026-10-01T19:18:37Z</time>
    <speed>0.34</speed>
  </trkpt>
  <trkpt lat="50.625500" lon="-3.894355">
    <ele>336</ele>
    <time>2026-10-01T19:18:48Z</time>
    <speed>0.25</speed>
  </trkpt>
  <trkpt lat="50.625591" lon="-3.894361">
    <ele>338</ele>
    <time>2026-10-01T19:19:01Z</time>
    <speed>0.35</speed>
  </trkpt>
  <trkpt lat="50.625735" lon="-3.894366">
    <ele>335</ele>
    <time>2026-10-01T19:19:12Z</time>
    <speed>1.09</speed>
  </trkpt>
  <trkpt lat="50.625885" lon="-3.894376">
    <ele>335</ele>
    <time>2026-10-01T19:19:23Z</time>
    <speed>1.62</speed>
  </trkpt>
  <trkpt lat="50.626008" lon="-3.894387">
    <ele>336</ele>
    <time>2026-10-01T19:19:34Z</time>
    <speed>0.78999996</speed>
  </trkpt>
  <trkpt lat="50.626136" lon="-3.894330">
    <ele>337</ele>
    <time>2026-10-01T19:19:45Z</time>
    <speed>0.48</speed>
  </trkpt>
  <trkpt lat="50.626254" lon="-3.894348">
    <ele>335</ele>
    <time>2026-10-01T19:19:56Z</time>
    <speed>1.0799999</speed>
  </trkpt>
  <trkpt lat="50.626427" lon="-3.894305">
    <ele>335</ele>
    <time>2026-10-01T19:20:07Z</time>
    <speed>1.41</speed>
  </trkpt>
  <trkpt lat="50.626575" lon="-3.894292">
    <ele>334</ele>
    <time>2026-10-01T19:20:18Z</time>
    <speed>0.64</speed>
  </trkpt>
  <trkpt lat="50.626696" lon="-3.894290">
    <ele>335</ele>
    <time>2026-10-01T19:20:29Z</time>
    <speed>1.31</speed>
  </trkpt>
  <trkpt lat="50.626812" lon="-3.894296">
    <ele>332</ele>
    <time>2026-10-01T19:20:40Z</time>
    <speed>0.71999997</speed>
  </trkpt>
  <trkpt lat="50.626961" lon="-3.894272">
    <ele>334</ele>
    <time>2026-10-01T19:20:51Z</time>
    <speed>1.3</speed>
  </trkpt>
  <trkpt lat="50.627098" lon="-3.894295">
    <ele>333</ele>
    <time>2026-10-01T19:21:02Z</time>
    <speed>1.15</speed>
  </trkpt>
  <trkpt lat="50.627264" lon="-3.894278">
    <ele>334</ele>
    <time>2026-10-01T19:21:13Z</time>
    <speed>1.31</speed>
  </trkpt>
  <trkpt lat="50.627384" lon="-3.894305">
    <ele>333</ele>
    <time>2026-10-01T19:21:24Z</time>
    <speed>1.52</speed>
  </trkpt>
  <trkpt lat="50.627510" lon="-3.894328">
    <ele>332</ele>
    <time>2026-10-01T19:21:35Z</time>
    <speed>0.88</speed>
  </trkpt>
  <trkpt lat="50.627638" lon="-3.894363">
    <ele>330</ele>
    <time>2026-10-01T19:21:46Z</time>
    <speed>0.59</speed>
  </trkpt>
  <trkpt lat="50.627774" lon="-3.894358">
    <ele>328</ele>
    <time>2026-10-01T19:21:57Z</time>
    <speed>1.1</speed>
  </trkpt>
  <trkpt lat="50.627904" lon="-3.894410">
    <ele>327</ele>
    <time>2026-10-01T19:22:08Z</time>
    <speed>1.0</speed>
  </trkpt>
  <trkpt lat="50.628072" lon="-3.894368">
    <ele>330</ele>
    <time>2026-10-01T19:22:19Z</time>
    <speed>1.28</speed>
  </trkpt>
  <trkpt lat="50.628217" lon="-3.894313">
    <ele>330</ele>
    <time>2026-10-01T19:22:30Z</time>
    <speed>1.25</speed>
  </trkpt>
  <trkpt lat="50.628335" lon="-3.894243">
    <ele>326</ele>
    <time>2026-10-01T19:22:41Z</time>
    <speed>1.0799999</speed>
  </trkpt>
  <trkpt lat="50.628486" lon="-3.894161">
    <ele>330</ele>
    <time>2026-10-01T19:22:52Z</time>
    <speed>1.52</speed>
  </trkpt>
  <trkpt lat="50.628592" lon="-3.894135">
    <ele>327</ele>
    <time>2026-10-01T19:23:03Z</time>
    <speed>0.78999996</speed>
  </trkpt>
  <trkpt lat="50.628687" lon="-3.894105">
    <ele>330</ele>
    <time>2026-10-01T19:23:14Z</time>
    <speed>0.58</speed>
  </trkpt>
  <trkpt lat="50.628803" lon="-3.894014">
    <ele>328</ele>
    <time>2026-10-01T19:23:25Z</time>
    <speed>1.62</speed>
  </trkpt>
  <trkpt lat="50.628913" lon="-3.894000">
    <ele>326</ele>
    <time>2026-10-01T19:23:36Z</time>
    <speed>0.89</speed>
  </trkpt>
  <trkpt lat="50.629045" lon="-3.893975">
    <ele>327</ele>
    <time>2026-10-01T19:23:47Z</time>
    <speed>0.78</speed>
  </trkpt>
  <trkpt lat="50.629193" lon="-3.893885">
    <ele>326</ele>
    <time>2026-10-01T19:23:58Z</time>
    <speed>1.17</speed>
  </trkpt>
  <trkpt lat="50.629305" lon="-3.893800">
    <ele>327</ele>
    <time>2026-10-01T19:24:09Z</time>
    <speed>0.91999996</speed>
  </trkpt>
  <trkpt lat="50.629456" lon="-3.893737">
    <ele>329</ele>
    <time>2026-10-01T19:24:20Z</time>
    <speed>1.29</speed>
  </trkpt>
  <trkpt lat="50.629591" lon="-3.893671">
    <ele>329</ele>
    <time>2026-10-01T19:24:31Z</time>
    <speed>1.04</speed>
  </trkpt>
  <trkpt lat="50.629698" lon="-3.893575">
    <ele>326</ele>
    <time>2026-10-01T19:24:42Z</time>
    <speed>0.31</speed>
  </trkpt>
  <trkpt lat="50.629849" lon="-3.893514">
    <ele>326</ele>
    <time>2026-10-01T19:24:53Z</time>
    <speed>0.82</speed>
  </trkpt>
  <trkpt lat="50.629945" lon="-3.893467">
    <ele>324</ele>
    <time>2026-10-01T19:25:04Z</time>
    <speed>0.88</speed>
  </trkpt>
  <trkpt lat="50.630079" lon="-3.893415">
    <ele>327</ele>
    <time>2026-10-01T19:25:15Z</time>
    <speed>1.12</speed>
  </trkpt>
  <trkpt lat="50.630209" lon="-3.893358">
    <ele>326</ele>
    <time>2026-10-01T19:25:26Z</time>
    <speed>1.09</speed>
  </trkpt>
  <trkpt lat="50.630318" lon="-3.893311">
    <ele>324</ele>
    <time>2026-10-01T19:25:37Z</time>
    <speed>0.61</speed>
  </trkpt>
  <trkpt lat="50.630453" lon="-3.893267">
    <ele>322</ele>
    <time>2026-10-01T19:25:48Z</time>
    <speed>1.14</speed>
  </trkpt>
  <trkpt lat="50.630602" lon="-3.893155">
    <ele>323</ele>
    <time>2026-10-01T19:25:59Z</time>
    <speed>1.8499999</speed>
  </trkpt>
  <trkpt lat="50.630734" lon="-3.893059">
    <ele>319</ele>
    <time>2026-10-01T19:26:10Z</time>
    <speed>1.16</speed>
  </trkpt>
  <trkpt lat="50.630876" lon="-3.893084">
    <ele>316</ele>
    <time>2026-10-01T19:26:21Z</time>
    <speed>1.64</speed>
  </trkpt>
  <trkpt lat="50.631001" lon="-3.893119">
    <ele>318</ele>
    <time>2026-10-01T19:26:32Z</time>
    <speed>0.96999997</speed>
  </trkpt>
  <trkpt lat="50.631124" lon="-3.893169">
    <ele>319</ele>
    <time>2026-10-01T19:26:43Z</time>
    <speed>0.94</speed>
  </trkpt>
  <trkpt lat="50.631243" lon="-3.893257">
    <ele>321</ele>
    <time>2026-10-01T19:26:54Z</time>
    <speed>1.02</speed>
  </trkpt>
  <trkpt lat="50.631371" lon="-3.893331">
    <ele>318</ele>
    <time>2026-10-01T19:27:05Z</time>
    <speed>0.74</speed>
  </trkpt>
  <trkpt lat="50.631510" lon="-3.893367">
    <ele>317</ele>
    <time>2026-10-01T19:27:16Z</time>
    <speed>1.09</speed>
  </trkpt>
  <trkpt lat="50.631625" lon="-3.893439">
    <ele>314</ele>
    <time>2026-10-01T19:27:27Z</time>
    <speed>1.53</speed>
  </trkpt>
  <trkpt lat="50.631743" lon="-3.893540">
    <ele>315</ele>
    <time>2026-10-01T19:27:38Z</time>
    <speed>1.55</speed>
  </trkpt>
  <trkpt lat="50.631903" lon="-3.893605">
    <ele>313</ele>
    <time>2026-10-01T19:27:49Z</time>
    <speed>1.68</speed>
  </trkpt>
  <trkpt lat="50.632005" lon="-3.893684">
    <ele>313</ele>
    <time>2026-10-01T19:28:00Z</time>
    <speed>0.79999995</speed>
  </trkpt>
  <trkpt lat="50.632139" lon="-3.893779">
    <ele>311</ele>
    <time>2026-10-01T19:28:11Z</time>
    <speed>1.03</speed>
  </trkpt>
  <trkpt lat="50.632251" lon="-3.893906">
    <ele>311</ele>
    <time>2026-10-01T19:28:22Z</time>
    <speed>1.16</speed>
  </trkpt>
  <trkpt lat="50.632338" lon="-3.893952">
    <ele>309</ele>
    <time>2026-10-01T19:28:34Z</time>
    <speed>0.52</speed>
  </trkpt>
  <trkpt lat="50.632430" lon="-3.893936">
    <ele>308</ele>
    <time>2026-10-01T19:28:49Z</time>
    <speed>0.95</speed>
  </trkpt>
  <trkpt lat="50.632516" lon="-3.893877">
    <ele>308</ele>
    <time>2026-10-01T19:29:03Z</time>
    <speed>0.53999996</speed>
  </trkpt>
  <trkpt lat="50.632593" lon="-3.893965">
    <ele>305</ele>
    <time>2026-10-01T19:29:31Z</time>
    <speed>0.68</speed>
  </trkpt>
  <trkpt lat="50.632676" lon="-3.894033">
    <ele>306</ele>
    <time>2026-10-01T19:29:44Z</time>
    <speed>0.98999995</speed>
  </trkpt>
  <trkpt lat="50.632765" lon="-3.894053">
    <ele>305</ele>
    <time>2026-10-01T19:29:55Z</time>
    <speed>0.55</speed>
  </trkpt>
  <trkpt lat="50.632789" lon="-3.894193">
    <ele>304</ele>
    <time>2026-10-01T19:30:11Z</time>
    <speed>0.94</speed>
  </trkpt>
  <trkpt lat="50.632923" lon="-3.894253">
    <ele>303</ele>
    <time>2026-10-01T19:30:22Z</time>
    <speed>1.37</speed>
  </trkpt>
  <trkpt lat="50.633049" lon="-3.894317">
    <ele>302</ele>
    <time>2026-10-01T19:30:33Z</time>
    <speed>1.05</speed>
  </trkpt>
  <trkpt lat="50.633123" lon="-3.894402">
    <ele>304</ele>
    <time>2026-10-01T19:30:48Z</time>
    <speed>0.98999995</speed>
  </trkpt>
  <trkpt lat="50.633243" lon="-3.894457">
    <ele>302</ele>
    <time>2026-10-01T19:30:59Z</time>
    <speed>1.13</speed>
  </trkpt>
  <trkpt lat="50.633331" lon="-3.894519">
    <ele>300</ele>
    <time>2026-10-01T19:31:12Z</time>
    <speed>1.04</speed>
  </trkpt>
  <trkpt lat="50.633426" lon="-3.894567">
    <ele>297</ele>
    <time>2026-10-01T19:31:23Z</time>
    <speed>0.42</speed>
  </trkpt>
  <trkpt lat="50.633527" lon="-3.894605">
    <ele>298</ele>
    <time>2026-10-01T19:31:44Z</time>
    <speed>1.37</speed>
  </trkpt>
  <trkpt lat="50.633644" lon="-3.894669">
    <ele>297</ele>
    <time>2026-10-01T19:31:55Z</time>
    <speed>0.88</speed>
  </trkpt>
  <trkpt lat="50.633750" lon="-3.894696">
    <ele>291</ele>
    <time>2026-10-01T19:32:06Z</time>
    <speed>1.12</speed>
  </trkpt>
  <trkpt lat="50.633830" lon="-3.894768">
    <ele>295</ele>
    <time>2026-10-01T19:32:17Z</time>
    <speed>0.66999996</speed>
  </trkpt>
  <trkpt lat="50.633922" lon="-3.894818">
    <ele>293</ele>
    <time>2026-10-01T19:32:29Z</time>
    <speed>1.42</speed>
  </trkpt>
  <trkpt lat="50.634037" lon="-3.894858">
    <ele>291</ele>
    <time>2026-10-01T19:32:40Z</time>
    <speed>0.53999996</speed>
  </trkpt>
  <trkpt lat="50.634120" lon="-3.894922">
    <ele>290</ele>
    <time>2026-10-01T19:32:51Z</time>
    <speed>0.85999995</speed>
  </trkpt>
  <trkpt lat="50.634214" lon="-3.894981">
    <ele>288</ele>
    <time>2026-10-01T19:33:02Z</time>
    <speed>1.0</speed>
  </trkpt>
  <trkpt lat="50.634303" lon="-3.895021">
    <ele>286</ele>
    <time>2026-10-01T19:33:14Z</time>
    <speed>1.3</speed>
  </trkpt>
  <trkpt lat="50.634394" lon="-3.895065">
    <ele>285</ele>
    <time>2026-10-01T19:33:25Z</time>
    <speed>0.84</speed>
  </trkpt>
  <trkpt lat="50.634500" lon="-3.895112">
    <ele>283</ele>
    <time>2026-10-01T19:33:36Z</time>
    <speed>1.91</speed>
  </trkpt>
  <trkpt lat="50.634625" lon="-3.895138">
    <ele>283</ele>
    <time>2026-10-01T19:33:47Z</time>
    <speed>1.02</speed>
  </trkpt>
  <trkpt lat="50.634718" lon="-3.895136">
    <ele>280</ele>
    <time>2026-10-01T19:34:04Z</time>
    <speed>0.19</speed>
  </trkpt>
  <trkpt lat="50.634820" lon="-3.895135">
    <ele>279</ele>
    <time>2026-10-01T19:34:15Z</time>
    <speed>1.37</speed>
  </trkpt>
  <trkpt lat="50.634934" lon="-3.895155">
    <ele>278</ele>
    <time>2026-10-01T19:34:26Z</time>
    <speed>0.9</speed>
  </trkpt>
  <trkpt lat="50.635063" lon="-3.895230">
    <ele>275</ele>
    <time>2026-10-01T19:34:37Z</time>
    <speed>1.11</speed>
  </trkpt>
  <trkpt lat="50.635178" lon="-3.895236">
    <ele>274</ele>
    <time>2026-10-01T19:34:48Z</time>
    <speed>0.39999998</speed>
  </trkpt>
  <trkpt lat="50.635287" lon="-3.895250">
    <ele>273</ele>
    <time>2026-10-01T19:34:59Z</time>
    <speed>0.35999998</speed>
  </trkpt>
  <trkpt lat="50.635379" lon="-3.895279">
    <ele>271</ele>
    <time>2026-10-01T19:35:11Z</time>
    <speed>0.95</speed>
  </trkpt>
  <trkpt lat="50.635484" lon="-3.895321">
    <ele>269</ele>
    <time>2026-10-01T19:35:22Z</time>
    <speed>1.53</speed>
  </trkpt>
  <trkpt lat="50.635574" lon="-3.895388">
    <ele>266</ele>
    <time>2026-10-01T19:35:33Z</time>
    <speed>0.78</speed>
  </trkpt>
  <trkpt lat="50.635658" lon="-3.895465">
    <ele>267</ele>
    <time>2026-10-01T19:35:45Z</time>
    <speed>0.79999995</speed>
  </trkpt>
  <trkpt lat="50.635754" lon="-3.895446">
    <ele>265</ele>
    <time>2026-10-01T19:35:57Z</time>
    <speed>1.61</speed>
  </trkpt>
  <trkpt lat="50.635870" lon="-3.895463">
    <ele>265</ele>
    <time>2026-10-01T19:36:08Z</time>
    <speed>0.64</speed>
  </trkpt>
  <trkpt lat="50.635961" lon="-3.895488">
    <ele>262</ele>
    <time>2026-10-01T19:36:19Z</time>
    <speed>0.44</speed>
  </trkpt>
  <trkpt lat="50.636089" lon="-3.895528">
    <ele>262</ele>
    <time>2026-10-01T19:36:30Z</time>
    <speed>0.55</speed>
  </trkpt>
  <trkpt lat="50.636092" lon="-3.895688">
    <ele>261</ele>
    <time>2026-10-01T19:36:41Z</time>
    <speed>1.22</speed>
  </trkpt>
  <trkpt lat="50.636086" lon="-3.895889">
    <ele>262</ele>
    <time>2026-10-01T19:36:52Z</time>
    <speed>1.04</speed>
  </trkpt>
  <trkpt lat="50.636066" lon="-3.896103">
    <ele>262</ele>
    <time>2026-10-01T19:37:03Z</time>
    <speed>1.28</speed>
  </trkpt>
  <trkpt lat="50.636005" lon="-3.896242">
    <ele>263</ele>
    <time>2026-10-01T19:37:14Z</time>
    <speed>0.7</speed>
  </trkpt>
  <trkpt lat="50.635982" lon="-3.896445">
    <ele>259</ele>
    <time>2026-10-01T19:37:25Z</time>
    <speed>1.23</speed>
  </trkpt>
  <trkpt lat="50.635914" lon="-3.896606">
    <ele>250</ele>
    <time>2026-10-01T19:37:36Z</time>
    <speed>0.38</speed>
  </trkpt>
  <trkpt lat="50.635985" lon="-3.896515">
    <ele>262</ele>
    <time>2026-10-01T19:37:55Z</time>
    <speed>1.02</speed>
  </trkpt>
  <trkpt lat="50.636063" lon="-3.896385">
    <ele>252</ele>
    <time>2026-10-01T19:38:06Z</time>
    <speed>1.02</speed>
  </trkpt>
  <trkpt lat="50.636076" lon="-3.896230">
    <ele>260</ele>
    <time>2026-10-01T19:38:17Z</time>
    <speed>0.93</speed>
  </trkpt>
  <trkpt lat="50.636150" lon="-3.896018">
    <ele>262</ele>
    <time>2026-10-01T19:38:28Z</time>
    <speed>0.58</speed>
  </trkpt>
  <trkpt lat="50.636177" lon="-3.895757">
    <ele>261</ele>
    <time>2026-10-01T19:38:39Z</time>
    <speed>1.2099999</speed>
  </trkpt>
  <trkpt lat="50.636189" lon="-3.895593">
    <ele>261</ele>
    <time>2026-10-01T19:38:50Z</time>
    <speed>0.26999998</speed>
  </trkpt>
  <trkpt lat="50.636125" lon="-3.895716">
    <ele>259</ele>
    <time>2026-10-01T19:39:14Z</time>
    <speed>1.6999999</speed>
  </trkpt>
  <trkpt lat="50.636115" lon="-3.895864">
    <ele>262</ele>
    <time>2026-10-01T19:39:27Z</time>
    <speed>0.81</speed>
  </trkpt>
  <trkpt lat="50.636076" lon="-3.896078">
    <ele>261</ele>
    <time>2026-10-01T19:39:38Z</time>
    <speed>0.84999996</speed>
  </trkpt>
  <trkpt lat="50.636033" lon="-3.896253">
    <ele>259</ele>
    <time>2026-10-01T19:39:49Z</time>
    <speed>1.4</speed>
  </trkpt>
  <trkpt lat="50.635965" lon="-3.896420">
    <ele>261</ele>
    <time>2026-10-01T19:40:00Z</time>
    <speed>0.96</speed>
  </trkpt>
  <trkpt lat="50.635878" lon="-3.896581">
    <ele>254</ele>
    <time>2026-10-01T19:40:11Z</time>
    <speed>0.96</speed>
  </trkpt>
  <trkpt lat="50.635795" lon="-3.896699">
    <ele>258</ele>
    <time>2026-10-01T19:40:22Z</time>
    <speed>1.06</speed>
  </trkpt>
  <trkpt lat="50.635683" lon="-3.896817">
    <ele>259</ele>
    <time>2026-10-01T19:40:33Z</time>
    <speed>0.84999996</speed>
  </trkpt>
  <trkpt lat="50.635573" lon="-3.896951">
    <ele>259</ele>
    <time>2026-10-01T19:40:44Z</time>
    <speed>1.16</speed>
  </trkpt>
  <trkpt lat="50.635442" lon="-3.897026">
    <ele>254</ele>
    <time>2026-10-01T19:40:55Z</time>
    <speed>1.1</speed>
  </trkpt>
  <trkpt lat="50.635342" lon="-3.897103">
    <ele>254</ele>
    <time>2026-10-01T19:41:06Z</time>
    <speed>0.90999997</speed>
  </trkpt>
  <trkpt lat="50.635210" lon="-3.897182">
    <ele>256</ele>
    <time>2026-10-01T19:41:17Z</time>
    <speed>1.05</speed>
  </trkpt>
  <trkpt lat="50.635064" lon="-3.897272">
    <ele>254</ele>
    <time>2026-10-01T19:41:28Z</time>
    <speed>1.18</speed>
  </trkpt>
  <trkpt lat="50.634947" lon="-3.897431">
    <ele>253</ele>
    <time>2026-10-01T19:41:39Z</time>
    <speed>0.55</speed>
  </trkpt>
  <trkpt lat="50.635040" lon="-3.897486">
    <ele>254</ele>
    <time>2026-10-01T19:41:57Z</time>
    <speed>1.27</speed>
  </trkpt>
  <trkpt lat="50.635197" lon="-3.897550">
    <ele>253</ele>
    <time>2026-10-01T19:42:08Z</time>
    <speed>1.2099999</speed>
  </trkpt>
  <trkpt lat="50.635303" lon="-3.897576">
    <ele>251</ele>
    <time>2026-10-01T19:42:19Z</time>
    <speed>1.06</speed>
  </trkpt>
  <trkpt lat="50.635413" lon="-3.897678">
    <ele>246</ele>
    <time>2026-10-01T19:42:30Z</time>
    <speed>1.13</speed>
  </trkpt>
  <trkpt lat="50.635530" lon="-3.897734">
    <ele>248</ele>
    <time>2026-10-01T19:42:41Z</time>
    <speed>1.41</speed>
  </trkpt>
  <trkpt lat="50.635590" lon="-3.897885">
    <ele>247</ele>
    <time>2026-10-01T19:42:52Z</time>
    <speed>1.01</speed>
  </trkpt>
  <trkpt lat="50.635663" lon="-3.898035">
    <ele>244</ele>
    <time>2026-10-01T19:43:03Z</time>
    <speed>1.0</speed>
  </trkpt>
  <trkpt lat="50.635716" lon="-3.898166">
    <ele>243</ele>
    <time>2026-10-01T19:43:14Z</time>
    <speed>1.17</speed>
  </trkpt>
  <trkpt lat="50.635820" lon="-3.898297">
    <ele>244</ele>
    <time>2026-10-01T19:43:25Z</time>
    <speed>1.0799999</speed>
  </trkpt>
  <trkpt lat="50.635960" lon="-3.898290">
    <ele>246</ele>
    <time>2026-10-01T19:43:36Z</time>
    <speed>1.29</speed>
  </trkpt>
  <trkpt lat="50.636128" lon="-3.898301">
    <ele>242</ele>
    <time>2026-10-01T19:43:47Z</time>
    <speed>1.54</speed>
  </trkpt>
  <trkpt lat="50.636217" lon="-3.898271">
    <ele>242</ele>
    <time>2026-10-01T19:43:58Z</time>
    <speed>0.95</speed>
  </trkpt>
  <trkpt lat="50.636327" lon="-3.898170">
    <ele>237</ele>
    <time>2026-10-01T19:44:09Z</time>
    <speed>1.31</speed>
  </trkpt>
  <trkpt lat="50.636425" lon="-3.898084">
    <ele>240</ele>
    <time>2026-10-01T19:44:20Z</time>
    <speed>0.57</speed>
  </trkpt>
  <trkpt lat="50.636492" lon="-3.897971">
    <ele>238</ele>
    <time>2026-10-01T19:44:31Z</time>
    <speed>0.57</speed>
  </trkpt>
  <trkpt lat="50.636591" lon="-3.897816">
    <ele>241</ele>
    <time>2026-10-01T19:44:42Z</time>
    <speed>0.82</speed>
  </trkpt>
  <trkpt lat="50.636697" lon="-3.897666">
    <ele>250</ele>
    <time>2026-10-01T19:44:53Z</time>
    <speed>1.5</speed>
  </trkpt>
  <trkpt lat="50.636777" lon="-3.897514">
    <ele>248</ele>
    <time>2026-10-01T19:45:04Z</time>
    <speed>1.8299999</speed>
  </trkpt>
  <trkpt lat="50.636848" lon="-3.897609">
    <ele>245</ele>
    <time>2026-10-01T19:45:34Z</time>
    <speed>0.71999997</speed>
  </trkpt>
  <trkpt lat="50.636834" lon="-3.897788">
    <ele>245</ele>
    <time>2026-10-01T19:45:45Z</time>
    <speed>0.97999996</speed>
  </trkpt>
  <trkpt lat="50.636805" lon="-3.897977">
    <ele>237</ele>
    <time>2026-10-01T19:45:56Z</time>
    <speed>1.1</speed>
  </trkpt>
  <trkpt lat="50.636788" lon="-3.898157">
    <ele>244</ele>
    <time>2026-10-01T19:46:07Z</time>
    <speed>1.4499999</speed>
  </trkpt>
  <trkpt lat="50.636773" lon="-3.898384">
    <ele>243</ele>
    <time>2026-10-01T19:46:18Z</time>
    <speed>1.17</speed>
  </trkpt>
  <trkpt lat="50.636781" lon="-3.898581">
    <ele>242</ele>
    <time>2026-10-01T19:46:29Z</time>
    <speed>1.0799999</speed>
  </trkpt>
  <trkpt lat="50.636842" lon="-3.898731">
    <ele>243</ele>
    <time>2026-10-01T19:46:40Z</time>
    <speed>1.23</speed>
  </trkpt>
  <trkpt lat="50.636894" lon="-3.898865">
    <ele>244</ele>
    <time>2026-10-01T19:46:51Z</time>
    <speed>0.77</speed>
  </trkpt>
  <trkpt lat="50.636948" lon="-3.899072">
    <ele>237</ele>
    <time>2026-10-01T19:47:02Z</time>
    <speed>1.24</speed>
  </trkpt>
  <trkpt lat="50.637010" lon="-3.899274">
    <ele>227</ele>
    <time>2026-10-01T19:47:13Z</time>
    <speed>1.28</speed>
  </trkpt>
  <trkpt lat="50.637010" lon="-3.899458">
    <ele>245</ele>
    <time>2026-10-01T19:47:24Z</time>
    <speed>1.03</speed>
  </trkpt>
  <trkpt lat="50.637043" lon="-3.899674">
    <ele>244</ele>
    <time>2026-10-01T19:47:35Z</time>
    <speed>0.83</speed>
  </trkpt>
  <trkpt lat="50.637106" lon="-3.899854">
    <ele>245</ele>
    <time>2026-10-01T19:47:46Z</time>
    <speed>0.66999996</speed>
  </trkpt>
  <trkpt lat="50.637145" lon="-3.900081">
    <ele>241</ele>
    <time>2026-10-01T19:47:57Z</time>
    <speed>1.16</speed>
  </trkpt>
  <trkpt lat="50.637184" lon="-3.900237">
    <ele>239</ele>
    <time>2026-10-01T19:48:08Z</time>
    <speed>0.42</speed>
  </trkpt>
  <trkpt lat="50.637263" lon="-3.900313">
    <ele>241</ele>
    <time>2026-10-01T19:48:22Z</time>
    <speed>0.24</speed>
  </trkpt>
  <trkpt lat="50.637363" lon="-3.900302">
    <ele>242</ele>
    <time>2026-10-01T19:49:09Z</time>
    <speed>1.4</speed>
  </trkpt>
 </trkseg>
</trk>
</gpx>
