<?xml version="1.0" encoding="UTF-8" ?>
<gpx
 version="1.0"
 creator="Maverick - http://www.maverickgps.com"
 xmlns:xsi="http://www.w3.org/2001/XMLSchema-instance"
 xmlns="http://www.topografix.com/GPX/1/0"
 xsi:schemaLocation="http://www.topografix.com/GPX/1/0 http://www.topografix.com/GPX/1/0/gpx.xsd">
<time>2026-07-02T17:06:06Z</time>
<trk>
 <name>2026-07-02 @ 18-06-06</name>
 <trkseg>
  <trkpt lat="50.628967" lon="-3.691922">
    <ele>129</ele>
    <time>2026-07-02T17:06:07Z</time>
    <speed>0.0</speed>
  </trkpt>
  <trkpt lat="50.628992" lon="-3.691785">
    <ele>130</ele>
    <time>2026-07-02T17:06:59Z</time>
    <speed>0.19431311</speed>
  </trkpt>
  <trkpt lat="50.628904" lon="-3.691736">
    <ele>131</ele>
    <time>2026-07-02T17:07:19Z</time>
    <speed>1.23</speed>
  </trkpt>
  <trkpt lat="50.628796" lon="-3.691744">
    <ele>132</ele>
    <time>2026-07-02T17:07:30Z</time>
    <speed>0.85999995</speed>
  </trkpt>
  <trkpt lat="50.628709" lon="-3.691801">
    <ele>131</ele>
    <time>2026-07-02T17:07:45Z</time>
    <speed>0.45999998</speed>
  </trkpt>
  <trkpt lat="50.628571" lon="-3.691859">
    <ele>127</ele>
    <time>2026-07-02T17:07:56Z</time>
    <speed>1.03</speed>
  </trkpt>
  <trkpt lat="50.628450" lon="-3.691803">
    <ele>130</ele>
    <time>2026-07-02T17:08:07Z</time>
    <speed>1.87</speed>
  </trkpt>
  <trkpt lat="50.628356" lon="-3.691594">
    <ele>127</ele>
    <time>2026-07-02T17:08:18Z</time>
    <speed>1.37</speed>
  </trkpt>
  <trkpt lat="50.628301" lon="-3.691415">
    <ele>130</ele>
    <time>2026-07-02T17:08:29Z</time>
    <speed>1.06</speed>
  </trkpt>
  <trkpt lat="50.628239" lon="-3.691223">
    <ele>117</ele>
    <time>2026-07-02T17:08:40Z</time>
    <speed>1.3</speed>
  </trkpt>
  <trkpt lat="50.628178" lon="-3.691021">
    <ele>123</ele>
    <time>2026-07-02T17:08:51Z</time>
    <speed>1.8299999</speed>
  </trkpt>
  <trkpt lat="50.628139" lon="-3.690770">
    <ele>123</ele>
    <time>2026-07-02T17:09:02Z</time>
    <speed>1.28</speed>
  </trkpt>
  <trkpt lat="50.628076" lon="-3.690603">
    <ele>122</ele>
    <time>2026-07-02T17:09:13Z</time>
    <speed>1.35</speed>
  </trkpt>
  <trkpt lat="50.628004" lon="-3.690385">
    <ele>123</ele>
    <time>2026-07-02T17:09:24Z</time>
    <speed>1.61</speed>
  </trkpt>
  <trkpt lat="50.627946" lon="-3.690167">
    <ele>122</ele>
    <time>2026-07-02T17:09:35Z</time>
    <speed>1.35</speed>
  </trkpt>
  <trkpt lat="50.627908" lon="-3.689920">
    <ele>115</ele>
    <time>2026-07-02T17:09:46Z</time>
    <speed>1.4</speed>
  </trkpt>
  <trkpt lat="50.627984" lon="-3.689749">
    <ele>120</ele>
    <time>2026-07-02T17:09:57Z</time>
    <speed>0.85999995</speed>
  </trkpt>
  <trkpt lat="50.628111" lon="-3.689589">
    <ele>119</ele>
    <time>2026-07-02T17:10:08Z</time>
    <speed>1.5</speed>
  </trkpt>
  <trkpt lat="50.628262" lon="-3.689430">
    <ele>122</ele>
    <time>2026-07-02T17:10:19Z</time>
    <speed>1.8499999</speed>
  </trkpt>
  <trkpt lat="50.628388" lon="-3.689308">
    <ele>125</ele>
    <time>2026-07-02T17:10:30Z</time>
    <speed>1.4599999</speed>
  </trkpt>
  <trkpt lat="50.628509" lon="-3.689147">
    <ele>117</ele>
    <time>2026-07-02T17:10:41Z</time>
    <speed>1.86</speed>
  </trkpt>
  <trkpt lat="50.628614" lon="-3.689002">
    <ele>121</ele>
    <time>2026-07-02T17:10:52Z</time>
    <speed>1.29</speed>
  </trkpt>
  <trkpt lat="50.628707" lon="-3.688868">
    <ele>120</ele>
    <time>2026-07-02T17:11:03Z</time>
    <speed>1.18</speed>
  </trkpt>
  <trkpt lat="50.628824" lon="-3.688697">
    <ele>122</ele>
    <time>2026-07-02T17:11:14Z</time>
    <speed>0.95</speed>
  </trkpt>
  <trkpt lat="50.628955" lon="-3.688559">
    <ele>124</ele>
    <time>2026-07-02T17:11:25Z</time>
    <speed>1.9399999</speed>
  </trkpt>
  <trkpt lat="50.629084" lon="-3.688413">
    <ele>124</ele>
    <time>2026-07-02T17:11:36Z</time>
    <speed>1.4499999</speed>
  </trkpt>
  <trkpt lat="50.629214" lon="-3.688276">
    <ele>116</ele>
    <time>2026-07-02T17:11:47Z</time>
    <speed>1.55</speed>
  </trkpt>
  <trkpt lat="50.629341" lon="-3.688128">
    <ele>121</ele>
    <time>2026-07-02T17:11:58Z</time>
    <speed>1.55</speed>
  </trkpt>
  <trkpt lat="50.629465" lon="-3.687988">
    <ele>123</ele>
    <time>2026-07-02T17:12:09Z</time>
    <speed>1.06</speed>
  </trkpt>
  <trkpt lat="50.629543" lon="-3.687851">
    <ele>113</ele>
    <time>2026-07-02T17:12:20Z</time>
    <speed>1.9599999</speed>
  </trkpt>
  <trkpt lat="50.629630" lon="-3.687677">
    <ele>122</ele>
    <time>2026-07-02T17:12:31Z</time>
    <speed>1.05</speed>
  </trkpt>
  <trkpt lat="50.629665" lon="-3.687545">
    <ele>122</ele>
    <time>2026-07-02T17:12:57Z</time>
    <speed>0.90999997</speed>
  </trkpt>
  <trkpt lat="50.629759" lon="-3.687389">
    <ele>119</ele>
    <time>2026-07-02T17:13:08Z</time>
    <speed>0.82</speed>
  </trkpt>
  <trkpt lat="50.629823" lon="-3.687200">
    <ele>122</ele>
    <time>2026-07-02T17:13:19Z</time>
    <speed>1.23</speed>
  </trkpt>
  <trkpt lat="50.629937" lon="-3.687000">
    <ele>124</ele>
    <time>2026-07-02T17:13:30Z</time>
    <speed>1.35</speed>
  </trkpt>
  <trkpt lat="50.629992" lon="-3.686803">
    <ele>125</ele>
    <time>2026-07-02T17:13:41Z</time>
    <speed>1.2099999</speed>
  </trkpt>
  <trkpt lat="50.630042" lon="-3.686559">
    <ele>119</ele>
    <time>2026-07-02T17:13:52Z</time>
    <speed>1.22</speed>
  </trkpt>
  <trkpt lat="50.630121" lon="-3.686321">
    <ele>122</ele>
    <time>2026-07-02T17:14:03Z</time>
    <speed>0.32999998</speed>
  </trkpt>
  <trkpt lat="50.630223" lon="-3.686107">
    <ele>120</ele>
    <time>2026-07-02T17:14:14Z</time>
    <speed>1.56</speed>
  </trkpt>
  <trkpt lat="50.630233" lon="-3.685943">
    <ele>124</ele>
    <time>2026-07-02T17:14:25Z</time>
    <speed>1.25</speed>
  </trkpt>
  <trkpt lat="50.630307" lon="-3.685691">
    <ele>122</ele>
    <time>2026-07-02T17:14:36Z</time>
    <speed>1.16</speed>
  </trkpt>
  <trkpt lat="50.630333" lon="-3.685448">
    <ele>118</ele>
    <time>2026-07-02T17:14:47Z</time>
    <speed>0.84</speed>
  </trkpt>
  <trkpt lat="50.630444" lon="-3.685226">
    <ele>123</ele>
    <time>2026-07-02T17:14:58Z</time>
    <speed>2.1699998</speed>
  </trkpt>
  <trkpt lat="50.630534" lon="-3.685020">
    <ele>124</ele>
    <time>2026-07-02T17:15:09Z</time>
    <speed>1.5699999</speed>
  </trkpt>
  <trkpt lat="50.630653" lon="-3.684795">
    <ele>124</ele>
    <time>2026-07-02T17:15:20Z</time>
    <speed>1.1</speed>
  </trkpt>
  <trkpt lat="50.630687" lon="-3.684661">
    <ele>119</ele>
    <time>2026-07-02T17:15:34Z</time>
    <speed>0.96</speed>
  </trkpt>
  <trkpt lat="50.630752" lon="-3.684500">
    <ele>123</ele>
    <time>2026-07-02T17:15:45Z</time>
    <speed>1.29</speed>
  </trkpt>
  <trkpt lat="50.630889" lon="-3.684299">
    <ele>122</ele>
    <time>2026-07-02T17:15:56Z</time>
    <speed>1.8299999</speed>
  </trkpt>
  <trkpt lat="50.630982" lon="-3.684133">
    <ele>124</ele>
    <time>2026-07-02T17:16:07Z</time>
    <speed>1.27</speed>
  </trkpt>
  <trkpt lat="50.631129" lon="-3.683991">
    <ele>126</ele>
    <time>2026-07-02T17:16:18Z</time>
    <speed>1.1999999</speed>
  </trkpt>
  <trkpt lat="50.631266" lon="-3.683854">
    <ele>127</ele>
    <time>2026-07-02T17:16:29Z</time>
    <speed>1.8399999</speed>
  </trkpt>
  <trkpt lat="50.631358" lon="-3.683658">
    <ele>127</ele>
    <time>2026-07-02T17:16:40Z</time>
    <speed>1.1</speed>
  </trkpt>
  <trkpt lat="50.631406" lon="-3.683481">
    <ele>120</ele>
    <time>2026-07-02T17:16:51Z</time>
    <speed>0.95</speed>
  </trkpt>
  <trkpt lat="50.631479" lon="-3.683242">
    <ele>127</ele>
    <time>2026-07-02T17:17:02Z</time>
    <speed>1.7099999</speed>
  </trkpt>
  <trkpt lat="50.631477" lon="-3.682996">
    <ele>125</ele>
    <time>2026-07-02T17:17:13Z</time>
    <speed>1.51</speed>
  </trkpt>
  <trkpt lat="50.631484" lon="-3.682766">
    <ele>128</ele>
    <time>2026-07-02T17:17:24Z</time>
    <speed>1.55</speed>
  </trkpt>
  <trkpt lat="50.631518" lon="-3.682538">
    <ele>127</ele>
    <time>2026-07-02T17:17:35Z</time>
    <speed>1.3399999</speed>
  </trkpt>
  <trkpt lat="50.631477" lon="-3.682318">
    <ele>130</ele>
    <time>2026-07-02T17:17:46Z</time>
    <speed>1.05</speed>
  </trkpt>
  <trkpt lat="50.631483" lon="-3.682073">
    <ele>128</ele>
    <time>2026-07-02T17:17:57Z</time>
    <speed>0.53</speed>
  </trkpt>
  <trkpt lat="50.631501" lon="-3.681876">
    <ele>128</ele>
    <time>2026-07-02T17:18:08Z</time>
    <speed>1.51</speed>
  </trkpt>
  <trkpt lat="50.631563" lon="-3.681654">
    <ele>130</ele>
    <time>2026-07-02T17:18:19Z</time>
    <speed>1.16</speed>
  </trkpt>
  <trkpt lat="50.631605" lon="-3.681451">
    <ele>132</ele>
    <time>2026-07-02T17:18:30Z</time>
    <speed>0.89</speed>
  </trkpt>
  <trkpt lat="50.631600" lon="-3.681208">
    <ele>128</ele>
    <time>2026-07-02T17:18:41Z</time>
    <speed>1.2099999</speed>
  </trkpt>
  <trkpt lat="50.631511" lon="-3.681009">
    <ele>130</ele>
    <time>2026-07-02T17:18:52Z</time>
    <speed>1.22</speed>
  </trkpt>
  <trkpt lat="50.631465" lon="-3.680805">
    <ele>129</ele>
    <time>2026-07-02T17:19:03Z</time>
    <speed>1.13</speed>
  </trkpt>
  <trkpt lat="50.631449" lon="-3.680566">
    <ele>130</ele>
    <time>2026-07-02T17:19:14Z</time>
    <speed>1.66</speed>
  </trkpt>
  <trkpt lat="50.631383" lon="-3.680342">
    <ele>124</ele>
    <time>2026-07-02T17:19:25Z</time>
    <speed>0.94</speed>
  </trkpt>
  <trkpt lat="50.631341" lon="-3.680148">
    <ele>129</ele>
    <time>2026-07-02T17:19:36Z</time>
    <speed>1.54</speed>
  </trkpt>
  <trkpt lat="50.631310" lon="-3.679888">
    <ele>129</ele>
    <time>2026-07-02T17:19:47Z</time>
    <speed>1.09</speed>
  </trkpt>
  <trkpt lat="50.631321" lon="-3.679654">
    <ele>130</ele>
    <time>2026-07-02T17:19:58Z</time>
    <speed>1.3299999</speed>
  </trkpt>
  <trkpt lat="50.631263" lon="-3.679425">
    <ele>131</ele>
    <time>2026-07-02T17:20:09Z</time>
    <speed>1.31</speed>
  </trkpt>
  <trkpt lat="50.631221" lon="-3.679261">
    <ele>133</ele>
    <time>2026-07-02T17:20:20Z</time>
    <speed>1.28</speed>
  </trkpt>
  <trkpt lat="50.631247" lon="-3.679013">
    <ele>133</ele>
    <time>2026-07-02T17:20:31Z</time>
    <speed>1.22</speed>
  </trkpt>
  <trkpt lat="50.631270" lon="-3.678786">
    <ele>134</ele>
    <time>2026-07-02T17:20:42Z</time>
    <speed>1.14</speed>
  </trkpt>
  <trkpt lat="50.631156" lon="-3.678672">
    <ele>130</ele>
    <time>2026-07-02T17:20:53Z</time>
    <speed>1.56</speed>
  </trkpt>
  <trkpt lat="50.631037" lon="-3.678598">
    <ele>135</ele>
    <time>2026-07-02T17:21:04Z</time>
    <speed>1.4</speed>
  </trkpt>
  <trkpt lat="50.630915" lon="-3.678525">
    <ele>134</ele>
    <time>2026-07-02T17:21:15Z</time>
    <speed>1.4399999</speed>
  </trkpt>
  <trkpt lat="50.630788" lon="-3.678437">
    <ele>136</ele>
    <time>2026-07-02T17:21:26Z</time>
    <speed>0.89</speed>
  </trkpt>
  <trkpt lat="50.630658" lon="-3.678379">
    <ele>135</ele>
    <time>2026-07-02T17:21:37Z</time>
    <speed>1.7199999</speed>
  </trkpt>
  <trkpt lat="50.630510" lon="-3.678251">
    <ele>126</ele>
    <time>2026-07-02T17:21:48Z</time>
    <speed>1.3</speed>
  </trkpt>
  <trkpt lat="50.630376" lon="-3.678122">
    <ele>128</ele>
    <time>2026-07-02T17:21:59Z</time>
    <speed>1.11</speed>
  </trkpt>
  <trkpt lat="50.630280" lon="-3.678043">
    <ele>127</ele>
    <time>2026-07-02T17:22:10Z</time>
    <speed>1.5699999</speed>
  </trkpt>
  <trkpt lat="50.630180" lon="-3.677909">
    <ele>125</ele>
    <time>2026-07-02T17:22:21Z</time>
    <speed>1.31</speed>
  </trkpt>
  <trkpt lat="50.630073" lon="-3.677793">
    <ele>121</ele>
    <time>2026-07-02T17:22:32Z</time>
    <speed>1.12</speed>
  </trkpt>
  <trkpt lat="50.629935" lon="-3.677690">
    <ele>120</ele>
    <time>2026-07-02T17:22:43Z</time>
    <speed>1.5999999</speed>
  </trkpt>
  <trkpt lat="50.629822" lon="-3.677633">
    <ele>116</ele>
    <time>2026-07-02T17:22:54Z</time>
    <speed>1.05</speed>
  </trkpt>
  <trkpt lat="50.629716" lon="-3.677523">
    <ele>117</ele>
    <time>2026-07-02T17:23:05Z</time>
    <speed>1.37</speed>
  </trkpt>
  <trkpt lat="50.629598" lon="-3.677396">
    <ele>116</ele>
    <time>2026-07-02T17:23:16Z</time>
    <speed>1.1</speed>
  </trkpt>
  <trkpt lat="50.629487" lon="-3.677301">
    <ele>114</ele>
    <time>2026-07-02T17:23:27Z</time>
    <speed>1.0699999</speed>
  </trkpt>
  <trkpt lat="50.629375" lon="-3.677161">
    <ele>110</ele>
    <time>2026-07-02T17:23:38Z</time>
    <speed>0.65</speed>
  </trkpt>
  <trkpt lat="50.629269" lon="-3.677023">
    <ele>108</ele>
    <time>2026-07-02T17:23:49Z</time>
    <speed>0.7</speed>
  </trkpt>
  <trkpt lat="50.629204" lon="-3.676836">
    <ele>109</ele>
    <time>2026-07-02T17:24:00Z</time>
    <speed>1.11</speed>
  </trkpt>
  <trkpt lat="50.629169" lon="-3.676633">
    <ele>107</ele>
    <time>2026-07-02T17:24:11Z</time>
    <speed>1.11</speed>
  </trkpt>
  <trkpt lat="50.629084" lon="-3.676500">
    <ele>106</ele>
    <time>2026-07-02T17:24:22Z</time>
    <speed>0.74</speed>
  </trkpt>
  <trkpt lat="50.628982" lon="-3.676383">
    <ele>105</ele>
    <time>2026-07-02T17:24:33Z</time>
    <speed>1.37</speed>
  </trkpt>
  <trkpt lat="50.628883" lon="-3.676199">
    <ele>107</ele>
    <time>2026-07-02T17:24:44Z</time>
    <speed>0.39999998</speed>
  </trkpt>
  <trkpt lat="50.628837" lon="-3.676058">
    <ele>107</ele>
    <time>2026-07-02T17:24:55Z</time>
    <speed>0.93</speed>
  </trkpt>
  <trkpt lat="50.628750" lon="-3.675929">
    <ele>108</ele>
    <time>2026-07-02T17:25:06Z</time>
    <speed>1.0699999</speed>
  </trkpt>
  <trkpt lat="50.628634" lon="-3.675746">
    <ele>106</ele>
    <time>2026-07-02T17:25:17Z</time>
    <speed>3.06</speed>
  </trkpt>
  <trkpt lat="50.628535" lon="-3.675561">
    <ele>107</ele>
    <time>2026-07-02T17:25:28Z</time>
    <speed>1.11</speed>
  </trkpt>
  <trkpt lat="50.628459" lon="-3.675418">
    <ele>106</ele>
    <time>2026-07-02T17:25:39Z</time>
    <speed>1.89</speed>
  </trkpt>
  <trkpt lat="50.628391" lon="-3.675207">
    <ele>101</ele>
    <time>2026-07-02T17:25:50Z</time>
    <speed>1.16</speed>
  </trkpt>
  <trkpt lat="50.628266" lon="-3.675099">
    <ele>103</ele>
    <time>2026-07-02T17:26:01Z</time>
    <speed>0.28</speed>
  </trkpt>
  <trkpt lat="50.628347" lon="-3.675017">
    <ele>108</ele>
    <time>2026-07-02T17:26:46Z</time>
    <speed>0.78999996</speed>
  </trkpt>
  <trkpt lat="50.628269" lon="-3.674942">
    <ele>109</ele>
    <time>2026-07-02T17:26:57Z</time>
    <speed>0.76</speed>
  </trkpt>
  <trkpt lat="50.628184" lon="-3.674792">
    <ele>111</ele>
    <time>2026-07-02T17:27:08Z</time>
    <speed>0.98999995</speed>
  </trkpt>
  <trkpt lat="50.628057" lon="-3.674604">
    <ele>114</ele>
    <time>2026-07-02T17:27:19Z</time>
    <speed>1.24</speed>
  </trkpt>
  <trkpt lat="50.627968" lon="-3.674431">
    <ele>108</ele>
    <time>2026-07-02T17:27:30Z</time>
    <speed>1.36</speed>
  </trkpt>
  <trkpt lat="50.627907" lon="-3.674237">
    <ele>104</ele>
    <time>2026-07-02T17:27:41Z</time>
    <speed>0.96</speed>
  </trkpt>
  <trkpt lat="50.627845" lon="-3.674058">
    <ele>104</ele>
    <time>2026-07-02T17:27:52Z</time>
    <speed>1.4</speed>
  </trkpt>
  <trkpt lat="50.627791" lon="-3.673900">
    <ele>109</ele>
    <time>2026-07-02T17:28:03Z</time>
    <speed>1.1</speed>
  </trkpt>
  <trkpt lat="50.627705" lon="-3.673752">
    <ele>110</ele>
    <time>2026-07-02T17:28:14Z</time>
    <speed>1.4599999</speed>
  </trkpt>
  <trkpt lat="50.627616" lon="-3.673594">
    <ele>111</ele>
    <time>2026-07-02T17:28:25Z</time>
    <speed>0.72999996</speed>
  </trkpt>
  <trkpt lat="50.627530" lon="-3.673442">
    <ele>114</ele>
    <time>2026-07-02T17:28:36Z</time>
    <speed>0.62</speed>
  </trkpt>
  <trkpt lat="50.627416" lon="-3.673243">
    <ele>112</ele>
    <time>2026-07-02T17:28:47Z</time>
    <speed>1.14</speed>
  </trkpt>
  <trkpt lat="50.627335" lon="-3.673052">
    <ele>111</ele>
    <time>2026-07-02T17:28:58Z</time>
    <speed>1.16</speed>
  </trkpt>
  <trkpt lat="50.627241" lon="-3.672899">
    <ele>112</ele>
    <time>2026-07-02T17:29:09Z</time>
    <speed>1.0</speed>
  </trkpt>
  <trkpt lat="50.627162" lon="-3.672739">
    <ele>110</ele>
    <time>2026-07-02T17:29:20Z</time>
    <speed>1.4499999</speed>
  </trkpt>
  <trkpt lat="50.627077" lon="-3.672563">
    <ele>103</ele>
    <time>2026-07-02T17:29:31Z</time>
    <speed>1.62</speed>
  </trkpt>
  <trkpt lat="50.626983" lon="-3.672425">
    <ele>103</ele>
    <time>2026-07-02T17:29:42Z</time>
    <speed>1.0699999</speed>
  </trkpt>
  <trkpt lat="50.626885" lon="-3.672256">
    <ele>117</ele>
    <time>2026-07-02T17:29:53Z</time>
    <speed>1.02</speed>
  </trkpt>
  <trkpt lat="50.626775" lon="-3.672097">
    <ele>111</ele>
    <time>2026-07-02T17:30:04Z</time>
    <speed>0.90999997</speed>
  </trkpt>
  <trkpt lat="50.626716" lon="-3.671899">
    <ele>110</ele>
    <time>2026-07-02T17:30:15Z</time>
    <speed>1.1999999</speed>
  </trkpt>
  <trkpt lat="50.626658" lon="-3.671685">
    <ele>113</ele>
    <time>2026-07-02T17:30:26Z</time>
    <speed>1.0</speed>
  </trkpt>
  <trkpt lat="50.626617" lon="-3.671458">
    <ele>114</ele>
    <time>2026-07-02T17:30:37Z</time>
    <speed>1.17</speed>
  </trkpt>
  <trkpt lat="50.626596" lon="-3.671258">
    <ele>108</ele>
    <time>2026-07-02T17:30:48Z</time>
    <speed>1.22</speed>
  </trkpt>
  <trkpt lat="50.626563" lon="-3.671067">
    <ele>113</ele>
    <time>2026-07-02T17:30:59Z</time>
    <speed>1.7099999</speed>
  </trkpt>
  <trkpt lat="50.626522" lon="-3.670830">
    <ele>113</ele>
    <time>2026-07-02T17:31:10Z</time>
    <speed>0.9</speed>
  </trkpt>
  <trkpt lat="50.626479" lon="-3.670624">
    <ele>112</ele>
    <time>2026-07-02T17:31:21Z</time>
    <speed>1.04</speed>
  </trkpt>
  <trkpt lat="50.626458" lon="-3.670377">
    <ele>115</ele>
    <time>2026-07-02T17:31:32Z</time>
    <speed>1.6999999</speed>
  </trkpt>
  <trkpt lat="50.626475" lon="-3.670144">
    <ele>105</ele>
    <time>2026-07-02T17:31:43Z</time>
    <speed>1.48</speed>
  </trkpt>
  <trkpt lat="50.626504" lon="-3.669959">
    <ele>116</ele>
    <time>2026-07-02T17:31:54Z</time>
    <speed>1.14</speed>
  </trkpt>
  <trkpt lat="50.626511" lon="-3.669805">
    <ele>116</ele>
    <time>2026-07-02T17:32:09Z</time>
    <speed>0.85999995</speed>
  </trkpt>
  <trkpt lat="50.626535" lon="-3.669593">
    <ele>111</ele>
    <time>2026-07-02T17:32:20Z</time>
    <speed>1.64</speed>
  </trkpt>
  <trkpt lat="50.626535" lon="-3.669375">
    <ele>119</ele>
    <time>2026-07-02T17:32:31Z</time>
    <speed>1.41</speed>
  </trkpt>
  <trkpt lat="50.626564" lon="-3.669167">
    <ele>115</ele>
    <time>2026-07-02T17:32:42Z</time>
    <speed>1.1999999</speed>
  </trkpt>
  <trkpt lat="50.626637" lon="-3.668929">
    <ele>108</ele>
    <time>2026-07-02T17:32:53Z</time>
    <speed>1.91</speed>
  </trkpt>
  <trkpt lat="50.626706" lon="-3.668720">
    <ele>116</ele>
    <time>2026-07-02T17:33:04Z</time>
    <speed>0.98999995</speed>
  </trkpt>
  <trkpt lat="50.626701" lon="-3.668478">
    <ele>106</ele>
    <time>2026-07-02T17:33:15Z</time>
    <speed>1.5799999</speed>
  </trkpt>
  <trkpt lat="50.626747" lon="-3.668271">
    <ele>115</ele>
    <time>2026-07-02T17:33:26Z</time>
    <speed>1.53</speed>
  </trkpt>
  <trkpt lat="50.626761" lon="-3.668038">
    <ele>113</ele>
    <time>2026-07-02T17:33:37Z</time>
    <speed>1.1999999</speed>
  </trkpt>
  <trkpt lat="50.626770" lon="-3.667807">
    <ele>110</ele>
    <time>2026-07-02T17:33:48Z</time>
    <speed>1.3199999</speed>
  </trkpt>
  <trkpt lat="50.626749" lon="-3.667597">
    <ele>110</ele>
    <time>2026-07-02T17:33:59Z</time>
    <speed>1.16</speed>
  </trkpt>
  <trkpt lat="50.626733" lon="-3.667379">
    <ele>107</ele>
    <time>2026-07-02T17:34:10Z</time>
    <speed>1.5</speed>
  </trkpt>
  <trkpt lat="50.626715" lon="-3.667198">
    <ele>107</ele>
    <time>2026-07-02T17:34:21Z</time>
    <speed>1.01</speed>
  </trkpt>
  <trkpt lat="50.626698" lon="-3.667000">
    <ele>105</ele>
    <time>2026-07-02T17:34:32Z</time>
    <speed>0.89</speed>
  </trkpt>
  <trkpt lat="50.626731" lon="-3.666771">
    <ele>106</ele>
    <time>2026-07-02T17:34:43Z</time>
    <speed>1.1</speed>
  </trkpt>
  <trkpt lat="50.626768" lon="-3.666563">
    <ele>104</ele>
    <time>2026-07-02T17:34:54Z</time>
    <speed>1.4499999</speed>
  </trkpt>
  <trkpt lat="50.626808" lon="-3.666379">
    <ele>95</ele>
    <time>2026-07-02T17:35:05Z</time>
    <speed>1.26</speed>
  </trkpt>
  <trkpt lat="50.626836" lon="-3.666192">
    <ele>97</ele>
    <time>2026-07-02T17:35:16Z</time>
    <speed>0.85999995</speed>
  </trkpt>
  <trkpt lat="50.626883" lon="-3.665990">
    <ele>98</ele>
    <time>2026-07-02T17:35:27Z</time>
    <speed>1.61</speed>
  </trkpt>
  <trkpt lat="50.626894" lon="-3.665802">
    <ele>99</ele>
    <time>2026-07-02T17:35:38Z</time>
    <speed>0.81</speed>
  </trkpt>
  <trkpt lat="50.626826" lon="-3.665650">
    <ele>104</ele>
    <time>2026-07-02T17:35:49Z</time>
    <speed>1.11</speed>
  </trkpt>
  <trkpt lat="50.626748" lon="-3.665456">
    <ele>103</ele>
    <time>2026-07-02T17:36:00Z</time>
    <speed>1.51</speed>
  </trkpt>
  <trkpt lat="50.626720" lon="-3.665252">
    <ele>101</ele>
    <time>2026-07-02T17:36:11Z</time>
    <speed>1.26</speed>
  </trkpt>
  <trkpt lat="50.626755" lon="-3.664999">
    <ele>103</ele>
    <time>2026-07-02T17:36:22Z</time>
    <speed>1.66</speed>
  </trkpt>
  <trkpt lat="50.626748" lon="-3.664807">
    <ele>106</ele>
    <time>2026-07-02T17:36:33Z</time>
    <speed>1.42</speed>
  </trkpt>
  <trkpt lat="50.626723" lon="-3.664646">
    <ele>98</ele>
    <time>2026-07-02T17:36:44Z</time>
    <speed>1.27</speed>
  </trkpt>
  <trkpt lat="50.626735" lon="-3.664443">
    <ele>106</ele>
    <time>2026-07-02T17:36:55Z</time>
    <speed>1.51</speed>
  </trkpt>
  <trkpt lat="50.626697" lon="-3.664239">
    <ele>104</ele>
    <time>2026-07-02T17:37:06Z</time>
    <speed>0.96999997</speed>
  </trkpt>
  <trkpt lat="50.626671" lon="-3.664037">
    <ele>108</ele>
    <time>2026-07-02T17:37:17Z</time>
    <speed>0.93</speed>
  </trkpt>
  <trkpt lat="50.626633" lon="-3.663825">
    <ele>115</ele>
    <time>2026-07-02T17:37:28Z</time>
    <speed>1.36</speed>
  </trkpt>
  <trkpt lat="50.626591" lon="-3.663627">
    <ele>109</ele>
    <time>2026-07-02T17:37:39Z</time>
    <speed>1.3199999</speed>
  </trkpt>
  <trkpt lat="50.626587" lon="-3.663418">
    <ele>112</ele>
    <time>2026-07-02T17:37:50Z</time>
    <speed>0.96</speed>
  </trkpt>
  <trkpt lat="50.626556" lon="-3.663195">
    <ele>113</ele>
    <time>2026-07-02T17:38:01Z</time>
    <speed>1.4399999</speed>
  </trkpt>
  <trkpt lat="50.626499" lon="-3.662996">
    <ele>113</ele>
    <time>2026-07-02T17:38:12Z</time>
    <speed>1.41</speed>
  </trkpt>
  <trkpt lat="50.626475" lon="-3.662777">
    <ele>118</ele>
    <time>2026-07-02T17:38:23Z</time>
    <speed>1.26</speed>
  </trkpt>
  <trkpt lat="50.626445" lon="-3.662559">
    <ele>116</ele>
    <time>2026-07-02T17:38:34Z</time>
    <speed>1.26</speed>
  </trkpt>
  <trkpt lat="50.626417" lon="-3.662348">
    <ele>115</ele>
    <time>2026-07-02T17:38:45Z</time>
    <speed>0.72999996</speed>
  </trkpt>
  <trkpt lat="50.626393" lon="-3.662127">
    <ele>114</ele>
    <time>2026-07-02T17:38:56Z</time>
    <speed>1.53</speed>
  </trkpt>
  <trkpt lat="50.626417" lon="-3.661902">
    <ele>110</ele>
    <time>2026-07-02T17:39:07Z</time>
    <speed>1.43</speed>
  </trkpt>
  <trkpt lat="50.626405" lon="-3.661663">
    <ele>115</ele>
    <time>2026-07-02T17:39:18Z</time>
    <speed>0.96999997</speed>
  </trkpt>
  <trkpt lat="50.626378" lon="-3.661434">
    <ele>116</ele>
    <time>2026-07-02T17:39:29Z</time>
    <speed>1.1899999</speed>
  </trkpt>
  <trkpt lat="50.626443" lon="-3.661194">
    <ele>115</ele>
    <time>2026-07-02T17:39:40Z</time>
    <speed>1.3199999</speed>
  </trkpt>
  <trkpt lat="50.626494" lon="-3.660986">
    <ele>118</ele>
    <time>2026-07-02T17:39:51Z</time>
    <speed>1.05</speed>
  </trkpt>
  <trkpt lat="50.626512" lon="-3.660840">
    <ele>116</ele>
    <time>2026-07-02T17:43:37Z</time>
    <speed>1.0799999</speed>
  </trkpt>
  <trkpt lat="50.626555" lon="-3.660671">
    <ele>113</ele>
    <time>2026-07-02T17:43:48Z</time>
    <speed>1.1</speed>
  </trkpt>
  <trkpt lat="50.626577" lon="-3.660489">
    <ele>113</ele>
    <time>2026-07-02T17:43:59Z</time>
    <speed>1.31</speed>
  </trkpt>
  <trkpt lat="50.626662" lon="-3.660338">
    <ele>110</ele>
    <time>2026-07-02T17:44:10Z</time>
    <speed>1.12</speed>
  </trkpt>
  <trkpt lat="50.626743" lon="-3.660206">
    <ele>108</ele>
    <time>2026-07-02T17:44:21Z</time>
    <speed>0.84999996</speed>
  </trkpt>
  <trkpt lat="50.626806" lon="-3.660103">
    <ele>99</ele>
    <time>2026-07-02T17:44:33Z</time>
    <speed>1.0699999</speed>
  </trkpt>
  <trkpt lat="50.626957" lon="-3.659998">
    <ele>105</ele>
    <time>2026-07-02T17:44:44Z</time>
    <speed>0.95</speed>
  </trkpt>
  <trkpt lat="50.627071" lon="-3.659918">
    <ele>110</ele>
    <time>2026-07-02T17:44:55Z</time>
    <speed>1.25</speed>
  </trkpt>
  <trkpt lat="50.627220" lon="-3.659842">
    <ele>107</ele>
    <time>2026-07-02T17:45:06Z</time>
    <speed>1.5</speed>
  </trkpt>
  <trkpt lat="50.627385" lon="-3.659795">
    <ele>109</ele>
    <time>2026-07-02T17:45:17Z</time>
    <speed>1.5899999</speed>
  </trkpt>
  <trkpt lat="50.627509" lon="-3.659719">
    <ele>105</ele>
    <time>2026-07-02T17:45:28Z</time>
    <speed>1.18</speed>
  </trkpt>
  <trkpt lat="50.627593" lon="-3.659575">
    <ele>105</ele>
    <time>2026-07-02T17:45:39Z</time>
    <speed>0.65</speed>
  </trkpt>
  <trkpt lat="50.627686" lon="-3.659419">
    <ele>101</ele>
    <time>2026-07-02T17:45:50Z</time>
    <speed>1.3199999</speed>
  </trkpt>
  <trkpt lat="50.627794" lon="-3.659257">
    <ele>95</ele>
    <time>2026-07-02T17:46:01Z</time>
    <speed>1.3</speed>
  </trkpt>
  <trkpt lat="50.627891" lon="-3.659087">
    <ele>98</ele>
    <time>2026-07-02T17:46:12Z</time>
    <speed>1.56</speed>
  </trkpt>
  <trkpt lat="50.627961" lon="-3.658938">
    <ele>95</ele>
    <time>2026-07-02T17:46:23Z</time>
    <speed>1.5</speed>
  </trkpt>
  <trkpt lat="50.628075" lon="-3.658769">
    <ele>96</ele>
    <time>2026-07-02T17:46:34Z</time>
    <speed>2.3999999</speed>
  </trkpt>
  <trkpt lat="50.628125" lon="-3.658607">
    <ele>89</ele>
    <time>2026-07-02T17:46:45Z</time>
    <speed>1.26</speed>
  </trkpt>
  <trkpt lat="50.628163" lon="-3.658396">
    <ele>95</ele>
    <time>2026-07-02T17:46:56Z</time>
    <speed>1.4699999</speed>
  </trkpt>
  <trkpt lat="50.628097" lon="-3.658194">
    <ele>94</ele>
    <time>2026-07-02T17:47:07Z</time>
    <speed>1.0799999</speed>
  </trkpt>
  <trkpt lat="50.628012" lon="-3.658044">
    <ele>95</ele>
    <time>2026-07-02T17:47:18Z</time>
    <speed>1.36</speed>
  </trkpt>
  <trkpt lat="50.627947" lon="-3.657868">
    <ele>97</ele>
    <time>2026-07-02T17:47:29Z</time>
    <speed>0.48</speed>
  </trkpt>
  <trkpt lat="50.628049" lon="-3.657796">
    <ele>94</ele>
    <time>2026-07-02T17:47:40Z</time>
    <speed>0.78999996</speed>
  </trkpt>
  <trkpt lat="50.628165" lon="-3.657840">
    <ele>98</ele>
    <time>2026-07-02T17:47:51Z</time>
    <speed>1.22</speed>
  </trkpt>
  <trkpt lat="50.628289" lon="-3.657893">
    <ele>98</ele>
    <time>2026-07-02T17:48:02Z</time>
    <speed>1.15</speed>
  </trkpt>
  <trkpt lat="50.628402" lon="-3.657937">
    <ele>101</ele>
    <time>2026-07-02T17:48:13Z</time>
    <speed>1.1999999</speed>
  </trkpt>
  <trkpt lat="50.628513" lon="-3.657987">
    <ele>102</ele>
    <time>2026-07-02T17:48:24Z</time>
    <speed>1.06</speed>
  </trkpt>
  <trkpt lat="50.628645" lon="-3.657962">
    <ele>92</ele>
    <time>2026-07-02T17:48:35Z</time>
    <speed>1.31</speed>
  </trkpt>
  <trkpt lat="50.628706" lon="-3.657769">
    <ele>102</ele>
    <time>2026-07-02T17:48:46Z</time>
    <speed>1.1999999</speed>
  </trkpt>
  <trkpt lat="50.628696" lon="-3.657589">
    <ele>97</ele>
    <time>2026-07-02T17:48:57Z</time>
    <speed>1.04</speed>
  </trkpt>
  <trkpt lat="50.628743" lon="-3.657395">
    <ele>95</ele>
    <time>2026-07-02T17:49:08Z</time>
    <speed>0.84</speed>
  </trkpt>
  <trkpt lat="50.628767" lon="-3.657239">
    <ele>98</ele>
    <time>2026-07-02T17:49:19Z</time>
    <speed>1.13</speed>
  </trkpt>
  <trkpt lat="50.628695" lon="-3.656896">
    <ele>95</ele>
    <time>2026-07-02T17:49:30Z</time>
    <speed>1.73</speed>
  </trkpt>
  <trkpt lat="50.628658" lon="-3.656751">
    <ele>92</ele>
    <time>2026-07-02T17:49:41Z</time>
    <speed>0.7</speed>
  </trkpt>
  <trkpt lat="50.628581" lon="-3.656593">
    <ele>95</ele>
    <time>2026-07-02T17:49:52Z</time>
    <speed>1.3399999</speed>
  </trkpt>
  <trkpt lat="50.628499" lon="-3.656437">
    <ele>93</ele>
    <time>2026-07-02T17:50:03Z</time>
    <speed>1.15</speed>
  </trkpt>
  <trkpt lat="50.628418" lon="-3.656268">
    <ele>91</ele>
    <time>2026-07-02T17:50:14Z</time>
    <speed>0.84999996</speed>
  </trkpt>
  <trkpt lat="50.628345" lon="-3.656084">
    <ele>91</ele>
    <time>2026-07-02T17:50:25Z</time>
    <speed>0.84</speed>
  </trkpt>
  <trkpt lat="50.628294" lon="-3.655918">
    <ele>86</ele>
    <time>2026-07-02T17:50:36Z</time>
    <speed>0.84</speed>
  </trkpt>
  <trkpt lat="50.628216" lon="-3.655745">
    <ele>85</ele>
    <time>2026-07-02T17:50:47Z</time>
    <speed>0.42</speed>
  </trkpt>
  <trkpt lat="50.628123" lon="-3.655538">
    <ele>88</ele>
    <time>2026-07-02T17:50:58Z</time>
    <speed>1.11</speed>
  </trkpt>
  <trkpt lat="50.628050" lon="-3.655350">
    <ele>84</ele>
    <time>2026-07-02T17:51:09Z</time>
    <speed>0.78</speed>
  </trkpt>
  <trkpt lat="50.627997" lon="-3.655201">
    <ele>83</ele>
    <time>2026-07-02T17:51:20Z</time>
    <speed>1.03</speed>
  </trkpt>
  <trkpt lat="50.627937" lon="-3.654999">
    <ele>80</ele>
    <time>2026-07-02T17:51:31Z</time>
    <speed>0.84</speed>
  </trkpt>
  <trkpt lat="50.627901" lon="-3.654814">
    <ele>79</ele>
    <time>2026-07-02T17:51:42Z</time>
    <speed>0.55</speed>
  </trkpt>
  <trkpt lat="50.627851" lon="-3.654646">
    <ele>78</ele>
    <time>2026-07-02T17:51:53Z</time>
    <speed>0.79999995</speed>
  </trkpt>
  <trkpt lat="50.627785" lon="-3.654468">
    <ele>73</ele>
    <time>2026-07-02T17:52:04Z</time>
    <speed>1.0</speed>
  </trkpt>
  <trkpt lat="50.627729" lon="-3.654297">
    <ele>71</ele>
    <time>2026-07-02T17:52:15Z</time>
    <speed>0.95</speed>
  </trkpt>
  <trkpt lat="50.627683" lon="-3.654118">
    <ele>69</ele>
    <time>2026-07-02T17:52:26Z</time>
    <speed>1.09</speed>
  </trkpt>
  <trkpt lat="50.627641" lon="-3.653935">
    <ele>69</ele>
    <time>2026-07-02T17:52:37Z</time>
    <speed>1.01</speed>
  </trkpt>
  <trkpt lat="50.627597" lon="-3.653757">
    <ele>69</ele>
    <time>2026-07-02T17:52:48Z</time>
    <speed>0.78999996</speed>
  </trkpt>
  <trkpt lat="50.627528" lon="-3.653568">
    <ele>65</ele>
    <time>2026-07-02T17:52:59Z</time>
    <speed>0.57</speed>
  </trkpt>
  <trkpt lat="50.627517" lon="-3.653426">
    <ele>60</ele>
    <time>2026-07-02T17:53:28Z</time>
    <speed>1.09</speed>
  </trkpt>
  <trkpt lat="50.627482" lon="-3.653290">
    <ele>62</ele>
    <time>2026-07-02T17:54:01Z</time>
    <speed>1.0799999</speed>
  </trkpt>
  <trkpt lat="50.627494" lon="-3.653148">
    <ele>62</ele>
    <time>2026-07-02T17:54:23Z</time>
    <speed>0.01</speed>
  </trkpt>
  <trkpt lat="50.627584" lon="-3.653148">
    <ele>60</ele>
    <time>2026-07-02T17:55:47Z</time>
    <speed>1.43</speed>
  </trkpt>
  <trkpt lat="50.627680" lon="-3.653146">
    <ele>55</ele>
    <time>2026-07-02T17:55:58Z</time>
    <speed>0.48</speed>
  </trkpt>
  <trkpt lat="50.627817" lon="-3.653175">
    <ele>60</ele>
    <time>2026-07-02T17:56:09Z</time>
    <speed>1.17</speed>
  </trkpt>
  <trkpt lat="50.627944" lon="-3.653176">
    <ele>68</ele>
    <time>2026-07-02T17:56:20Z</time>
    <speed>1.3199999</speed>
  </trkpt>
  <trkpt lat="50.628090" lon="-3.653244">
    <ele>63</ele>
    <time>2026-07-02T17:56:31Z</time>
    <speed>1.67</speed>
  </trkpt>
  <trkpt lat="50.628206" lon="-3.653315">
    <ele>64</ele>
    <time>2026-07-02T17:56:42Z</time>
    <speed>1.14</speed>
  </trkpt>
  <trkpt lat="50.628343" lon="-3.653400">
    <ele>59</ele>
    <time>2026-07-02T17:56:53Z</time>
    <speed>1.54</speed>
  </trkpt>
  <trkpt lat="50.628449" lon="-3.653488">
    <ele>58</ele>
    <time>2026-07-02T17:57:04Z</time>
    <speed>1.36</speed>
  </trkpt>
  <trkpt lat="50.628534" lon="-3.653607">
    <ele>69</ele>
    <time>2026-07-02T17:57:15Z</time>
    <speed>1.39</speed>
  </trkpt>
  <trkpt lat="50.628656" lon="-3.653714">
    <ele>67</ele>
    <time>2026-07-02T17:57:26Z</time>
    <speed>1.23</speed>
  </trkpt>
  <trkpt lat="50.628781" lon="-3.653860">
    <ele>65</ele>
    <time>2026-07-02T17:57:37Z</time>
    <speed>1.89</speed>
  </trkpt>
  <trkpt lat="50.628889" lon="-3.653978">
    <ele>59</ele>
    <time>2026-07-02T17:57:48Z</time>
    <speed>1.25</speed>
  </trkpt>
  <trkpt lat="50.629005" lon="-3.654087">
    <ele>72</ele>
    <time>2026-07-02T17:57:59Z</time>
    <speed>1.16</speed>
  </trkpt>
  <trkpt lat="50.629130" lon="-3.654165">
    <ele>70</ele>
    <time>2026-07-02T17:58:10Z</time>
    <speed>1.27</speed>
  </trkpt>
  <trkpt lat="50.629227" lon="-3.654299">
    <ele>69</ele>
    <time>2026-07-02T17:58:21Z</time>
    <speed>0.66999996</speed>
  </trkpt>
  <trkpt lat="50.629284" lon="-3.654521">
    <ele>68</ele>
    <time>2026-07-02T17:58:32Z</time>
    <speed>0.96</speed>
  </trkpt>
  <trkpt lat="50.629292" lon="-3.654728">
    <ele>61</ele>
    <time>2026-07-02T17:58:43Z</time>
    <speed>0.90999997</speed>
  </trkpt>
  <trkpt lat="50.629331" lon="-3.654928">
    <ele>74</ele>
    <time>2026-07-02T17:58:54Z</time>
    <speed>1.41</speed>
  </trkpt>
  <trkpt lat="50.629348" lon="-3.655140">
    <ele>71</ele>
    <time>2026-07-02T17:59:05Z</time>
    <speed>1.28</speed>
  </trkpt>
  <trkpt lat="50.629384" lon="-3.655358">
    <ele>69</ele>
    <time>2026-07-02T17:59:16Z</time>
    <speed>1.63</speed>
  </trkpt>
  <trkpt lat="50.629409" lon="-3.655615">
    <ele>72</ele>
    <time>2026-07-02T17:59:27Z</time>
    <speed>1.43</speed>
  </trkpt>
  <trkpt lat="50.629465" lon="-3.655839">
    <ele>72</ele>
    <time>2026-07-02T17:59:38Z</time>
    <speed>1.76</speed>
  </trkpt>
  <trkpt lat="50.629526" lon="-3.656018">
    <ele>66</ele>
    <time>2026-07-02T17:59:49Z</time>
    <speed>1.4399999</speed>
  </trkpt>
  <trkpt lat="50.629610" lon="-3.656209">
    <ele>69</ele>
    <time>2026-07-02T18:00:00Z</time>
    <speed>1.3199999</speed>
  </trkpt>
  <trkpt lat="50.629677" lon="-3.656422">
    <ele>71</ele>
    <time>2026-07-02T18:00:11Z</time>
    <speed>1.24</speed>
  </trkpt>
  <trkpt lat="50.629785" lon="-3.656584">
    <ele>69</ele>
    <time>2026-07-02T18:00:22Z</time>
    <speed>1.12</speed>
  </trkpt>
  <trkpt lat="50.629850" lon="-3.656788">
    <ele>62</ele>
    <time>2026-07-02T18:00:33Z</time>
    <speed>1.41</speed>
  </trkpt>
  <trkpt lat="50.629914" lon="-3.657026">
    <ele>71</ele>
    <time>2026-07-02T18:00:44Z</time>
    <speed>1.73</speed>
  </trkpt>
  <trkpt lat="50.629937" lon="-3.657248">
    <ele>70</ele>
    <time>2026-07-02T18:00:55Z</time>
    <speed>0.65</speed>
  </trkpt>
  <trkpt lat="50.629981" lon="-3.657441">
    <ele>70</ele>
    <time>2026-07-02T18:01:06Z</time>
    <speed>1.36</speed>
  </trkpt>
  <trkpt lat="50.630058" lon="-3.657633">
    <ele>68</ele>
    <time>2026-07-02T18:01:17Z</time>
    <speed>1.75</speed>
  </trkpt>
  <trkpt lat="50.630162" lon="-3.657764">
    <ele>71</ele>
    <time>2026-07-02T18:01:28Z</time>
    <speed>0.84</speed>
  </trkpt>
  <trkpt lat="50.630214" lon="-3.657987">
    <ele>62</ele>
    <time>2026-07-02T18:01:39Z</time>
    <speed>1.12</speed>
  </trkpt>
  <trkpt lat="50.630279" lon="-3.658206">
    <ele>73</ele>
    <time>2026-07-02T18:01:50Z</time>
    <speed>1.36</speed>
  </trkpt>
  <trkpt lat="50.630377" lon="-3.658330">
    <ele>71</ele>
    <time>2026-07-02T18:02:01Z</time>
    <speed>0.79999995</speed>
  </trkpt>
  <trkpt lat="50.630504" lon="-3.658458">
    <ele>76</ele>
    <time>2026-07-02T18:02:12Z</time>
    <speed>0.93</speed>
  </trkpt>
  <trkpt lat="50.630639" lon="-3.658598">
    <ele>73</ele>
    <time>2026-07-02T18:02:23Z</time>
    <speed>0.98999995</speed>
  </trkpt>
  <trkpt lat="50.630760" lon="-3.658697">
    <ele>72</ele>
    <time>2026-07-02T18:02:34Z</time>
    <speed>0.75</speed>
  </trkpt>
  <trkpt lat="50.630865" lon="-3.658839">
    <ele>75</ele>
    <time>2026-07-02T18:02:45Z</time>
    <speed>1.05</speed>
  </trkpt>
  <trkpt lat="50.631004" lon="-3.659013">
    <ele>74</ele>
    <time>2026-07-02T18:02:56Z</time>
    <speed>1.73</speed>
  </trkpt>
  <trkpt lat="50.631120" lon="-3.659158">
    <ele>71</ele>
    <time>2026-07-02T18:03:07Z</time>
    <speed>1.55</speed>
  </trkpt>
  <trkpt lat="50.631227" lon="-3.659329">
    <ele>75</ele>
    <time>2026-07-02T18:03:18Z</time>
    <speed>1.5</speed>
  </trkpt>
  <trkpt lat="50.631315" lon="-3.659562">
    <ele>71</ele>
    <time>2026-07-02T18:03:29Z</time>
    <speed>1.6899999</speed>
  </trkpt>
  <trkpt lat="50.631384" lon="-3.659735">
    <ele>77</ele>
    <time>2026-07-02T18:03:40Z</time>
    <speed>0.89</speed>
  </trkpt>
  <trkpt lat="50.631438" lon="-3.659974">
    <ele>75</ele>
    <time>2026-07-02T18:03:51Z</time>
    <speed>1.39</speed>
  </trkpt>
  <trkpt lat="50.631561" lon="-3.660124">
    <ele>64</ele>
    <time>2026-07-02T18:04:02Z</time>
    <speed>1.4699999</speed>
  </trkpt>
  <trkpt lat="50.631635" lon="-3.660248">
    <ele>69</ele>
    <time>2026-07-02T18:04:13Z</time>
    <speed>1.12</speed>
  </trkpt>
  <trkpt lat="50.631768" lon="-3.660384">
    <ele>73</ele>
    <time>2026-07-02T18:04:24Z</time>
    <speed>1.9399999</speed>
  </trkpt>
  <trkpt lat="50.631821" lon="-3.660578">
    <ele>78</ele>
    <time>2026-07-02T18:04:35Z</time>
    <speed>1.14</speed>
  </trkpt>
  <trkpt lat="50.631884" lon="-3.660768">
    <ele>79</ele>
    <time>2026-07-02T18:04:46Z</time>
    <speed>1.36</speed>
  </trkpt>
  <trkpt lat="50.631955" lon="-3.660972">
    <ele>78</ele>
    <time>2026-07-02T18:04:57Z</time>
    <speed>1.65</speed>
  </trkpt>
  <trkpt lat="50.632067" lon="-3.660992">
    <ele>82</ele>
    <time>2026-07-02T18:05:08Z</time>
    <speed>1.4399999</speed>
  </trkpt>
  <trkpt lat="50.632203" lon="-3.660996">
    <ele>82</ele>
    <time>2026-07-02T18:05:19Z</time>
    <speed>1.37</speed>
  </trkpt>
  <trkpt lat="50.632326" lon="-3.661068">
    <ele>84</ele>
    <time>2026-07-02T18:05:30Z</time>
    <speed>1.5799999</speed>
  </trkpt>
  <trkpt lat="50.632458" lon="-3.661144">
    <ele>80</ele>
    <time>2026-07-02T18:05:41Z</time>
    <speed>1.62</speed>
  </trkpt>
  <trkpt lat="50.632582" lon="-3.661247">
    <ele>79</ele>
    <time>2026-07-02T18:05:52Z</time>
    <speed>1.4</speed>
  </trkpt>
  <trkpt lat="50.632709" lon="-3.661333">
    <ele>78</ele>
    <time>2026-07-02T18:06:03Z</time>
    <speed>1.28</speed>
  </trkpt>
  <trkpt lat="50.632867" lon="-3.661421">
    <ele>78</ele>
    <time>2026-07-02T18:06:14Z</time>
    <speed>1.49</speed>
  </trkpt>
  <trkpt lat="50.633018" lon="-3.661507">
    <ele>76</ele>
    <time>2026-07-02T18:06:25Z</time>
    <speed>1.26</speed>
  </trkpt>
  <trkpt lat="50.633142" lon="-3.661619">
    <ele>77</ele>
    <time>2026-07-02T18:06:36Z</time>
    <speed>1.3299999</speed>
  </trkpt>
  <trkpt lat="50.633265" lon="-3.661714">
    <ele>68</ele>
    <time>2026-07-02T18:06:47Z</time>
    <speed>0.61</speed>
  </trkpt>
  <trkpt lat="50.633344" lon="-3.661641">
    <ele>70</ele>
    <time>2026-07-02T18:07:08Z</time>
    <speed>1.0799999</speed>
  </trkpt>
  <trkpt lat="50.633445" lon="-3.661448">
    <ele>71</ele>
    <time>2026-07-02T18:07:19Z</time>
    <speed>0.37</speed>
  </trkpt>
  <trkpt lat="50.633533" lon="-3.661412">
    <ele>70</ele>
    <time>2026-07-02T18:07:47Z</time>
    <speed>0.55</speed>
  </trkpt>
  <trkpt lat="50.633480" lon="-3.661280">
    <ele>72</ele>
    <time>2026-07-02T18:08:06Z</time>
    <speed>0.91999996</speed>
  </trkpt>
  <trkpt lat="50.633437" lon="-3.661101">
    <ele>67</ele>
    <time>2026-07-02T18:08:17Z</time>
    <speed>0.89</speed>
  </trkpt>
  <trkpt lat="50.633416" lon="-3.660916">
    <ele>71</ele>
    <time>2026-07-02T18:08:28Z</time>
    <speed>2.05</speed>
  </trkpt>
  <trkpt lat="50.633399" lon="-3.660704">
    <ele>71</ele>
    <time>2026-07-02T18:08:39Z</time>
    <speed>1.0699999</speed>
  </trkpt>
  <trkpt lat="50.633307" lon="-3.660530">
    <ele>64</ele>
    <time>2026-07-02T18:08:50Z</time>
    <speed>1.0799999</speed>
  </trkpt>
  <trkpt lat="50.633208" lon="-3.660392">
    <ele>76</ele>
    <time>2026-07-02T18:09:01Z</time>
    <speed>1.4699999</speed>
  </trkpt>
  <trkpt lat="50.633091" lon="-3.660271">
    <ele>74</ele>
    <time>2026-07-02T18:09:12Z</time>
    <speed>0.7</speed>
  </trkpt>
  <trkpt lat="50.632949" lon="-3.660095">
    <ele>73</ele>
    <time>2026-07-02T18:09:23Z</time>
    <speed>1.3299999</speed>
  </trkpt>
  <trkpt lat="50.632864" lon="-3.659935">
    <ele>73</ele>
    <time>2026-07-02T18:09:34Z</time>
    <speed>1.36</speed>
  </trkpt>
  <trkpt lat="50.632811" lon="-3.659734">
    <ele>72</ele>
    <time>2026-07-02T18:09:45Z</time>
    <speed>1.4699999</speed>
  </trkpt>
  <trkpt lat="50.632704" lon="-3.659567">
    <ele>75</ele>
    <time>2026-07-02T18:09:56Z</time>
    <speed>1.61</speed>
  </trkpt>
  <trkpt lat="50.632619" lon="-3.659374">
    <ele>76</ele>
    <time>2026-07-02T18:10:07Z</time>
    <speed>1.62</speed>
  </trkpt>
  <trkpt lat="50.632563" lon="-3.659183">
    <ele>69</ele>
    <time>2026-07-02T18:10:18Z</time>
    <speed>1.13</speed>
  </trkpt>
  <trkpt lat="50.632510" lon="-3.658962">
    <ele>80</ele>
    <time>2026-07-02T18:10:29Z</time>
    <speed>1.41</speed>
  </trkpt>
  <trkpt lat="50.632448" lon="-3.658770">
    <ele>81</ele>
    <time>2026-07-02T18:10:40Z</time>
    <speed>1.55</speed>
  </trkpt>
  <trkpt lat="50.632397" lon="-3.658572">
    <ele>84</ele>
    <time>2026-07-02T18:10:51Z</time>
    <speed>1.8299999</speed>
  </trkpt>
  <trkpt lat="50.632376" lon="-3.658350">
    <ele>80</ele>
    <time>2026-07-02T18:11:02Z</time>
    <speed>1.11</speed>
  </trkpt>
  <trkpt lat="50.632292" lon="-3.658197">
    <ele>78</ele>
    <time>2026-07-02T18:11:13Z</time>
    <speed>0.77</speed>
  </trkpt>
  <trkpt lat="50.632221" lon="-3.658013">
    <ele>84</ele>
    <time>2026-07-02T18:11:24Z</time>
    <speed>1.7199999</speed>
  </trkpt>
  <trkpt lat="50.632184" lon="-3.657815">
    <ele>87</ele>
    <time>2026-07-02T18:11:35Z</time>
    <speed>1.27</speed>
  </trkpt>
  <trkpt lat="50.632126" lon="-3.657603">
    <ele>85</ele>
    <time>2026-07-02T18:11:46Z</time>
    <speed>1.26</speed>
  </trkpt>
  <trkpt lat="50.632087" lon="-3.657406">
    <ele>77</ele>
    <time>2026-07-02T18:11:57Z</time>
    <speed>1.4699999</speed>
  </trkpt>
  <trkpt lat="50.632061" lon="-3.657222">
    <ele>88</ele>
    <time>2026-07-02T18:12:08Z</time>
    <speed>1.11</speed>
  </trkpt>
  <trkpt lat="50.632064" lon="-3.657049">
    <ele>79</ele>
    <time>2026-07-02T18:12:19Z</time>
    <speed>0.90999997</speed>
  </trkpt>
  <trkpt lat="50.631979" lon="-3.656885">
    <ele>88</ele>
    <time>2026-07-02T18:12:30Z</time>
    <speed>1.5799999</speed>
  </trkpt>
  <trkpt lat="50.631941" lon="-3.656696">
    <ele>93</ele>
    <time>2026-07-02T18:12:41Z</time>
    <speed>0.98999995</speed>
  </trkpt>
  <trkpt lat="50.631885" lon="-3.656530">
    <ele>85</ele>
    <time>2026-07-02T18:12:52Z</time>
    <speed>0.45999998</speed>
  </trkpt>
  <trkpt lat="50.631826" lon="-3.656336">
    <ele>96</ele>
    <time>2026-07-02T18:13:03Z</time>
    <speed>1.52</speed>
  </trkpt>
  <trkpt lat="50.631724" lon="-3.656158">
    <ele>96</ele>
    <time>2026-07-02T18:13:14Z</time>
    <speed>0.93</speed>
  </trkpt>
  <trkpt lat="50.631700" lon="-3.655964">
    <ele>97</ele>
    <time>2026-07-02T18:13:25Z</time>
    <speed>0.96999997</speed>
  </trkpt>
  <trkpt lat="50.631700" lon="-3.655728">
    <ele>100</ele>
    <time>2026-07-02T18:13:36Z</time>
    <speed>1.4699999</speed>
  </trkpt>
  <trkpt lat="50.631737" lon="-3.655526">
    <ele>102</ele>
    <time>2026-07-02T18:13:47Z</time>
    <speed>1.12</speed>
  </trkpt>
  <trkpt lat="50.631803" lon="-3.655338">
    <ele>96</ele>
    <time>2026-07-02T18:13:58Z</time>
    <speed>1.05</speed>
  </trkpt>
  <trkpt lat="50.631851" lon="-3.655188">
    <ele>102</ele>
    <time>2026-07-02T18:14:09Z</time>
    <speed>0.79999995</speed>
  </trkpt>
  <trkpt lat="50.631901" lon="-3.655020">
    <ele>100</ele>
    <time>2026-07-02T18:14:20Z</time>
    <speed>1.13</speed>
  </trkpt>
  <trkpt lat="50.631958" lon="-3.654844">
    <ele>102</ele>
    <time>2026-07-02T18:14:31Z</time>
    <speed>1.18</speed>
  </trkpt>
  <trkpt lat="50.632051" lon="-3.654704">
    <ele>103</ele>
    <time>2026-07-02T18:14:42Z</time>
    <speed>0.69</speed>
  </trkpt>
  <trkpt lat="50.632161" lon="-3.654552">
    <ele>105</ele>
    <time>2026-07-02T18:14:53Z</time>
    <speed>1.7199999</speed>
  </trkpt>
  <trkpt lat="50.632234" lon="-3.654388">
    <ele>104</ele>
    <time>2026-07-02T18:15:04Z</time>
    <speed>1.39</speed>
  </trkpt>
  <trkpt lat="50.632343" lon="-3.654284">
    <ele>105</ele>
    <time>2026-07-02T18:15:15Z</time>
    <speed>1.25</speed>
  </trkpt>
  <trkpt lat="50.632439" lon="-3.654177">
    <ele>105</ele>
    <time>2026-07-02T18:15:26Z</time>
    <speed>0.77</speed>
  </trkpt>
  <trkpt lat="50.632538" lon="-3.654121">
    <ele>97</ele>
    <time>2026-07-02T18:15:37Z</time>
    <speed>0.90999997</speed>
  </trkpt>
  <trkpt lat="50.632709" lon="-3.654050">
    <ele>109</ele>
    <time>2026-07-02T18:15:48Z</time>
    <speed>1.06</speed>
  </trkpt>
  <trkpt lat="50.632885" lon="-3.654036">
    <ele>113</ele>
    <time>2026-07-02T18:15:59Z</time>
    <speed>1.13</speed>
  </trkpt>
  <trkpt lat="50.633046" lon="-3.654011">
    <ele>110</ele>
    <time>2026-07-02T18:16:10Z</time>
    <speed>1.7099999</speed>
  </trkpt>
  <trkpt lat="50.633201" lon="-3.654046">
    <ele>109</ele>
    <time>2026-07-02T18:16:21Z</time>
    <speed>1.17</speed>
  </trkpt>
  <trkpt lat="50.633328" lon="-3.654091">
    <ele>115</ele>
    <time>2026-07-02T18:16:32Z</time>
    <speed>1.3</speed>
  </trkpt>
  <trkpt lat="50.633440" lon="-3.654136">
    <ele>117</ele>
    <time>2026-07-02T18:16:43Z</time>
    <speed>1.43</speed>
  </trkpt>
  <trkpt lat="50.633581" lon="-3.654155">
    <ele>118</ele>
    <time>2026-07-02T18:16:54Z</time>
    <speed>0.90999997</speed>
  </trkpt>
  <trkpt lat="50.633723" lon="-3.654183">
    <ele>115</ele>
    <time>2026-07-02T18:17:05Z</time>
    <speed>1.56</speed>
  </trkpt>
  <trkpt lat="50.633853" lon="-3.654238">
    <ele>117</ele>
    <time>2026-07-02T18:17:16Z</time>
    <speed>1.38</speed>
  </trkpt>
  <trkpt lat="50.633981" lon="-3.654301">
    <ele>119</ele>
    <time>2026-07-02T18:17:27Z</time>
    <speed>1.02</speed>
  </trkpt>
  <trkpt lat="50.633967" lon="-3.654445">
    <ele>124</ele>
    <time>2026-07-02T18:17:42Z</time>
    <speed>0.91999996</speed>
  </trkpt>
  <trkpt lat="50.633858" lon="-3.654511">
    <ele>121</ele>
    <time>2026-07-02T18:17:53Z</time>
    <speed>1.0699999</speed>
  </trkpt>
  <trkpt lat="50.633735" lon="-3.654582">
    <ele>119</ele>
    <time>2026-07-02T18:18:04Z</time>
    <speed>0.59999996</speed>
  </trkpt>
  <trkpt lat="50.633640" lon="-3.654618">
    <ele>121</ele>
    <time>2026-07-02T18:18:31Z</time>
    <speed>1.4399999</speed>
  </trkpt>
  <trkpt lat="50.633533" lon="-3.654714">
    <ele>118</ele>
    <time>2026-07-02T18:18:42Z</time>
    <speed>1.15</speed>
  </trkpt>
  <trkpt lat="50.633446" lon="-3.654840">
    <ele>120</ele>
    <time>2026-07-02T18:18:53Z</time>
    <speed>1.36</speed>
  </trkpt>
  <trkpt lat="50.633348" lon="-3.654959">
    <ele>120</ele>
    <time>2026-07-02T18:19:04Z</time>
    <speed>1.4</speed>
  </trkpt>
  <trkpt lat="50.633282" lon="-3.655118">
    <ele>123</ele>
    <time>2026-07-02T18:19:15Z</time>
    <speed>1.0799999</speed>
  </trkpt>
  <trkpt lat="50.633216" lon="-3.655264">
    <ele>125</ele>
    <time>2026-07-02T18:19:26Z</time>
    <speed>0.87</speed>
  </trkpt>
  <trkpt lat="50.633131" lon="-3.655435">
    <ele>123</ele>
    <time>2026-07-02T18:19:37Z</time>
    <speed>1.06</speed>
  </trkpt>
  <trkpt lat="50.633160" lon="-3.655570">
    <ele>127</ele>
    <time>2026-07-02T18:20:10Z</time>
    <speed>0.95</speed>
  </trkpt>
  <trkpt lat="50.633242" lon="-3.655665">
    <ele>124</ele>
    <time>2026-07-02T18:20:22Z</time>
    <speed>1.13</speed>
  </trkpt>
  <trkpt lat="50.633324" lon="-3.655747">
    <ele>118</ele>
    <time>2026-07-02T18:20:33Z</time>
    <speed>0.87</speed>
  </trkpt>
  <trkpt lat="50.633425" lon="-3.655859">
    <ele>130</ele>
    <time>2026-07-02T18:20:44Z</time>
    <speed>1.3</speed>
  </trkpt>
  <trkpt lat="50.633523" lon="-3.655968">
    <ele>131</ele>
    <time>2026-07-02T18:20:55Z</time>
    <speed>0.32999998</speed>
  </trkpt>
  <trkpt lat="50.633600" lon="-3.656098">
    <ele>128</ele>
    <time>2026-07-02T18:21:06Z</time>
    <speed>1.18</speed>
  </trkpt>
  <trkpt lat="50.633657" lon="-3.656210">
    <ele>133</ele>
    <time>2026-07-02T18:21:43Z</time>
    <speed>0.58</speed>
  </trkpt>
  <trkpt lat="50.633744" lon="-3.656283">
    <ele>137</ele>
    <time>2026-07-02T18:21:54Z</time>
    <speed>0.97999996</speed>
  </trkpt>
  <trkpt lat="50.633831" lon="-3.656384">
    <ele>136</ele>
    <time>2026-07-02T18:22:05Z</time>
    <speed>1.1</speed>
  </trkpt>
  <trkpt lat="50.633931" lon="-3.656512">
    <ele>138</ele>
    <time>2026-07-02T18:22:16Z</time>
    <speed>1.14</speed>
  </trkpt>
  <trkpt lat="50.634018" lon="-3.656620">
    <ele>130</ele>
    <time>2026-07-02T18:22:27Z</time>
    <speed>1.56</speed>
  </trkpt>
  <trkpt lat="50.634126" lon="-3.656696">
    <ele>144</ele>
    <time>2026-07-02T18:22:38Z</time>
    <speed>1.29</speed>
  </trkpt>
  <trkpt lat="50.634225" lon="-3.656795">
    <ele>140</ele>
    <time>2026-07-02T18:22:49Z</time>
    <speed>1.1899999</speed>
  </trkpt>
  <trkpt lat="50.634343" lon="-3.656939">
    <ele>139</ele>
    <time>2026-07-02T18:23:00Z</time>
    <speed>1.38</speed>
  </trkpt>
  <trkpt lat="50.634437" lon="-3.657073">
    <ele>141</ele>
    <time>2026-07-02T18:23:11Z</time>
    <speed>1.22</speed>
  </trkpt>
  <trkpt lat="50.634535" lon="-3.657218">
    <ele>140</ele>
    <time>2026-07-02T18:23:22Z</time>
    <speed>0.94</speed>
  </trkpt>
  <trkpt lat="50.634646" lon="-3.657332">
    <ele>142</ele>
    <time>2026-07-02T18:23:33Z</time>
    <speed>1.11</speed>
  </trkpt>
  <trkpt lat="50.634762" lon="-3.657442">
    <ele>140</ele>
    <time>2026-07-02T18:23:44Z</time>
    <speed>1.04</speed>
  </trkpt>
  <trkpt lat="50.634841" lon="-3.657567">
    <ele>140</ele>
    <time>2026-07-02T18:23:55Z</time>
    <speed>1.06</speed>
  </trkpt>
  <trkpt lat="50.634937" lon="-3.657695">
    <ele>137</ele>
    <time>2026-07-02T18:24:06Z</time>
    <speed>1.23</speed>
  </trkpt>
  <trkpt lat="50.635024" lon="-3.657843">
    <ele>136</ele>
    <time>2026-07-02T18:24:17Z</time>
    <speed>1.0799999</speed>
  </trkpt>
  <trkpt lat="50.635129" lon="-3.657962">
    <ele>138</ele>
    <time>2026-07-02T18:24:28Z</time>
    <speed>1.27</speed>
  </trkpt>
  <trkpt lat="50.635217" lon="-3.658085">
    <ele>131</ele>
    <time>2026-07-02T18:24:39Z</time>
    <speed>1.05</speed>
  </trkpt>
  <trkpt lat="50.635295" lon="-3.658197">
    <ele>133</ele>
    <time>2026-07-02T18:24:50Z</time>
    <speed>0.87</speed>
  </trkpt>
  <trkpt lat="50.635385" lon="-3.658328">
    <ele>134</ele>
    <time>2026-07-02T18:25:01Z</time>
    <speed>0.89</speed>
  </trkpt>
  <trkpt lat="50.635473" lon="-3.658475">
    <ele>130</ele>
    <time>2026-07-02T18:25:12Z</time>
    <speed>1.3399999</speed>
  </trkpt>
  <trkpt lat="50.635570" lon="-3.658556">
    <ele>128</ele>
    <time>2026-07-02T18:25:23Z</time>
    <speed>0.89</speed>
  </trkpt>
  <trkpt lat="50.635660" lon="-3.658724">
    <ele>123</ele>
    <time>2026-07-02T18:25:34Z</time>
    <speed>1.5</speed>
  </trkpt>
  <trkpt lat="50.635749" lon="-3.658864">
    <ele>130</ele>
    <time>2026-07-02T18:25:45Z</time>
    <speed>1.02</speed>
  </trkpt>
  <trkpt lat="50.635869" lon="-3.658900">
    <ele>128</ele>
    <time>2026-07-02T18:25:56Z</time>
    <speed>1.09</speed>
  </trkpt>
  <trkpt lat="50.635977" lon="-3.658847">
    <ele>126</ele>
    <time>2026-07-02T18:26:07Z</time>
    <speed>0.17999999</speed>
  </trkpt>
  <trkpt lat="50.636097" lon="-3.658759">
    <ele>125</ele>
    <time>2026-07-02T18:26:18Z</time>
    <speed>0.59999996</speed>
  </trkpt>
  <trkpt lat="50.636110" lon="-3.658615">
    <ele>123</ele>
    <time>2026-07-02T18:26:51Z</time>
    <speed>0.14999999</speed>
  </trkpt>
  <trkpt lat="50.636200" lon="-3.658657">
    <ele>121</ele>
    <time>2026-07-02T18:27:47Z</time>
    <speed>1.93</speed>
  </trkpt>
  <trkpt lat="50.636290" lon="-3.658714">
    <ele>123</ele>
    <time>2026-07-02T18:27:58Z</time>
    <speed>0.39</speed>
  </trkpt>
  <trkpt lat="50.636285" lon="-3.658857">
    <ele>133</ele>
    <time>2026-07-02T18:39:25Z</time>
    <speed>1.18</speed>
  </trkpt>
  <trkpt lat="50.636246" lon="-3.658989">
    <ele>132</ele>
    <time>2026-07-02T18:39:47Z</time>
    <speed>0.65999997</speed>
  </trkpt>
  <trkpt lat="50.636147" lon="-3.659071">
    <ele>120</ele>
    <time>2026-07-02T18:39:58Z</time>
    <speed>0.66999996</speed>
  </trkpt>
  <trkpt lat="50.636076" lon="-3.659160">
    <ele>110</ele>
    <time>2026-07-02T18:40:19Z</time>
    <speed>0.35999998</speed>
  </trkpt>
  <trkpt lat="50.636061" lon="-3.659356">
    <ele>120</ele>
    <time>2026-07-02T18:40:30Z</time>
    <speed>1.24</speed>
  </trkpt>
  <trkpt lat="50.636020" lon="-3.659525">
    <ele>128</ele>
    <time>2026-07-02T18:40:41Z</time>
    <speed>0.79999995</speed>
  </trkpt>
  <trkpt lat="50.635989" lon="-3.659669">
    <ele>128</ele>
    <time>2026-07-02T18:40:52Z</time>
    <speed>1.4699999</speed>
  </trkpt>
  <trkpt lat="50.635947" lon="-3.659904">
    <ele>130</ele>
    <time>2026-07-02T18:41:03Z</time>
    <speed>1.5699999</speed>
  </trkpt>
  <trkpt lat="50.635897" lon="-3.660100">
    <ele>133</ele>
    <time>2026-07-02T18:41:14Z</time>
    <speed>1.0</speed>
  </trkpt>
  <trkpt lat="50.635859" lon="-3.660308">
    <ele>131</ele>
    <time>2026-07-02T18:41:25Z</time>
    <speed>1.0</speed>
  </trkpt>
  <trkpt lat="50.635809" lon="-3.660498">
    <ele>134</ele>
    <time>2026-07-02T18:41:36Z</time>
    <speed>0.94</speed>
  </trkpt>
  <trkpt lat="50.635728" lon="-3.660735">
    <ele>131</ele>
    <time>2026-07-02T18:41:47Z</time>
    <speed>1.16</speed>
  </trkpt>
  <trkpt lat="50.635659" lon="-3.660962">
    <ele>131</ele>
    <time>2026-07-02T18:41:58Z</time>
    <speed>1.09</speed>
  </trkpt>
  <trkpt lat="50.635608" lon="-3.661164">
    <ele>132</ele>
    <time>2026-07-02T18:42:09Z</time>
    <speed>0.57</speed>
  </trkpt>
  <trkpt lat="50.635582" lon="-3.661332">
    <ele>123</ele>
    <time>2026-07-02T18:42:20Z</time>
    <speed>1.02</speed>
  </trkpt>
  <trkpt lat="50.635528" lon="-3.661504">
    <ele>130</ele>
    <time>2026-07-02T18:42:31Z</time>
    <speed>1.23</speed>
  </trkpt>
  <trkpt lat="50.635426" lon="-3.661765">
    <ele>133</ele>
    <time>2026-07-02T18:42:42Z</time>
    <speed>1.3299999</speed>
  </trkpt>
  <trkpt lat="50.635351" lon="-3.662017">
    <ele>131</ele>
    <time>2026-07-02T18:42:53Z</time>
    <speed>1.5</speed>
  </trkpt>
  <trkpt lat="50.635303" lon="-3.662212">
    <ele>129</ele>
    <time>2026-07-02T18:43:04Z</time>
    <speed>0.96999997</speed>
  </trkpt>
  <trkpt lat="50.635289" lon="-3.662410">
    <ele>133</ele>
    <time>2026-07-02T18:43:15Z</time>
    <speed>0.74</speed>
  </trkpt>
  <trkpt lat="50.635245" lon="-3.662726">
    <ele>131</ele>
    <time>2026-07-02T18:43:26Z</time>
    <speed>2.28</speed>
  </trkpt>
  <trkpt lat="50.635246" lon="-3.662971">
    <ele>129</ele>
    <time>2026-07-02T18:43:37Z</time>
    <speed>0.78999996</speed>
  </trkpt>
  <trkpt lat="50.635227" lon="-3.663204">
    <ele>121</ele>
    <time>2026-07-02T18:43:48Z</time>
    <speed>0.61</speed>
  </trkpt>
  <trkpt lat="50.635240" lon="-3.663355">
    <ele>131</ele>
    <time>2026-07-02T18:43:59Z</time>
    <speed>1.3</speed>
  </trkpt>
  <trkpt lat="50.635194" lon="-3.663625">
    <ele>133</ele>
    <time>2026-07-02T18:44:10Z</time>
    <speed>1.52</speed>
  </trkpt>
  <trkpt lat="50.635174" lon="-3.663877">
    <ele>133</ele>
    <time>2026-07-02T18:44:21Z</time>
    <speed>1.1999999</speed>
  </trkpt>
  <trkpt lat="50.635157" lon="-3.664086">
    <ele>124</ele>
    <time>2026-07-02T18:44:32Z</time>
    <speed>0.76</speed>
  </trkpt>
  <trkpt lat="50.635111" lon="-3.664335">
    <ele>130</ele>
    <time>2026-07-02T18:44:43Z</time>
    <speed>1.41</speed>
  </trkpt>
  <trkpt lat="50.635067" lon="-3.664584">
    <ele>131</ele>
    <time>2026-07-02T18:44:54Z</time>
    <speed>1.0</speed>
  </trkpt>
  <trkpt lat="50.635007" lon="-3.664782">
    <ele>132</ele>
    <time>2026-07-02T18:45:05Z</time>
    <speed>0.9</speed>
  </trkpt>
  <trkpt lat="50.634941" lon="-3.664993">
    <ele>120</ele>
    <time>2026-07-02T18:45:16Z</time>
    <speed>1.0</speed>
  </trkpt>
  <trkpt lat="50.634879" lon="-3.665235">
    <ele>128</ele>
    <time>2026-07-02T18:45:27Z</time>
    <speed>1.76</speed>
  </trkpt>
  <trkpt lat="50.634806" lon="-3.665460">
    <ele>126</ele>
    <time>2026-07-02T18:45:38Z</time>
    <speed>0.84999996</speed>
  </trkpt>
  <trkpt lat="50.634780" lon="-3.665651">
    <ele>125</ele>
    <time>2026-07-02T18:45:49Z</time>
    <speed>1.02</speed>
  </trkpt>
  <trkpt lat="50.634737" lon="-3.665906">
    <ele>127</ele>
    <time>2026-07-02T18:46:00Z</time>
    <speed>0.98999995</speed>
  </trkpt>
  <trkpt lat="50.634750" lon="-3.666100">
    <ele>121</ele>
    <time>2026-07-02T18:46:11Z</time>
    <speed>1.29</speed>
  </trkpt>
  <trkpt lat="50.634730" lon="-3.666289">
    <ele>122</ele>
    <time>2026-07-02T18:46:22Z</time>
    <speed>1.0699999</speed>
  </trkpt>
  <trkpt lat="50.634677" lon="-3.666480">
    <ele>121</ele>
    <time>2026-07-02T18:46:33Z</time>
    <speed>1.75</speed>
  </trkpt>
  <trkpt lat="50.634645" lon="-3.666699">
    <ele>116</ele>
    <time>2026-07-02T18:46:44Z</time>
    <speed>1.2099999</speed>
  </trkpt>
  <trkpt lat="50.634585" lon="-3.666843">
    <ele>114</ele>
    <time>2026-07-02T18:46:55Z</time>
    <speed>0.93</speed>
  </trkpt>
  <trkpt lat="50.634562" lon="-3.667032">
    <ele>112</ele>
    <time>2026-07-02T18:47:06Z</time>
    <speed>1.43</speed>
  </trkpt>
  <trkpt lat="50.634519" lon="-3.667229">
    <ele>109</ele>
    <time>2026-07-02T18:47:17Z</time>
    <speed>1.16</speed>
  </trkpt>
  <trkpt lat="50.634475" lon="-3.667421">
    <ele>104</ele>
    <time>2026-07-02T18:47:28Z</time>
    <speed>1.1</speed>
  </trkpt>
  <trkpt lat="50.634382" lon="-3.667491">
    <ele>106</ele>
    <time>2026-07-02T18:47:39Z</time>
    <speed>0.89</speed>
  </trkpt>
  <trkpt lat="50.634346" lon="-3.667638">
    <ele>102</ele>
    <time>2026-07-02T18:47:50Z</time>
    <speed>1.22</speed>
  </trkpt>
  <trkpt lat="50.634304" lon="-3.667807">
    <ele>100</ele>
    <time>2026-07-02T18:48:01Z</time>
    <speed>0.07</speed>
  </trkpt>
  <trkpt lat="50.634238" lon="-3.667918">
    <ele>96</ele>
    <time>2026-07-02T18:48:12Z</time>
    <speed>1.3299999</speed>
  </trkpt>
  <trkpt lat="50.634179" lon="-3.668159">
    <ele>94</ele>
    <time>2026-07-02T18:48:23Z</time>
    <speed>1.42</speed>
  </trkpt>
  <trkpt lat="50.634076" lon="-3.668267">
    <ele>92</ele>
    <time>2026-07-02T18:48:34Z</time>
    <speed>1.7199999</speed>
  </trkpt>
  <trkpt lat="50.633936" lon="-3.668317">
    <ele>93</ele>
    <time>2026-07-02T18:48:45Z</time>
    <speed>1.54</speed>
  </trkpt>
  <trkpt lat="50.633827" lon="-3.668385">
    <ele>84</ele>
    <time>2026-07-02T18:48:56Z</time>
    <speed>1.38</speed>
  </trkpt>
  <trkpt lat="50.633705" lon="-3.668505">
    <ele>99</ele>
    <time>2026-07-02T18:49:07Z</time>
    <speed>1.76</speed>
  </trkpt>
  <trkpt lat="50.633618" lon="-3.668651">
    <ele>94</ele>
    <time>2026-07-02T18:49:18Z</time>
    <speed>0.96</speed>
  </trkpt>
  <trkpt lat="50.633562" lon="-3.668784">
    <ele>101</ele>
    <time>2026-07-02T18:49:29Z</time>
    <speed>0.58</speed>
  </trkpt>
  <trkpt lat="50.633508" lon="-3.668914">
    <ele>102</ele>
    <time>2026-07-02T18:49:40Z</time>
    <speed>0.63</speed>
  </trkpt>
  <trkpt lat="50.633424" lon="-3.669060">
    <ele>102</ele>
    <time>2026-07-02T18:49:51Z</time>
    <speed>0.66999996</speed>
  </trkpt>
  <trkpt lat="50.633355" lon="-3.669183">
    <ele>105</ele>
    <time>2026-07-02T18:50:02Z</time>
    <speed>1.17</speed>
  </trkpt>
  <trkpt lat="50.633265" lon="-3.669279">
    <ele>107</ele>
    <time>2026-07-02T18:50:13Z</time>
    <speed>0.89</speed>
  </trkpt>
  <trkpt lat="50.633175" lon="-3.669405">
    <ele>108</ele>
    <time>2026-07-02T18:50:24Z</time>
    <speed>1.03</speed>
  </trkpt>
  <trkpt lat="50.633100" lon="-3.669517">
    <ele>103</ele>
    <time>2026-07-02T18:50:35Z</time>
    <speed>1.54</speed>
  </trkpt>
  <trkpt lat="50.633049" lon="-3.669649">
    <ele>105</ele>
    <time>2026-07-02T18:50:50Z</time>
    <speed>1.2099999</speed>
  </trkpt>
  <trkpt lat="50.632981" lon="-3.669760">
    <ele>117</ele>
    <time>2026-07-02T18:51:02Z</time>
    <speed>1.25</speed>
  </trkpt>
  <trkpt lat="50.632899" lon="-3.669849">
    <ele>118</ele>
    <time>2026-07-02T18:51:13Z</time>
    <speed>1.01</speed>
  </trkpt>
  <trkpt lat="50.632800" lon="-3.669946">
    <ele>119</ele>
    <time>2026-07-02T18:51:24Z</time>
    <speed>1.48</speed>
  </trkpt>
  <trkpt lat="50.632710" lon="-3.670041">
    <ele>121</ele>
    <time>2026-07-02T18:51:35Z</time>
    <speed>1.02</speed>
  </trkpt>
  <trkpt lat="50.632593" lon="-3.670113">
    <ele>120</ele>
    <time>2026-07-02T18:51:46Z</time>
    <speed>1.22</speed>
  </trkpt>
  <trkpt lat="50.632475" lon="-3.670199">
    <ele>129</ele>
    <time>2026-07-02T18:51:57Z</time>
    <speed>1.6999999</speed>
  </trkpt>
  <trkpt lat="50.632354" lon="-3.670293">
    <ele>126</ele>
    <time>2026-07-02T18:52:08Z</time>
    <speed>1.4499999</speed>
  </trkpt>
  <trkpt lat="50.632239" lon="-3.670419">
    <ele>127</ele>
    <time>2026-07-02T18:52:19Z</time>
    <speed>1.63</speed>
  </trkpt>
  <trkpt lat="50.632162" lon="-3.670553">
    <ele>123</ele>
    <time>2026-07-02T18:52:30Z</time>
    <speed>1.3399999</speed>
  </trkpt>
  <trkpt lat="50.632070" lon="-3.670696">
    <ele>127</ele>
    <time>2026-07-02T18:52:41Z</time>
    <speed>1.3199999</speed>
  </trkpt>
  <trkpt lat="50.632000" lon="-3.670855">
    <ele>132</ele>
    <time>2026-07-02T18:52:52Z</time>
    <speed>1.05</speed>
  </trkpt>
  <trkpt lat="50.631917" lon="-3.671019">
    <ele>133</ele>
    <time>2026-07-02T18:53:03Z</time>
    <speed>1.68</speed>
  </trkpt>
  <trkpt lat="50.631822" lon="-3.671202">
    <ele>124</ele>
    <time>2026-07-02T18:53:14Z</time>
    <speed>1.76</speed>
  </trkpt>
  <trkpt lat="50.631749" lon="-3.671381">
    <ele>137</ele>
    <time>2026-07-02T18:53:25Z</time>
    <speed>1.43</speed>
  </trkpt>
  <trkpt lat="50.631686" lon="-3.671574">
    <ele>136</ele>
    <time>2026-07-02T18:53:36Z</time>
    <speed>1.18</speed>
  </trkpt>
  <trkpt lat="50.631625" lon="-3.671775">
    <ele>136</ele>
    <time>2026-07-02T18:53:47Z</time>
    <speed>1.81</speed>
  </trkpt>
  <trkpt lat="50.631573" lon="-3.671981">
    <ele>139</ele>
    <time>2026-07-02T18:53:58Z</time>
    <speed>1.23</speed>
  </trkpt>
  <trkpt lat="50.631526" lon="-3.672184">
    <ele>139</ele>
    <time>2026-07-02T18:54:09Z</time>
    <speed>1.4499999</speed>
  </trkpt>
  <trkpt lat="50.631470" lon="-3.672392">
    <ele>141</ele>
    <time>2026-07-02T18:54:20Z</time>
    <speed>1.16</speed>
  </trkpt>
  <trkpt lat="50.631430" lon="-3.672625">
    <ele>139</ele>
    <time>2026-07-02T18:54:31Z</time>
    <speed>1.24</speed>
  </trkpt>
  <trkpt lat="50.631351" lon="-3.672845">
    <ele>136</ele>
    <time>2026-07-02T18:54:42Z</time>
    <speed>1.35</speed>
  </trkpt>
  <trkpt lat="50.631289" lon="-3.673024">
    <ele>141</ele>
    <time>2026-07-02T18:54:53Z</time>
    <speed>1.54</speed>
  </trkpt>
  <trkpt lat="50.631216" lon="-3.673239">
    <ele>141</ele>
    <time>2026-07-02T18:55:04Z</time>
    <speed>1.0</speed>
  </trkpt>
  <trkpt lat="50.631150" lon="-3.673432">
    <ele>141</ele>
    <time>2026-07-02T18:55:15Z</time>
    <speed>1.24</speed>
  </trkpt>
  <trkpt lat="50.631160" lon="-3.673580">
    <ele>144</ele>
    <time>2026-07-02T18:59:56Z</time>
    <speed>0.98999995</speed>
  </trkpt>
  <trkpt lat="50.631114" lon="-3.673745">
    <ele>146</ele>
    <time>2026-07-02T19:00:07Z</time>
    <speed>1.23</speed>
  </trkpt>
  <trkpt lat="50.631059" lon="-3.673920">
    <ele>143</ele>
    <time>2026-07-02T19:00:18Z</time>
    <speed>1.4599999</speed>
  </trkpt>
  <trkpt lat="50.631012" lon="-3.674145">
    <ele>144</ele>
    <time>2026-07-02T19:00:29Z</time>
    <speed>1.35</speed>
  </trkpt>
  <trkpt lat="50.630973" lon="-3.674351">
    <ele>147</ele>
    <time>2026-07-02T19:00:40Z</time>
    <speed>1.8199999</speed>
  </trkpt>
  <trkpt lat="50.630968" lon="-3.674565">
    <ele>136</ele>
    <time>2026-07-02T19:00:51Z</time>
    <speed>1.26</speed>
  </trkpt>
  <trkpt lat="50.630993" lon="-3.674801">
    <ele>143</ele>
    <time>2026-07-02T19:01:02Z</time>
    <speed>1.36</speed>
  </trkpt>
  <trkpt lat="50.631024" lon="-3.675013">
    <ele>142</ele>
    <time>2026-07-02T19:01:13Z</time>
    <speed>1.4599999</speed>
  </trkpt>
  <trkpt lat="50.631054" lon="-3.675246">
    <ele>145</ele>
    <time>2026-07-02T19:01:24Z</time>
    <speed>1.5</speed>
  </trkpt>
  <trkpt lat="50.631075" lon="-3.675480">
    <ele>135</ele>
    <time>2026-07-02T19:01:35Z</time>
    <speed>1.51</speed>
  </trkpt>
  <trkpt lat="50.631130" lon="-3.675668">
    <ele>141</ele>
    <time>2026-07-02T19:01:46Z</time>
    <speed>1.48</speed>
  </trkpt>
  <trkpt lat="50.631159" lon="-3.675860">
    <ele>142</ele>
    <time>2026-07-02T19:01:57Z</time>
    <speed>1.4</speed>
  </trkpt>
  <trkpt lat="50.631227" lon="-3.676087">
    <ele>144</ele>
    <time>2026-07-02T19:02:08Z</time>
    <speed>1.24</speed>
  </trkpt>
  <trkpt lat="50.631310" lon="-3.676276">
    <ele>143</ele>
    <time>2026-07-02T19:02:19Z</time>
    <speed>1.48</speed>
  </trkpt>
  <trkpt lat="50.631418" lon="-3.676429">
    <ele>139</ele>
    <time>2026-07-02T19:02:30Z</time>
    <speed>1.8299999</speed>
  </trkpt>
  <trkpt lat="50.631527" lon="-3.676574">
    <ele>140</ele>
    <time>2026-07-02T19:02:41Z</time>
    <speed>0.69</speed>
  </trkpt>
  <trkpt lat="50.631650" lon="-3.676687">
    <ele>142</ele>
    <time>2026-07-02T19:02:52Z</time>
    <speed>1.56</speed>
  </trkpt>
  <trkpt lat="50.631761" lon="-3.676855">
    <ele>139</ele>
    <time>2026-07-02T19:03:03Z</time>
    <speed>1.9599999</speed>
  </trkpt>
  <trkpt lat="50.631851" lon="-3.677011">
    <ele>139</ele>
    <time>2026-07-02T19:03:14Z</time>
    <speed>1.29</speed>
  </trkpt>
  <trkpt lat="50.631918" lon="-3.677201">
    <ele>140</ele>
    <time>2026-07-02T19:03:25Z</time>
    <speed>1.79</speed>
  </trkpt>
  <trkpt lat="50.631978" lon="-3.677410">
    <ele>142</ele>
    <time>2026-07-02T19:03:36Z</time>
    <speed>1.48</speed>
  </trkpt>
  <trkpt lat="50.632042" lon="-3.677615">
    <ele>144</ele>
    <time>2026-07-02T19:03:47Z</time>
    <speed>1.0699999</speed>
  </trkpt>
  <trkpt lat="50.632038" lon="-3.677830">
    <ele>139</ele>
    <time>2026-07-02T19:03:58Z</time>
    <speed>1.06</speed>
  </trkpt>
  <trkpt lat="50.632063" lon="-3.678037">
    <ele>137</ele>
    <time>2026-07-02T19:04:09Z</time>
    <speed>1.2099999</speed>
  </trkpt>
  <trkpt lat="50.632046" lon="-3.678284">
    <ele>138</ele>
    <time>2026-07-02T19:04:20Z</time>
    <speed>1.27</speed>
  </trkpt>
  <trkpt lat="50.632051" lon="-3.678472">
    <ele>134</ele>
    <time>2026-07-02T19:04:31Z</time>
    <speed>1.4599999</speed>
  </trkpt>
  <trkpt lat="50.632067" lon="-3.678751">
    <ele>132</ele>
    <time>2026-07-02T19:04:42Z</time>
    <speed>2.48</speed>
  </trkpt>
  <trkpt lat="50.632121" lon="-3.678935">
    <ele>127</ele>
    <time>2026-07-02T19:04:53Z</time>
    <speed>0.98999995</speed>
  </trkpt>
  <trkpt lat="50.632186" lon="-3.679108">
    <ele>127</ele>
    <time>2026-07-02T19:05:04Z</time>
    <speed>1.4599999</speed>
  </trkpt>
  <trkpt lat="50.632275" lon="-3.679205">
    <ele>128</ele>
    <time>2026-07-02T19:05:15Z</time>
    <speed>0.45</speed>
  </trkpt>
  <trkpt lat="50.632215" lon="-3.679316">
    <ele>114</ele>
    <time>2026-07-02T19:05:48Z</time>
    <speed>1.43</speed>
  </trkpt>
  <trkpt lat="50.632207" lon="-3.679473">
    <ele>120</ele>
    <time>2026-07-02T19:06:06Z</time>
    <speed>0.81</speed>
  </trkpt>
  <trkpt lat="50.632228" lon="-3.679634">
    <ele>122</ele>
    <time>2026-07-02T19:06:17Z</time>
    <speed>1.86</speed>
  </trkpt>
  <trkpt lat="50.632361" lon="-3.679599">
    <ele>121</ele>
    <time>2026-07-02T19:06:28Z</time>
    <speed>0.82</speed>
  </trkpt>
  <trkpt lat="50.632479" lon="-3.679612">
    <ele>118</ele>
    <time>2026-07-02T19:06:39Z</time>
    <speed>1.51</speed>
  </trkpt>
  <trkpt lat="50.632594" lon="-3.679644">
    <ele>112</ele>
    <time>2026-07-02T19:06:50Z</time>
    <speed>1.66</speed>
  </trkpt>
  <trkpt lat="50.632721" lon="-3.679683">
    <ele>119</ele>
    <time>2026-07-02T19:07:01Z</time>
    <speed>1.3299999</speed>
  </trkpt>
  <trkpt lat="50.632868" lon="-3.679718">
    <ele>119</ele>
    <time>2026-07-02T19:07:12Z</time>
    <speed>0.90999997</speed>
  </trkpt>
  <trkpt lat="50.632963" lon="-3.679784">
    <ele>121</ele>
    <time>2026-07-02T19:07:23Z</time>
    <speed>0.7</speed>
  </trkpt>
  <trkpt lat="50.633123" lon="-3.679874">
    <ele>120</ele>
    <time>2026-07-02T19:07:34Z</time>
    <speed>1.02</speed>
  </trkpt>
  <trkpt lat="50.633236" lon="-3.679967">
    <ele>121</ele>
    <time>2026-07-02T19:07:45Z</time>
    <speed>1.13</speed>
  </trkpt>
  <trkpt lat="50.633368" lon="-3.680016">
    <ele>120</ele>
    <time>2026-07-02T19:07:56Z</time>
    <speed>1.65</speed>
  </trkpt>
  <trkpt lat="50.633511" lon="-3.679994">
    <ele>120</ele>
    <time>2026-07-02T19:08:07Z</time>
    <speed>0.79999995</speed>
  </trkpt>
  <trkpt lat="50.633611" lon="-3.680053">
    <ele>119</ele>
    <time>2026-07-02T19:08:18Z</time>
    <speed>0.94</speed>
  </trkpt>
  <trkpt lat="50.633689" lon="-3.680225">
    <ele>123</ele>
    <time>2026-07-02T19:08:29Z</time>
    <speed>1.12</speed>
  </trkpt>
  <trkpt lat="50.633785" lon="-3.680374">
    <ele>121</ele>
    <time>2026-07-02T19:08:40Z</time>
    <speed>0.82</speed>
  </trkpt>
  <trkpt lat="50.633875" lon="-3.680525">
    <ele>120</ele>
    <time>2026-07-02T19:08:51Z</time>
    <speed>1.3</speed>
  </trkpt>
  <trkpt lat="50.633941" lon="-3.680680">
    <ele>121</ele>
    <time>2026-07-02T19:09:02Z</time>
    <speed>0.12</speed>
  </trkpt>
  <trkpt lat="50.634014" lon="-3.680773">
    <ele>120</ele>
    <time>2026-07-02T19:09:28Z</time>
    <speed>0.04</speed>
  </trkpt>
  <trkpt lat="50.634092" lon="-3.680849">
    <ele>117</ele>
    <time>2026-07-02T19:09:51Z</time>
    <speed>1.25</speed>
  </trkpt>
  <trkpt lat="50.634161" lon="-3.680962">
    <ele>123</ele>
    <time>2026-07-02T19:10:02Z</time>
    <speed>0.91999996</speed>
  </trkpt>
  <trkpt lat="50.634252" lon="-3.681097">
    <ele>121</ele>
    <time>2026-07-02T19:10:13Z</time>
    <speed>0.7</speed>
  </trkpt>
  <trkpt lat="50.634367" lon="-3.681164">
    <ele>119</ele>
    <time>2026-07-02T19:10:24Z</time>
    <speed>1.4</speed>
  </trkpt>
  <trkpt lat="50.634499" lon="-3.681231">
    <ele>120</ele>
    <time>2026-07-02T19:10:35Z</time>
    <speed>0.82</speed>
  </trkpt>
  <trkpt lat="50.634605" lon="-3.681289">
    <ele>115</ele>
    <time>2026-07-02T19:10:46Z</time>
    <speed>1.11</speed>
  </trkpt>
  <trkpt lat="50.634713" lon="-3.681317">
    <ele>119</ele>
    <time>2026-07-02T19:10:57Z</time>
    <speed>0.63</speed>
  </trkpt>
  <trkpt lat="50.634818" lon="-3.681342">
    <ele>118</ele>
    <time>2026-07-02T19:11:08Z</time>
    <speed>1.09</speed>
  </trkpt>
  <trkpt lat="50.634951" lon="-3.681372">
    <ele>116</ele>
    <time>2026-07-02T19:11:19Z</time>
    <speed>1.16</speed>
  </trkpt>
  <trkpt lat="50.635076" lon="-3.681412">
    <ele>120</ele>
    <time>2026-07-02T19:11:30Z</time>
    <speed>0.94</speed>
  </trkpt>
  <trkpt lat="50.635192" lon="-3.681464">
    <ele>117</ele>
    <time>2026-07-02T19:11:41Z</time>
    <speed>1.2099999</speed>
  </trkpt>
  <trkpt lat="50.635304" lon="-3.681511">
    <ele>118</ele>
    <time>2026-07-02T19:11:52Z</time>
    <speed>1.1</speed>
  </trkpt>
  <trkpt lat="50.635461" lon="-3.681590">
    <ele>120</ele>
    <time>2026-07-02T19:12:03Z</time>
    <speed>1.14</speed>
  </trkpt>
  <trkpt lat="50.635581" lon="-3.681631">
    <ele>121</ele>
    <time>2026-07-02T19:12:14Z</time>
    <speed>1.48</speed>
  </trkpt>
  <trkpt lat="50.635711" lon="-3.681696">
    <ele>119</ele>
    <time>2026-07-02T19:12:25Z</time>
    <speed>1.3299999</speed>
  </trkpt>
  <trkpt lat="50.635821" lon="-3.681778">
    <ele>119</ele>
    <time>2026-07-02T19:12:36Z</time>
    <speed>1.43</speed>
  </trkpt>
  <trkpt lat="50.635919" lon="-3.681901">
    <ele>118</ele>
    <time>2026-07-02T19:12:47Z</time>
    <speed>1.4599999</speed>
  </trkpt>
  <trkpt lat="50.636056" lon="-3.682010">
    <ele>118</ele>
    <time>2026-07-02T19:12:58Z</time>
    <speed>0.37</speed>
  </trkpt>
  <trkpt lat="50.636183" lon="-3.682082">
    <ele>120</ele>
    <time>2026-07-02T19:13:09Z</time>
    <speed>2.3</speed>
  </trkpt>
  <trkpt lat="50.636289" lon="-3.682163">
    <ele>121</ele>
    <time>2026-07-02T19:13:20Z</time>
    <speed>1.51</speed>
  </trkpt>
  <trkpt lat="50.636416" lon="-3.682286">
    <ele>117</ele>
    <time>2026-07-02T19:13:31Z</time>
    <speed>1.37</speed>
  </trkpt>
  <trkpt lat="50.636541" lon="-3.682394">
    <ele>121</ele>
    <time>2026-07-02T19:13:42Z</time>
    <speed>1.28</speed>
  </trkpt>
  <trkpt lat="50.636717" lon="-3.682376">
    <ele>122</ele>
    <time>2026-07-02T19:13:53Z</time>
    <speed>1.16</speed>
  </trkpt>
  <trkpt lat="50.636793" lon="-3.682473">
    <ele>118</ele>
    <time>2026-07-02T19:14:04Z</time>
    <speed>0.93</speed>
  </trkpt>
  <trkpt lat="50.636901" lon="-3.682582">
    <ele>120</ele>
    <time>2026-07-02T19:14:15Z</time>
    <speed>1.06</speed>
  </trkpt>
  <trkpt lat="50.637018" lon="-3.682727">
    <ele>122</ele>
    <time>2026-07-02T19:14:26Z</time>
    <speed>1.29</speed>
  </trkpt>
  <trkpt lat="50.637152" lon="-3.682905">
    <ele>117</ele>
    <time>2026-07-02T19:14:37Z</time>
    <speed>1.5999999</speed>
  </trkpt>
  <trkpt lat="50.637226" lon="-3.682991">
    <ele>121</ele>
    <time>2026-07-02T19:14:49Z</time>
    <speed>1.4399999</speed>
  </trkpt>
  <trkpt lat="50.637318" lon="-3.683181">
    <ele>116</ele>
    <time>2026-07-02T19:15:00Z</time>
    <speed>1.1999999</speed>
  </trkpt>
  <trkpt lat="50.637294" lon="-3.683396">
    <ele>120</ele>
    <time>2026-07-02T19:15:11Z</time>
    <speed>1.4</speed>
  </trkpt>
  <trkpt lat="50.637241" lon="-3.683568">
    <ele>120</ele>
    <time>2026-07-02T19:15:22Z</time>
    <speed>0.75</speed>
  </trkpt>
  <trkpt lat="50.637160" lon="-3.683673">
    <ele>119</ele>
    <time>2026-07-02T19:15:33Z</time>
    <speed>0.089999996</speed>
  </trkpt>
  <trkpt lat="50.637135" lon="-3.683816">
    <ele>119</ele>
    <time>2026-07-02T19:16:58Z</time>
    <speed>1.2099999</speed>
  </trkpt>
  <trkpt lat="50.637061" lon="-3.683973">
    <ele>119</ele>
    <time>2026-07-02T19:17:09Z</time>
    <speed>0.79999995</speed>
  </trkpt>
  <trkpt lat="50.636998" lon="-3.684128">
    <ele>118</ele>
    <time>2026-07-02T19:17:20Z</time>
    <speed>1.3199999</speed>
  </trkpt>
  <trkpt lat="50.636947" lon="-3.684299">
    <ele>111</ele>
    <time>2026-07-02T19:17:31Z</time>
    <speed>0.96999997</speed>
  </trkpt>
  <trkpt lat="50.636875" lon="-3.684444">
    <ele>117</ele>
    <time>2026-07-02T19:17:42Z</time>
    <speed>2.12</speed>
  </trkpt>
  <trkpt lat="50.636774" lon="-3.684515">
    <ele>122</ele>
    <time>2026-07-02T19:17:53Z</time>
    <speed>1.39</speed>
  </trkpt>
  <trkpt lat="50.636660" lon="-3.684614">
    <ele>125</ele>
    <time>2026-07-02T19:18:04Z</time>
    <speed>0.19999999</speed>
  </trkpt>
  <trkpt lat="50.636592" lon="-3.684714">
    <ele>126</ele>
    <time>2026-07-02T19:18:17Z</time>
    <speed>0.72999996</speed>
  </trkpt>
  <trkpt lat="50.636512" lon="-3.684859">
    <ele>126</ele>
    <time>2026-07-02T19:18:28Z</time>
    <speed>0.17</speed>
  </trkpt>
  <trkpt lat="50.636459" lon="-3.684994">
    <ele>130</ele>
    <time>2026-07-02T19:18:39Z</time>
    <speed>0.93</speed>
  </trkpt>
  <trkpt lat="50.636377" lon="-3.685131">
    <ele>137</ele>
    <time>2026-07-02T19:18:50Z</time>
    <speed>0.93</speed>
  </trkpt>
  <trkpt lat="50.636317" lon="-3.685287">
    <ele>137</ele>
    <time>2026-07-02T19:19:01Z</time>
    <speed>0.88</speed>
  </trkpt>
  <trkpt lat="50.636243" lon="-3.685399">
    <ele>135</ele>
    <time>2026-07-02T19:19:12Z</time>
    <speed>0.91999996</speed>
  </trkpt>
  <trkpt lat="50.636181" lon="-3.685543">
    <ele>133</ele>
    <time>2026-07-02T19:19:23Z</time>
    <speed>1.1899999</speed>
  </trkpt>
  <trkpt lat="50.636096" lon="-3.685681">
    <ele>138</ele>
    <time>2026-07-02T19:19:34Z</time>
    <speed>1.03</speed>
  </trkpt>
  <trkpt lat="50.636030" lon="-3.685865">
    <ele>130</ele>
    <time>2026-07-02T19:19:45Z</time>
    <speed>1.16</speed>
  </trkpt>
  <trkpt lat="50.635960" lon="-3.685996">
    <ele>138</ele>
    <time>2026-07-02T19:19:56Z</time>
    <speed>1.24</speed>
  </trkpt>
  <trkpt lat="50.635919" lon="-3.686188">
    <ele>141</ele>
    <time>2026-07-02T19:20:07Z</time>
    <speed>0.31</speed>
  </trkpt>
  <trkpt lat="50.635921" lon="-3.686398">
    <ele>140</ele>
    <time>2026-07-02T19:20:18Z</time>
    <speed>0.88</speed>
  </trkpt>
  <trkpt lat="50.635868" lon="-3.686590">
    <ele>137</ele>
    <time>2026-07-02T19:20:29Z</time>
    <speed>0.89</speed>
  </trkpt>
  <trkpt lat="50.635782" lon="-3.686769">
    <ele>131</ele>
    <time>2026-07-02T19:20:40Z</time>
    <speed>1.11</speed>
  </trkpt>
  <trkpt lat="50.635727" lon="-3.686935">
    <ele>137</ele>
    <time>2026-07-02T19:20:51Z</time>
    <speed>0.74</speed>
  </trkpt>
  <trkpt lat="50.635660" lon="-3.687118">
    <ele>134</ele>
    <time>2026-07-02T19:21:02Z</time>
    <speed>1.68</speed>
  </trkpt>
  <trkpt lat="50.635579" lon="-3.687315">
    <ele>140</ele>
    <time>2026-07-02T19:21:13Z</time>
    <speed>0.88</speed>
  </trkpt>
  <trkpt lat="50.635554" lon="-3.687527">
    <ele>136</ele>
    <time>2026-07-02T19:21:24Z</time>
    <speed>0.93</speed>
  </trkpt>
  <trkpt lat="50.635448" lon="-3.687726">
    <ele>130</ele>
    <time>2026-07-02T19:21:35Z</time>
    <speed>1.03</speed>
  </trkpt>
  <trkpt lat="50.635407" lon="-3.687880">
    <ele>139</ele>
    <time>2026-07-02T19:21:46Z</time>
    <speed>0.42999998</speed>
  </trkpt>
  <trkpt lat="50.635306" lon="-3.688049">
    <ele>138</ele>
    <time>2026-07-02T19:21:57Z</time>
    <speed>1.91</speed>
  </trkpt>
  <trkpt lat="50.635184" lon="-3.688093">
    <ele>129</ele>
    <time>2026-07-02T19:22:08Z</time>
    <speed>1.04</speed>
  </trkpt>
  <trkpt lat="50.635074" lon="-3.688007">
    <ele>139</ele>
    <time>2026-07-02T19:22:19Z</time>
    <speed>1.54</speed>
  </trkpt>
  <trkpt lat="50.634948" lon="-3.687835">
    <ele>135</ele>
    <time>2026-07-02T19:22:30Z</time>
    <speed>0.75</speed>
  </trkpt>
  <trkpt lat="50.634872" lon="-3.687709">
    <ele>134</ele>
    <time>2026-07-02T19:22:41Z</time>
    <speed>1.23</speed>
  </trkpt>
  <trkpt lat="50.634782" lon="-3.687549">
    <ele>134</ele>
    <time>2026-07-02T19:22:52Z</time>
    <speed>1.05</speed>
  </trkpt>
  <trkpt lat="50.634708" lon="-3.687410">
    <ele>133</ele>
    <time>2026-07-02T19:23:03Z</time>
    <speed>1.15</speed>
  </trkpt>
  <trkpt lat="50.634593" lon="-3.687269">
    <ele>136</ele>
    <time>2026-07-02T19:23:14Z</time>
    <speed>1.74</speed>
  </trkpt>
  <trkpt lat="50.634508" lon="-3.687431">
    <ele>129</ele>
    <time>2026-07-02T19:23:25Z</time>
    <speed>1.16</speed>
  </trkpt>
  <trkpt lat="50.634467" lon="-3.687578">
    <ele>133</ele>
    <time>2026-07-02T19:23:36Z</time>
    <speed>0.39999998</speed>
  </trkpt>
  <trkpt lat="50.634385" lon="-3.687794">
    <ele>127</ele>
    <time>2026-07-02T19:23:47Z</time>
    <speed>1.4399999</speed>
  </trkpt>
  <trkpt lat="50.634294" lon="-3.687999">
    <ele>135</ele>
    <time>2026-07-02T19:23:58Z</time>
    <speed>1.16</speed>
  </trkpt>
  <trkpt lat="50.634215" lon="-3.688225">
    <ele>126</ele>
    <time>2026-07-02T19:24:09Z</time>
    <speed>1.6999999</speed>
  </trkpt>
  <trkpt lat="50.634167" lon="-3.688366">
    <ele>130</ele>
    <time>2026-07-02T19:24:20Z</time>
    <speed>1.4599999</speed>
  </trkpt>
  <trkpt lat="50.634131" lon="-3.688519">
    <ele>131</ele>
    <time>2026-07-02T19:24:31Z</time>
    <speed>1.13</speed>
  </trkpt>
  <trkpt lat="50.634103" lon="-3.688705">
    <ele>133</ele>
    <time>2026-07-02T19:24:42Z</time>
    <speed>0.84999996</speed>
  </trkpt>
  <trkpt lat="50.634016" lon="-3.688920">
    <ele>130</ele>
    <time>2026-07-02T19:24:53Z</time>
    <speed>1.1899999</speed>
  </trkpt>
  <trkpt lat="50.633944" lon="-3.689067">
    <ele>129</ele>
    <time>2026-07-02T19:25:04Z</time>
    <speed>0.82</speed>
  </trkpt>
  <trkpt lat="50.633852" lon="-3.689112">
    <ele>128</ele>
    <time>2026-07-02T19:25:18Z</time>
    <speed>1.4399999</speed>
  </trkpt>
  <trkpt lat="50.633805" lon="-3.689251">
    <ele>135</ele>
    <time>2026-07-02T19:25:29Z</time>
    <speed>1.88</speed>
  </trkpt>
  <trkpt lat="50.633859" lon="-3.689447">
    <ele>134</ele>
    <time>2026-07-02T19:25:40Z</time>
    <speed>1.22</speed>
  </trkpt>
  <trkpt lat="50.633909" lon="-3.689658">
    <ele>128</ele>
    <time>2026-07-02T19:25:51Z</time>
    <speed>1.36</speed>
  </trkpt>
  <trkpt lat="50.633957" lon="-3.689856">
    <ele>137</ele>
    <time>2026-07-02T19:26:02Z</time>
    <speed>1.1899999</speed>
  </trkpt>
  <trkpt lat="50.633999" lon="-3.690098">
    <ele>128</ele>
    <time>2026-07-02T19:26:13Z</time>
    <speed>0.89</speed>
  </trkpt>
  <trkpt lat="50.634064" lon="-3.690273">
    <ele>137</ele>
    <time>2026-07-02T19:26:24Z</time>
    <speed>1.28</speed>
  </trkpt>
  <trkpt lat="50.634113" lon="-3.690461">
    <ele>139</ele>
    <time>2026-07-02T19:26:35Z</time>
    <speed>1.0</speed>
  </trkpt>
  <trkpt lat="50.634064" lon="-3.690580">
    <ele>137</ele>
    <time>2026-07-02T19:26:51Z</time>
    <speed>1.5899999</speed>
  </trkpt>
  <trkpt lat="50.634007" lon="-3.690699">
    <ele>135</ele>
    <time>2026-07-02T19:27:02Z</time>
    <speed>1.0799999</speed>
  </trkpt>
  <trkpt lat="50.633935" lon="-3.690799">
    <ele>136</ele>
    <time>2026-07-02T19:27:13Z</time>
    <speed>0.90999997</speed>
  </trkpt>
  <trkpt lat="50.633841" lon="-3.690897">
    <ele>132</ele>
    <time>2026-07-02T19:27:24Z</time>
    <speed>0.51</speed>
  </trkpt>
  <trkpt lat="50.633723" lon="-3.690891">
    <ele>131</ele>
    <time>2026-07-02T19:27:35Z</time>
    <speed>1.28</speed>
  </trkpt>
  <trkpt lat="50.633612" lon="-3.690871">
    <ele>140</ele>
    <time>2026-07-02T19:27:46Z</time>
    <speed>0.51</speed>
  </trkpt>
  <trkpt lat="50.633527" lon="-3.690935">
    <ele>129</ele>
    <time>2026-07-02T19:28:02Z</time>
    <speed>0.35999998</speed>
  </trkpt>
  <trkpt lat="50.633441" lon="-3.691044">
    <ele>125</ele>
    <time>2026-07-02T19:28:13Z</time>
    <speed>0.79999995</speed>
  </trkpt>
  <trkpt lat="50.633371" lon="-3.691136">
    <ele>127</ele>
    <time>2026-07-02T19:28:34Z</time>
    <speed>0.9</speed>
  </trkpt>
  <trkpt lat="50.633276" lon="-3.691187">
    <ele>126</ele>
    <time>2026-07-02T19:28:58Z</time>
    <speed>0.52</speed>
  </trkpt>
  <trkpt lat="50.633194" lon="-3.691255">
    <ele>121</ele>
    <time>2026-07-02T19:29:12Z</time>
    <speed>0.78999996</speed>
  </trkpt>
  <trkpt lat="50.633122" lon="-3.691418">
    <ele>121</ele>
    <time>2026-07-02T19:29:23Z</time>
    <speed>1.24</speed>
  </trkpt>
  <trkpt lat="50.633060" lon="-3.691535">
    <ele>120</ele>
    <time>2026-07-02T19:29:34Z</time>
    <speed>1.04</speed>
  </trkpt>
  <trkpt lat="50.632980" lon="-3.691606">
    <ele>114</ele>
    <time>2026-07-02T19:29:47Z</time>
    <speed>1.3299999</speed>
  </trkpt>
  <trkpt lat="50.632907" lon="-3.691701">
    <ele>115</ele>
    <time>2026-07-02T19:30:49Z</time>
    <speed>1.02</speed>
  </trkpt>
  <trkpt lat="50.632933" lon="-3.691847">
    <ele>115</ele>
    <time>2026-07-02T19:32:09Z</time>
    <speed>1.68</speed>
  </trkpt>
  <trkpt lat="50.632974" lon="-3.691987">
    <ele>113</ele>
    <time>2026-07-02T19:32:21Z</time>
    <speed>0.81</speed>
  </trkpt>
  <trkpt lat="50.633006" lon="-3.692126">
    <ele>113</ele>
    <time>2026-07-02T19:32:35Z</time>
    <speed>0.82</speed>
  </trkpt>
  <trkpt lat="50.633077" lon="-3.692316">
    <ele>116</ele>
    <time>2026-07-02T19:32:46Z</time>
    <speed>1.12</speed>
  </trkpt>
  <trkpt lat="50.633094" lon="-3.692502">
    <ele>115</ele>
    <time>2026-07-02T19:32:57Z</time>
    <speed>0.9</speed>
  </trkpt>
  <trkpt lat="50.633137" lon="-3.692706">
    <ele>114</ele>
    <time>2026-07-02T19:33:08Z</time>
    <speed>1.41</speed>
  </trkpt>
  <trkpt lat="50.633083" lon="-3.692899">
    <ele>114</ele>
    <time>2026-07-02T19:33:19Z</time>
    <speed>1.51</speed>
  </trkpt>
  <trkpt lat="50.633107" lon="-3.693137">
    <ele>109</ele>
    <time>2026-07-02T19:33:30Z</time>
    <speed>1.18</speed>
  </trkpt>
  <trkpt lat="50.633138" lon="-3.693282">
    <ele>109</ele>
    <time>2026-07-02T19:33:41Z</time>
    <speed>0.9</speed>
  </trkpt>
  <trkpt lat="50.633180" lon="-3.693418">
    <ele>107</ele>
    <time>2026-07-02T19:33:53Z</time>
    <speed>0.94</speed>
  </trkpt>
  <trkpt lat="50.633265" lon="-3.693633">
    <ele>118</ele>
    <time>2026-07-02T19:34:04Z</time>
    <speed>0.56</speed>
  </trkpt>
  <trkpt lat="50.633341" lon="-3.693804">
    <ele>116</ele>
    <time>2026-07-02T19:34:15Z</time>
    <speed>1.12</speed>
  </trkpt>
  <trkpt lat="50.633401" lon="-3.693995">
    <ele>106</ele>
    <time>2026-07-02T19:34:26Z</time>
    <speed>1.11</speed>
  </trkpt>
  <trkpt lat="50.633469" lon="-3.694157">
    <ele>113</ele>
    <time>2026-07-02T19:34:37Z</time>
    <speed>0.48</speed>
  </trkpt>
  <trkpt lat="50.633552" lon="-3.694220">
    <ele>112</ele>
    <time>2026-07-02T19:34:52Z</time>
    <speed>1.1</speed>
  </trkpt>
  <trkpt lat="50.633691" lon="-3.694327">
    <ele>116</ele>
    <time>2026-07-02T19:35:03Z</time>
    <speed>1.3</speed>
  </trkpt>
  <trkpt lat="50.633791" lon="-3.694478">
    <ele>114</ele>
    <time>2026-07-02T19:35:14Z</time>
    <speed>0.62</speed>
  </trkpt>
  <trkpt lat="50.633873" lon="-3.694663">
    <ele>116</ele>
    <time>2026-07-02T19:35:25Z</time>
    <speed>0.90999997</speed>
  </trkpt>
  <trkpt lat="50.633979" lon="-3.694800">
    <ele>115</ele>
    <time>2026-07-02T19:35:36Z</time>
    <speed>1.01</speed>
  </trkpt>
  <trkpt lat="50.634071" lon="-3.694912">
    <ele>113</ele>
    <time>2026-07-02T19:35:47Z</time>
    <speed>0.35</speed>
  </trkpt>
  <trkpt lat="50.634179" lon="-3.694966">
    <ele>115</ele>
    <time>2026-07-02T19:35:58Z</time>
    <speed>1.88</speed>
  </trkpt>
  <trkpt lat="50.634301" lon="-3.695111">
    <ele>117</ele>
    <time>2026-07-02T19:36:09Z</time>
    <speed>2.69</speed>
  </trkpt>
  <trkpt lat="50.634355" lon="-3.695260">
    <ele>118</ele>
    <time>2026-07-02T19:36:20Z</time>
    <speed>0.85999995</speed>
  </trkpt>
  <trkpt lat="50.634478" lon="-3.695393">
    <ele>115</ele>
    <time>2026-07-02T19:36:31Z</time>
    <speed>1.11</speed>
  </trkpt>
  <trkpt lat="50.634531" lon="-3.695627">
    <ele>119</ele>
    <time>2026-07-02T19:36:42Z</time>
    <speed>1.03</speed>
  </trkpt>
  <trkpt lat="50.634588" lon="-3.695777">
    <ele>122</ele>
    <time>2026-07-02T19:36:53Z</time>
    <speed>0.45</speed>
  </trkpt>
  <trkpt lat="50.634519" lon="-3.695914">
    <ele>115</ele>
    <time>2026-07-02T19:37:04Z</time>
    <speed>0.71999997</speed>
  </trkpt>
  <trkpt lat="50.634545" lon="-3.696050">
    <ele>114</ele>
    <time>2026-07-02T19:37:29Z</time>
    <speed>0.22</speed>
  </trkpt>
  <trkpt lat="50.634480" lon="-3.696149">
    <ele>114</ele>
    <time>2026-07-02T19:38:16Z</time>
    <speed>0.25</speed>
  </trkpt>
  <trkpt lat="50.634380" lon="-3.696090">
    <ele>109</ele>
    <time>2026-07-02T19:38:27Z</time>
    <speed>1.42</speed>
  </trkpt>
  <trkpt lat="50.634252" lon="-3.695990">
    <ele>114</ele>
    <time>2026-07-02T19:38:38Z</time>
    <speed>0.90999997</speed>
  </trkpt>
  <trkpt lat="50.634143" lon="-3.695874">
    <ele>115</ele>
    <time>2026-07-02T19:38:49Z</time>
    <speed>0.83</speed>
  </trkpt>
  <trkpt lat="50.634011" lon="-3.695813">
    <ele>111</ele>
    <time>2026-07-02T19:39:00Z</time>
    <speed>1.3399999</speed>
  </trkpt>
  <trkpt lat="50.633919" lon="-3.695662">
    <ele>117</ele>
    <time>2026-07-02T19:39:11Z</time>
    <speed>1.0699999</speed>
  </trkpt>
  <trkpt lat="50.633835" lon="-3.695520">
    <ele>113</ele>
    <time>2026-07-02T19:39:22Z</time>
    <speed>1.64</speed>
  </trkpt>
  <trkpt lat="50.633718" lon="-3.695397">
    <ele>109</ele>
    <time>2026-07-02T19:39:33Z</time>
    <speed>0.90999997</speed>
  </trkpt>
  <trkpt lat="50.633622" lon="-3.695296">
    <ele>113</ele>
    <time>2026-07-02T19:39:44Z</time>
    <speed>0.96999997</speed>
  </trkpt>
  <trkpt lat="50.633523" lon="-3.695201">
    <ele>113</ele>
    <time>2026-07-02T19:39:55Z</time>
    <speed>1.24</speed>
  </trkpt>
  <trkpt lat="50.633420" lon="-3.695051">
    <ele>112</ele>
    <time>2026-07-02T19:40:06Z</time>
    <speed>1.02</speed>
  </trkpt>
  <trkpt lat="50.633283" lon="-3.694881">
    <ele>107</ele>
    <time>2026-07-02T19:40:17Z</time>
    <speed>1.41</speed>
  </trkpt>
  <trkpt lat="50.633182" lon="-3.694894">
    <ele>113</ele>
    <time>2026-07-02T19:40:28Z</time>
    <speed>0.61</speed>
  </trkpt>
  <trkpt lat="50.633057" lon="-3.694979">
    <ele>108</ele>
    <time>2026-07-02T19:40:39Z</time>
    <speed>1.04</speed>
  </trkpt>
  <trkpt lat="50.632930" lon="-3.694987">
    <ele>116</ele>
    <time>2026-07-02T19:40:50Z</time>
    <speed>0.83</speed>
  </trkpt>
  <trkpt lat="50.632906" lon="-3.694792">
    <ele>107</ele>
    <time>2026-07-02T19:41:01Z</time>
    <speed>0.64</speed>
  </trkpt>
  <trkpt lat="50.632857" lon="-3.694586">
    <ele>115</ele>
    <time>2026-07-02T19:41:12Z</time>
    <speed>0.93</speed>
  </trkpt>
  <trkpt lat="50.632838" lon="-3.694378">
    <ele>111</ele>
    <time>2026-07-02T19:41:23Z</time>
    <speed>1.12</speed>
  </trkpt>
  <trkpt lat="50.632750" lon="-3.694169">
    <ele>112</ele>
    <time>2026-07-02T19:41:34Z</time>
    <speed>1.61</speed>
  </trkpt>
  <trkpt lat="50.632701" lon="-3.693969">
    <ele>114</ele>
    <time>2026-07-02T19:41:45Z</time>
    <speed>0.84999996</speed>
  </trkpt>
  <trkpt lat="50.632656" lon="-3.693816">
    <ele>112</ele>
    <time>2026-07-02T19:41:56Z</time>
    <speed>0.59</speed>
  </trkpt>
  <trkpt lat="50.632554" lon="-3.693676">
    <ele>111</ele>
    <time>2026-07-02T19:42:07Z</time>
    <speed>1.03</speed>
  </trkpt>
  <trkpt lat="50.632495" lon="-3.693545">
    <ele>115</ele>
    <time>2026-07-02T19:42:18Z</time>
    <speed>0.71999997</speed>
  </trkpt>
  <trkpt lat="50.632375" lon="-3.693374">
    <ele>114</ele>
    <time>2026-07-02T19:42:29Z</time>
    <speed>0.52</speed>
  </trkpt>
  <trkpt lat="50.632281" lon="-3.693182">
    <ele>112</ele>
    <time>2026-07-02T19:42:40Z</time>
    <speed>3.07</speed>
  </trkpt>
  <trkpt lat="50.632164" lon="-3.693079">
    <ele>114</ele>
    <time>2026-07-02T19:42:51Z</time>
    <speed>0.98999995</speed>
  </trkpt>
  <trkpt lat="50.632049" lon="-3.693039">
    <ele>116</ele>
    <time>2026-07-02T19:43:02Z</time>
    <speed>1.5899999</speed>
  </trkpt>
  <trkpt lat="50.631932" lon="-3.692964">
    <ele>114</ele>
    <time>2026-07-02T19:43:13Z</time>
    <speed>0.42999998</speed>
  </trkpt>
  <trkpt lat="50.631809" lon="-3.692881">
    <ele>111</ele>
    <time>2026-07-02T19:43:24Z</time>
    <speed>1.35</speed>
  </trkpt>
  <trkpt lat="50.631693" lon="-3.692782">
    <ele>112</ele>
    <time>2026-07-02T19:43:35Z</time>
    <speed>0.53999996</speed>
  </trkpt>
  <trkpt lat="50.631549" lon="-3.692751">
    <ele>115</ele>
    <time>2026-07-02T19:43:46Z</time>
    <speed>1.48</speed>
  </trkpt>
  <trkpt lat="50.631392" lon="-3.692793">
    <ele>112</ele>
    <time>2026-07-02T19:43:57Z</time>
    <speed>1.3299999</speed>
  </trkpt>
  <trkpt lat="50.631256" lon="-3.692868">
    <ele>113</ele>
    <time>2026-07-02T19:44:08Z</time>
    <speed>1.9</speed>
  </trkpt>
  <trkpt lat="50.631144" lon="-3.692952">
    <ele>106</ele>
    <time>2026-07-02T19:44:19Z</time>
    <speed>0.95</speed>
  </trkpt>
  <trkpt lat="50.631070" lon="-3.693076">
    <ele>114</ele>
    <time>2026-07-02T19:44:30Z</time>
    <speed>0.96999997</speed>
  </trkpt>
  <trkpt lat="50.630955" lon="-3.692999">
    <ele>115</ele>
    <time>2026-07-02T19:44:41Z</time>
    <speed>0.52</speed>
  </trkpt>
  <trkpt lat="50.630870" lon="-3.692921">
    <ele>122</ele>
    <time>2026-07-02T19:44:52Z</time>
    <speed>0.65999997</speed>
  </trkpt>
  <trkpt lat="50.630755" lon="-3.692890">
    <ele>118</ele>
    <time>2026-07-02T19:45:03Z</time>
    <speed>0.78999996</speed>
  </trkpt>
  <trkpt lat="50.630659" lon="-3.692850">
    <ele>122</ele>
    <time>2026-07-02T19:45:14Z</time>
    <speed>1.13</speed>
  </trkpt>
  <trkpt lat="50.630567" lon="-3.692757">
    <ele>116</ele>
    <time>2026-07-02T19:45:25Z</time>
    <speed>1.0799999</speed>
  </trkpt>
  <trkpt lat="50.630444" lon="-3.692688">
    <ele>123</ele>
    <time>2026-07-02T19:45:36Z</time>
    <speed>0.85999995</speed>
  </trkpt>
  <trkpt lat="50.630269" lon="-3.692590">
    <ele>118</ele>
    <time>2026-07-02T19:45:47Z</time>
    <speed>1.55</speed>
  </trkpt>
  <trkpt lat="50.630158" lon="-3.692529">
    <ele>123</ele>
    <time>2026-07-02T19:45:58Z</time>
    <speed>0.78999996</speed>
  </trkpt>
  <trkpt lat="50.630054" lon="-3.692445">
    <ele>121</ele>
    <time>2026-07-02T19:46:09Z</time>
    <speed>1.1899999</speed>
  </trkpt>
  <trkpt lat="50.629924" lon="-3.692367">
    <ele>122</ele>
    <time>2026-07-02T19:46:20Z</time>
    <speed>0.96</speed>
  </trkpt>
  <trkpt lat="50.629811" lon="-3.692344">
    <ele>123</ele>
    <time>2026-07-02T19:46:31Z</time>
    <speed>1.1899999</speed>
  </trkpt>
  <trkpt lat="50.629667" lon="-3.692293">
    <ele>123</ele>
    <time>2026-07-02T19:46:42Z</time>
    <speed>0.78</speed>
  </trkpt>
  <trkpt lat="50.629519" lon="-3.692243">
    <ele>120</ele>
    <time>2026-07-02T19:46:53Z</time>
    <speed>0.90999997</speed>
  </trkpt>
  <trkpt lat="50.629380" lon="-3.692225">
    <ele>127</ele>
    <time>2026-07-02T19:47:04Z</time>
    <speed>1.42</speed>
  </trkpt>
  <trkpt lat="50.629236" lon="-3.692170">
    <ele>125</ele>
    <time>2026-07-02T19:47:15Z</time>
    <speed>0.9</speed>
  </trkpt>
  <trkpt lat="50.629153" lon="-3.692101">
    <ele>119</ele>
    <time>2026-07-02T19:47:26Z</time>
    <speed>1.3199999</speed>
  </trkpt>
  <trkpt lat="50.629032" lon="-3.691942">
    <ele>117</ele>
    <time>2026-07-02T19:47:37Z</time>
    <speed>1.23</speed>
  </trkpt>
  <trkpt lat="50.628935" lon="-3.691731">
    <ele>125</ele>
    <time>2026-07-02T19:47:48Z</time>
    <speed>0.84</speed>
  </trkpt>
  <trkpt lat="50.628850" lon="-3.691683">
    <ele>123</ele>
    <time>2026-07-02T19:48:28Z</time>
    <speed>0.0</speed>
  </trkpt>
 </trkseg>
</trk>
</gpx>
