<?xml version="1.0" encoding="UTF-8" ?>
<gpx
 version="1.0"
 creator="Maverick - http://www.maverickgps.com"
 xmlns:xsi="http://www.w3.org/2001/XMLSchema-instance"
 xmlns="http://www.topografix.com/GPX/1/0"
 xsi:schemaLocation="http://www.topografix.com/GPX/1/0 http://www.topografix.com/GPX/1/0/gpx.xsd">
<time>2026-08-20T17:06:19Z</time>
<trk>
 <name>2026-08-20 @ 18-06-19</name>
 <trkseg>
  <trkpt lat="50.607463" lon="-3.808917">
    <ele>410</ele>
    <time>2026-08-20T17:06:19Z</time>
    <speed>0.16</speed>
  </trkpt>
  <trkpt lat="50.607455" lon="-3.809077">
    <ele>409</ele>
    <time>2026-08-20T17:06:50Z</time>
    <speed>0.83</speed>
  </trkpt>
  <trkpt lat="50.607485" lon="-3.809220">
    <ele>408</ele>
    <time>2026-08-20T17:07:01Z</time>
    <speed>0.57</speed>
  </trkpt>
  <trkpt lat="50.607628" lon="-3.809334">
    <ele>409</ele>
    <time>2026-08-20T17:07:12Z</time>
    <speed>1.38</speed>
  </trkpt>
  <trkpt lat="50.607695" lon="-3.809438">
    <ele>405</ele>
    <time>2026-08-20T17:07:24Z</time>
    <speed>1.4399999</speed>
  </trkpt>
  <trkpt lat="50.607851" lon="-3.809403">
    <ele>402</ele>
    <time>2026-08-20T17:07:35Z</time>
    <speed>0.88</speed>
  </trkpt>
  <trkpt lat="50.607943" lon="-3.809384">
    <ele>404</ele>
    <time>2026-08-20T17:07:47Z</time>
    <speed>1.04</speed>
  </trkpt>
  <trkpt lat="50.608051" lon="-3.809433">
    <ele>398</ele>
    <time>2026-08-20T17:07:58Z</time>
    <speed>1.38</speed>
  </trkpt>
  <trkpt lat="50.608177" lon="-3.809476">
    <ele>396</ele>
    <time>2026-08-20T17:08:09Z</time>
    <speed>1.1899999</speed>
  </trkpt>
  <trkpt lat="50.608349" lon="-3.809452">
    <ele>395</ele>
    <time>2026-08-20T17:08:20Z</time>
    <speed>1.16</speed>
  </trkpt>
  <trkpt lat="50.608478" lon="-3.809477">
    <ele>399</ele>
    <time>2026-08-20T17:08:31Z</time>
    <speed>1.05</speed>
  </trkpt>
  <trkpt lat="50.608647" lon="-3.809531">
    <ele>398</ele>
    <time>2026-08-20T17:08:42Z</time>
    <speed>1.52</speed>
  </trkpt>
  <trkpt lat="50.608772" lon="-3.809510">
    <ele>395</ele>
    <time>2026-08-20T17:08:53Z</time>
    <speed>1.25</speed>
  </trkpt>
  <trkpt lat="50.608900" lon="-3.809475">
    <ele>397</ele>
    <time>2026-08-20T17:09:04Z</time>
    <speed>1.41</speed>
  </trkpt>
  <trkpt lat="50.609041" lon="-3.809466">
    <ele>394</ele>
    <time>2026-08-20T17:09:15Z</time>
    <speed>1.42</speed>
  </trkpt>
  <trkpt lat="50.609159" lon="-3.809547">
    <ele>391</ele>
    <time>2026-08-20T17:09:26Z</time>
    <speed>1.74</speed>
  </trkpt>
  <trkpt lat="50.609291" lon="-3.809577">
    <ele>389</ele>
    <time>2026-08-20T17:09:37Z</time>
    <speed>1.25</speed>
  </trkpt>
  <trkpt lat="50.609452" lon="-3.809654">
    <ele>389</ele>
    <time>2026-08-20T17:09:48Z</time>
    <speed>1.27</speed>
  </trkpt>
  <trkpt lat="50.609588" lon="-3.809722">
    <ele>391</ele>
    <time>2026-08-20T17:09:59Z</time>
    <speed>0.83</speed>
  </trkpt>
  <trkpt lat="50.609707" lon="-3.809832">
    <ele>392</ele>
    <time>2026-08-20T17:10:10Z</time>
    <speed>1.17</speed>
  </trkpt>
  <trkpt lat="50.609834" lon="-3.809919">
    <ele>388</ele>
    <time>2026-08-20T17:10:21Z</time>
    <speed>0.85999995</speed>
  </trkpt>
  <trkpt lat="50.609951" lon="-3.810008">
    <ele>384</ele>
    <time>2026-08-20T17:10:32Z</time>
    <speed>0.95</speed>
  </trkpt>
  <trkpt lat="50.610087" lon="-3.810086">
    <ele>386</ele>
    <time>2026-08-20T17:10:43Z</time>
    <speed>1.43</speed>
  </trkpt>
  <trkpt lat="50.610204" lon="-3.810218">
    <ele>388</ele>
    <time>2026-08-20T17:10:54Z</time>
    <speed>1.22</speed>
  </trkpt>
  <trkpt lat="50.610313" lon="-3.810316">
    <ele>381</ele>
    <time>2026-08-20T17:11:05Z</time>
    <speed>1.5799999</speed>
  </trkpt>
  <trkpt lat="50.610432" lon="-3.810363">
    <ele>381</ele>
    <time>2026-08-20T17:11:16Z</time>
    <speed>0.85999995</speed>
  </trkpt>
  <trkpt lat="50.610543" lon="-3.810505">
    <ele>384</ele>
    <time>2026-08-20T17:11:27Z</time>
    <speed>1.36</speed>
  </trkpt>
  <trkpt lat="50.610676" lon="-3.810606">
    <ele>373</ele>
    <time>2026-08-20T17:11:38Z</time>
    <speed>1.37</speed>
  </trkpt>
  <trkpt lat="50.610812" lon="-3.810662">
    <ele>383</ele>
    <time>2026-08-20T17:11:49Z</time>
    <speed>1.17</speed>
  </trkpt>
  <trkpt lat="50.610936" lon="-3.810662">
    <ele>378</ele>
    <time>2026-08-20T17:12:00Z</time>
    <speed>1.35</speed>
  </trkpt>
  <trkpt lat="50.611081" lon="-3.810729">
    <ele>376</ele>
    <time>2026-08-20T17:12:11Z</time>
    <speed>0.87</speed>
  </trkpt>
  <trkpt lat="50.611204" lon="-3.810760">
    <ele>375</ele>
    <time>2026-08-20T17:12:22Z</time>
    <speed>1.2099999</speed>
  </trkpt>
  <trkpt lat="50.611332" lon="-3.810786">
    <ele>355</ele>
    <time>2026-08-20T17:12:33Z</time>
    <speed>1.4</speed>
  </trkpt>
  <trkpt lat="50.611431" lon="-3.810885">
    <ele>373</ele>
    <time>2026-08-20T17:12:44Z</time>
    <speed>1.2099999</speed>
  </trkpt>
  <trkpt lat="50.611521" lon="-3.810933">
    <ele>372</ele>
    <time>2026-08-20T17:13:05Z</time>
    <speed>1.43</speed>
  </trkpt>
  <trkpt lat="50.611637" lon="-3.811041">
    <ele>369</ele>
    <time>2026-08-20T17:13:16Z</time>
    <speed>1.35</speed>
  </trkpt>
  <trkpt lat="50.611752" lon="-3.811140">
    <ele>369</ele>
    <time>2026-08-20T17:13:27Z</time>
    <speed>1.25</speed>
  </trkpt>
  <trkpt lat="50.611862" lon="-3.811282">
    <ele>369</ele>
    <time>2026-08-20T17:13:38Z</time>
    <speed>1.27</speed>
  </trkpt>
  <trkpt lat="50.611972" lon="-3.811432">
    <ele>370</ele>
    <time>2026-08-20T17:13:49Z</time>
    <speed>0.9</speed>
  </trkpt>
  <trkpt lat="50.612085" lon="-3.811579">
    <ele>370</ele>
    <time>2026-08-20T17:14:00Z</time>
    <speed>1.18</speed>
  </trkpt>
  <trkpt lat="50.612153" lon="-3.811813">
    <ele>372</ele>
    <time>2026-08-20T17:14:11Z</time>
    <speed>1.73</speed>
  </trkpt>
  <trkpt lat="50.612258" lon="-3.811940">
    <ele>368</ele>
    <time>2026-08-20T17:14:22Z</time>
    <speed>1.15</speed>
  </trkpt>
  <trkpt lat="50.612382" lon="-3.811915">
    <ele>371</ele>
    <time>2026-08-20T17:14:33Z</time>
    <speed>1.66</speed>
  </trkpt>
  <trkpt lat="50.612517" lon="-3.811840">
    <ele>368</ele>
    <time>2026-08-20T17:14:44Z</time>
    <speed>1.22</speed>
  </trkpt>
  <trkpt lat="50.612678" lon="-3.811863">
    <ele>370</ele>
    <time>2026-08-20T17:14:55Z</time>
    <speed>1.38</speed>
  </trkpt>
  <trkpt lat="50.612826" lon="-3.811897">
    <ele>366</ele>
    <time>2026-08-20T17:15:06Z</time>
    <speed>1.38</speed>
  </trkpt>
  <trkpt lat="50.612972" lon="-3.811925">
    <ele>366</ele>
    <time>2026-08-20T17:15:17Z</time>
    <speed>1.29</speed>
  </trkpt>
  <trkpt lat="50.613116" lon="-3.811959">
    <ele>367</ele>
    <time>2026-08-20T17:15:28Z</time>
    <speed>1.18</speed>
  </trkpt>
  <trkpt lat="50.613259" lon="-3.811999">
    <ele>359</ele>
    <time>2026-08-20T17:15:39Z</time>
    <speed>1.4399999</speed>
  </trkpt>
  <trkpt lat="50.613402" lon="-3.812057">
    <ele>362</ele>
    <time>2026-08-20T17:15:50Z</time>
    <speed>1.3</speed>
  </trkpt>
  <trkpt lat="50.613545" lon="-3.812140">
    <ele>362</ele>
    <time>2026-08-20T17:16:01Z</time>
    <speed>1.4599999</speed>
  </trkpt>
  <trkpt lat="50.613631" lon="-3.812190">
    <ele>360</ele>
    <time>2026-08-20T17:16:12Z</time>
    <speed>0.06</speed>
  </trkpt>
  <trkpt lat="50.613714" lon="-3.812279">
    <ele>360</ele>
    <time>2026-08-20T17:16:25Z</time>
    <speed>1.78</speed>
  </trkpt>
  <trkpt lat="50.613844" lon="-3.812336">
    <ele>360</ele>
    <time>2026-08-20T17:16:36Z</time>
    <speed>1.14</speed>
  </trkpt>
  <trkpt lat="50.613983" lon="-3.812359">
    <ele>357</ele>
    <time>2026-08-20T17:16:47Z</time>
    <speed>1.39</speed>
  </trkpt>
  <trkpt lat="50.614098" lon="-3.812404">
    <ele>357</ele>
    <time>2026-08-20T17:16:58Z</time>
    <speed>1.25</speed>
  </trkpt>
  <trkpt lat="50.614233" lon="-3.812426">
    <ele>357</ele>
    <time>2026-08-20T17:17:09Z</time>
    <speed>1.3</speed>
  </trkpt>
  <trkpt lat="50.614360" lon="-3.812440">
    <ele>356</ele>
    <time>2026-08-20T17:17:20Z</time>
    <speed>1.17</speed>
  </trkpt>
  <trkpt lat="50.614480" lon="-3.812475">
    <ele>357</ele>
    <time>2026-08-20T17:17:31Z</time>
    <speed>1.1</speed>
  </trkpt>
  <trkpt lat="50.614589" lon="-3.812475">
    <ele>354</ele>
    <time>2026-08-20T17:17:42Z</time>
    <speed>0.32999998</speed>
  </trkpt>
  <trkpt lat="50.614681" lon="-3.812538">
    <ele>348</ele>
    <time>2026-08-20T17:17:53Z</time>
    <speed>1.56</speed>
  </trkpt>
  <trkpt lat="50.614799" lon="-3.812577">
    <ele>354</ele>
    <time>2026-08-20T17:18:04Z</time>
    <speed>0.81</speed>
  </trkpt>
  <trkpt lat="50.614927" lon="-3.812646">
    <ele>348</ele>
    <time>2026-08-20T17:18:15Z</time>
    <speed>0.83</speed>
  </trkpt>
  <trkpt lat="50.615028" lon="-3.812718">
    <ele>348</ele>
    <time>2026-08-20T17:18:26Z</time>
    <speed>1.1899999</speed>
  </trkpt>
  <trkpt lat="50.615119" lon="-3.812877">
    <ele>355</ele>
    <time>2026-08-20T17:18:37Z</time>
    <speed>1.03</speed>
  </trkpt>
  <trkpt lat="50.615226" lon="-3.812945">
    <ele>353</ele>
    <time>2026-08-20T17:18:48Z</time>
    <speed>2.01</speed>
  </trkpt>
  <trkpt lat="50.615304" lon="-3.813034">
    <ele>356</ele>
    <time>2026-08-20T17:19:09Z</time>
    <speed>0.83</speed>
  </trkpt>
  <trkpt lat="50.615415" lon="-3.813071">
    <ele>351</ele>
    <time>2026-08-20T17:19:20Z</time>
    <speed>0.78</speed>
  </trkpt>
  <trkpt lat="50.615546" lon="-3.813104">
    <ele>357</ele>
    <time>2026-08-20T17:19:31Z</time>
    <speed>1.12</speed>
  </trkpt>
  <trkpt lat="50.615631" lon="-3.813160">
    <ele>358</ele>
    <time>2026-08-20T17:19:42Z</time>
    <speed>0.84999996</speed>
  </trkpt>
  <trkpt lat="50.615729" lon="-3.813179">
    <ele>360</ele>
    <time>2026-08-20T17:19:58Z</time>
    <speed>0.83</speed>
  </trkpt>
  <trkpt lat="50.615813" lon="-3.813264">
    <ele>359</ele>
    <time>2026-08-20T17:20:11Z</time>
    <speed>1.12</speed>
  </trkpt>
  <trkpt lat="50.615919" lon="-3.813194">
    <ele>359</ele>
    <time>2026-08-20T17:20:22Z</time>
    <speed>1.15</speed>
  </trkpt>
  <trkpt lat="50.616058" lon="-3.813070">
    <ele>360</ele>
    <time>2026-08-20T17:20:33Z</time>
    <speed>1.36</speed>
  </trkpt>
  <trkpt lat="50.616211" lon="-3.812950">
    <ele>357</ele>
    <time>2026-08-20T17:20:44Z</time>
    <speed>1.6999999</speed>
  </trkpt>
  <trkpt lat="50.616359" lon="-3.812886">
    <ele>360</ele>
    <time>2026-08-20T17:20:55Z</time>
    <speed>1.03</speed>
  </trkpt>
  <trkpt lat="50.616492" lon="-3.812819">
    <ele>358</ele>
    <time>2026-08-20T17:21:06Z</time>
    <speed>1.27</speed>
  </trkpt>
  <trkpt lat="50.616611" lon="-3.812769">
    <ele>358</ele>
    <time>2026-08-20T17:21:17Z</time>
    <speed>1.66</speed>
  </trkpt>
  <trkpt lat="50.616762" lon="-3.812707">
    <ele>353</ele>
    <time>2026-08-20T17:21:28Z</time>
    <speed>1.38</speed>
  </trkpt>
  <trkpt lat="50.616906" lon="-3.812625">
    <ele>354</ele>
    <time>2026-08-20T17:21:39Z</time>
    <speed>1.4</speed>
  </trkpt>
  <trkpt lat="50.617057" lon="-3.812557">
    <ele>353</ele>
    <time>2026-08-20T17:21:50Z</time>
    <speed>1.5899999</speed>
  </trkpt>
  <trkpt lat="50.617175" lon="-3.812465">
    <ele>354</ele>
    <time>2026-08-20T17:22:01Z</time>
    <speed>0.69</speed>
  </trkpt>
  <trkpt lat="50.617274" lon="-3.812394">
    <ele>351</ele>
    <time>2026-08-20T17:22:12Z</time>
    <speed>0.71999997</speed>
  </trkpt>
  <trkpt lat="50.617417" lon="-3.812358">
    <ele>343</ele>
    <time>2026-08-20T17:22:23Z</time>
    <speed>1.35</speed>
  </trkpt>
  <trkpt lat="50.617559" lon="-3.812386">
    <ele>349</ele>
    <time>2026-08-20T17:22:34Z</time>
    <speed>1.5699999</speed>
  </trkpt>
  <trkpt lat="50.617720" lon="-3.812390">
    <ele>349</ele>
    <time>2026-08-20T17:22:45Z</time>
    <speed>1.1</speed>
  </trkpt>
  <trkpt lat="50.617837" lon="-3.812408">
    <ele>352</ele>
    <time>2026-08-20T17:22:56Z</time>
    <speed>1.27</speed>
  </trkpt>
  <trkpt lat="50.617986" lon="-3.812475">
    <ele>343</ele>
    <time>2026-08-20T17:23:07Z</time>
    <speed>1.66</speed>
  </trkpt>
  <trkpt lat="50.618107" lon="-3.812620">
    <ele>344</ele>
    <time>2026-08-20T17:23:18Z</time>
    <speed>1.16</speed>
  </trkpt>
  <trkpt lat="50.618226" lon="-3.812694">
    <ele>345</ele>
    <time>2026-08-20T17:23:29Z</time>
    <speed>0.63</speed>
  </trkpt>
  <trkpt lat="50.618341" lon="-3.812690">
    <ele>342</ele>
    <time>2026-08-20T17:23:40Z</time>
    <speed>0.76</speed>
  </trkpt>
  <trkpt lat="50.618464" lon="-3.812742">
    <ele>338</ele>
    <time>2026-08-20T17:23:51Z</time>
    <speed>1.29</speed>
  </trkpt>
  <trkpt lat="50.618592" lon="-3.812792">
    <ele>341</ele>
    <time>2026-08-20T17:24:02Z</time>
    <speed>1.05</speed>
  </trkpt>
  <trkpt lat="50.618727" lon="-3.812841">
    <ele>340</ele>
    <time>2026-08-20T17:24:13Z</time>
    <speed>1.06</speed>
  </trkpt>
  <trkpt lat="50.618871" lon="-3.812899">
    <ele>345</ele>
    <time>2026-08-20T17:24:24Z</time>
    <speed>1.36</speed>
  </trkpt>
  <trkpt lat="50.619024" lon="-3.812902">
    <ele>335</ele>
    <time>2026-08-20T17:24:35Z</time>
    <speed>1.8199999</speed>
  </trkpt>
  <trkpt lat="50.619132" lon="-3.812933">
    <ele>333</ele>
    <time>2026-08-20T17:24:46Z</time>
    <speed>1.24</speed>
  </trkpt>
  <trkpt lat="50.619220" lon="-3.812974">
    <ele>339</ele>
    <time>2026-08-20T17:24:57Z</time>
    <speed>1.5</speed>
  </trkpt>
  <trkpt lat="50.619376" lon="-3.813002">
    <ele>337</ele>
    <time>2026-08-20T17:25:08Z</time>
    <speed>0.79999995</speed>
  </trkpt>
  <trkpt lat="50.619490" lon="-3.813066">
    <ele>334</ele>
    <time>2026-08-20T17:25:19Z</time>
    <speed>0.71</speed>
  </trkpt>
  <trkpt lat="50.619624" lon="-3.813102">
    <ele>333</ele>
    <time>2026-08-20T17:25:30Z</time>
    <speed>1.17</speed>
  </trkpt>
  <trkpt lat="50.619812" lon="-3.813119">
    <ele>335</ele>
    <time>2026-08-20T17:25:41Z</time>
    <speed>1.13</speed>
  </trkpt>
  <trkpt lat="50.619936" lon="-3.813149">
    <ele>330</ele>
    <time>2026-08-20T17:25:52Z</time>
    <speed>1.75</speed>
  </trkpt>
  <trkpt lat="50.620074" lon="-3.813213">
    <ele>331</ele>
    <time>2026-08-20T17:26:03Z</time>
    <speed>0.9</speed>
  </trkpt>
  <trkpt lat="50.620166" lon="-3.813248">
    <ele>330</ele>
    <time>2026-08-20T17:26:14Z</time>
    <speed>0.39</speed>
  </trkpt>
  <trkpt lat="50.620272" lon="-3.813291">
    <ele>330</ele>
    <time>2026-08-20T17:26:25Z</time>
    <speed>0.89</speed>
  </trkpt>
  <trkpt lat="50.620368" lon="-3.813329">
    <ele>328</ele>
    <time>2026-08-20T17:26:39Z</time>
    <speed>1.37</speed>
  </trkpt>
  <trkpt lat="50.620493" lon="-3.813334">
    <ele>329</ele>
    <time>2026-08-20T17:26:50Z</time>
    <speed>1.04</speed>
  </trkpt>
  <trkpt lat="50.620609" lon="-3.813370">
    <ele>323</ele>
    <time>2026-08-20T17:27:01Z</time>
    <speed>1.27</speed>
  </trkpt>
  <trkpt lat="50.620725" lon="-3.813418">
    <ele>323</ele>
    <time>2026-08-20T17:27:12Z</time>
    <speed>1.93</speed>
  </trkpt>
  <trkpt lat="50.620851" lon="-3.813518">
    <ele>329</ele>
    <time>2026-08-20T17:27:23Z</time>
    <speed>1.09</speed>
  </trkpt>
  <trkpt lat="50.620967" lon="-3.813567">
    <ele>330</ele>
    <time>2026-08-20T17:27:34Z</time>
    <speed>1.3299999</speed>
  </trkpt>
  <trkpt lat="50.621077" lon="-3.813627">
    <ele>329</ele>
    <time>2026-08-20T17:27:45Z</time>
    <speed>1.35</speed>
  </trkpt>
  <trkpt lat="50.621216" lon="-3.813712">
    <ele>329</ele>
    <time>2026-08-20T17:27:56Z</time>
    <speed>1.4</speed>
  </trkpt>
  <trkpt lat="50.621329" lon="-3.813766">
    <ele>329</ele>
    <time>2026-08-20T17:28:07Z</time>
    <speed>0.90999997</speed>
  </trkpt>
  <trkpt lat="50.621452" lon="-3.813853">
    <ele>329</ele>
    <time>2026-08-20T17:28:18Z</time>
    <speed>1.28</speed>
  </trkpt>
  <trkpt lat="50.621586" lon="-3.813939">
    <ele>329</ele>
    <time>2026-08-20T17:28:29Z</time>
    <speed>1.61</speed>
  </trkpt>
  <trkpt lat="50.621716" lon="-3.814051">
    <ele>327</ele>
    <time>2026-08-20T17:28:40Z</time>
    <speed>1.49</speed>
  </trkpt>
  <trkpt lat="50.621844" lon="-3.814137">
    <ele>328</ele>
    <time>2026-08-20T17:28:51Z</time>
    <speed>1.5</speed>
  </trkpt>
  <trkpt lat="50.621958" lon="-3.814248">
    <ele>327</ele>
    <time>2026-08-20T17:29:02Z</time>
    <speed>1.66</speed>
  </trkpt>
  <trkpt lat="50.622065" lon="-3.814331">
    <ele>328</ele>
    <time>2026-08-20T17:29:13Z</time>
    <speed>1.6899999</speed>
  </trkpt>
  <trkpt lat="50.622160" lon="-3.814332">
    <ele>324</ele>
    <time>2026-08-20T17:29:29Z</time>
    <speed>0.79999995</speed>
  </trkpt>
  <trkpt lat="50.622252" lon="-3.814357">
    <ele>324</ele>
    <time>2026-08-20T17:29:46Z</time>
    <speed>0.59</speed>
  </trkpt>
  <trkpt lat="50.622366" lon="-3.814452">
    <ele>326</ele>
    <time>2026-08-20T17:29:57Z</time>
    <speed>1.4699999</speed>
  </trkpt>
  <trkpt lat="50.622505" lon="-3.814520">
    <ele>324</ele>
    <time>2026-08-20T17:30:08Z</time>
    <speed>1.41</speed>
  </trkpt>
  <trkpt lat="50.622646" lon="-3.814605">
    <ele>321</ele>
    <time>2026-08-20T17:30:19Z</time>
    <speed>1.5799999</speed>
  </trkpt>
  <trkpt lat="50.622775" lon="-3.814656">
    <ele>319</ele>
    <time>2026-08-20T17:30:30Z</time>
    <speed>1.62</speed>
  </trkpt>
  <trkpt lat="50.622906" lon="-3.814740">
    <ele>319</ele>
    <time>2026-08-20T17:30:41Z</time>
    <speed>1.43</speed>
  </trkpt>
  <trkpt lat="50.623042" lon="-3.814784">
    <ele>317</ele>
    <time>2026-08-20T17:30:52Z</time>
    <speed>1.3199999</speed>
  </trkpt>
  <trkpt lat="50.623158" lon="-3.814792">
    <ele>313</ele>
    <time>2026-08-20T17:31:03Z</time>
    <speed>0.66999996</speed>
  </trkpt>
  <trkpt lat="50.623254" lon="-3.814790">
    <ele>315</ele>
    <time>2026-08-20T17:31:22Z</time>
    <speed>1.12</speed>
  </trkpt>
  <trkpt lat="50.623383" lon="-3.814756">
    <ele>311</ele>
    <time>2026-08-20T17:31:33Z</time>
    <speed>0.94</speed>
  </trkpt>
  <trkpt lat="50.623521" lon="-3.814798">
    <ele>313</ele>
    <time>2026-08-20T17:31:44Z</time>
    <speed>1.0799999</speed>
  </trkpt>
  <trkpt lat="50.623664" lon="-3.814795">
    <ele>311</ele>
    <time>2026-08-20T17:31:55Z</time>
    <speed>1.4499999</speed>
  </trkpt>
  <trkpt lat="50.623805" lon="-3.814825">
    <ele>310</ele>
    <time>2026-08-20T17:32:06Z</time>
    <speed>1.5699999</speed>
  </trkpt>
  <trkpt lat="50.623958" lon="-3.814859">
    <ele>312</ele>
    <time>2026-08-20T17:32:17Z</time>
    <speed>1.62</speed>
  </trkpt>
  <trkpt lat="50.624087" lon="-3.814891">
    <ele>309</ele>
    <time>2026-08-20T17:32:28Z</time>
    <speed>1.3399999</speed>
  </trkpt>
  <trkpt lat="50.624191" lon="-3.814951">
    <ele>308</ele>
    <time>2026-08-20T17:32:39Z</time>
    <speed>1.56</speed>
  </trkpt>
  <trkpt lat="50.624340" lon="-3.815034">
    <ele>309</ele>
    <time>2026-08-20T17:32:50Z</time>
    <speed>1.4599999</speed>
  </trkpt>
  <trkpt lat="50.624442" lon="-3.815000">
    <ele>307</ele>
    <time>2026-08-20T17:33:01Z</time>
    <speed>0.03</speed>
  </trkpt>
  <trkpt lat="50.624513" lon="-3.814888">
    <ele>305</ele>
    <time>2026-08-20T17:33:12Z</time>
    <speed>1.5899999</speed>
  </trkpt>
  <trkpt lat="50.624635" lon="-3.814739">
    <ele>309</ele>
    <time>2026-08-20T17:33:23Z</time>
    <speed>1.42</speed>
  </trkpt>
  <trkpt lat="50.624768" lon="-3.814622">
    <ele>306</ele>
    <time>2026-08-20T17:33:34Z</time>
    <speed>1.53</speed>
  </trkpt>
  <trkpt lat="50.624907" lon="-3.814545">
    <ele>307</ele>
    <time>2026-08-20T17:33:45Z</time>
    <speed>1.4699999</speed>
  </trkpt>
  <trkpt lat="50.625054" lon="-3.814518">
    <ele>306</ele>
    <time>2026-08-20T17:33:56Z</time>
    <speed>1.51</speed>
  </trkpt>
  <trkpt lat="50.625191" lon="-3.814463">
    <ele>305</ele>
    <time>2026-08-20T17:34:07Z</time>
    <speed>1.4399999</speed>
  </trkpt>
  <trkpt lat="50.625330" lon="-3.814395">
    <ele>307</ele>
    <time>2026-08-20T17:34:18Z</time>
    <speed>1.5699999</speed>
  </trkpt>
  <trkpt lat="50.625463" lon="-3.814317">
    <ele>304</ele>
    <time>2026-08-20T17:34:29Z</time>
    <speed>1.4</speed>
  </trkpt>
  <trkpt lat="50.625596" lon="-3.814299">
    <ele>299</ele>
    <time>2026-08-20T17:34:40Z</time>
    <speed>1.38</speed>
  </trkpt>
  <trkpt lat="50.625721" lon="-3.814267">
    <ele>305</ele>
    <time>2026-08-20T17:34:51Z</time>
    <speed>0.94</speed>
  </trkpt>
  <trkpt lat="50.625809" lon="-3.814199">
    <ele>303</ele>
    <time>2026-08-20T17:35:07Z</time>
    <speed>0.41</speed>
  </trkpt>
  <trkpt lat="50.625899" lon="-3.814225">
    <ele>304</ele>
    <time>2026-08-20T17:35:21Z</time>
    <speed>1.3</speed>
  </trkpt>
  <trkpt lat="50.625970" lon="-3.814326">
    <ele>303</ele>
    <time>2026-08-20T17:35:32Z</time>
    <speed>0.59</speed>
  </trkpt>
  <trkpt lat="50.626039" lon="-3.814432">
    <ele>305</ele>
    <time>2026-08-20T17:35:43Z</time>
    <speed>1.0</speed>
  </trkpt>
  <trkpt lat="50.626110" lon="-3.814538">
    <ele>307</ele>
    <time>2026-08-20T17:35:54Z</time>
    <speed>1.09</speed>
  </trkpt>
  <trkpt lat="50.626167" lon="-3.814751">
    <ele>309</ele>
    <time>2026-08-20T17:36:05Z</time>
    <speed>0.75</speed>
  </trkpt>
  <trkpt lat="50.626222" lon="-3.814953">
    <ele>305</ele>
    <time>2026-08-20T17:36:16Z</time>
    <speed>1.5999999</speed>
  </trkpt>
  <trkpt lat="50.626312" lon="-3.815138">
    <ele>310</ele>
    <time>2026-08-20T17:36:27Z</time>
    <speed>1.3199999</speed>
  </trkpt>
  <trkpt lat="50.626366" lon="-3.815332">
    <ele>312</ele>
    <time>2026-08-20T17:36:38Z</time>
    <speed>0.85999995</speed>
  </trkpt>
  <trkpt lat="50.626442" lon="-3.815526">
    <ele>314</ele>
    <time>2026-08-20T17:36:49Z</time>
    <speed>1.77</speed>
  </trkpt>
  <trkpt lat="50.626480" lon="-3.815750">
    <ele>309</ele>
    <time>2026-08-20T17:37:00Z</time>
    <speed>1.4599999</speed>
  </trkpt>
  <trkpt lat="50.626556" lon="-3.815935">
    <ele>311</ele>
    <time>2026-08-20T17:37:11Z</time>
    <speed>1.1</speed>
  </trkpt>
  <trkpt lat="50.626661" lon="-3.816089">
    <ele>314</ele>
    <time>2026-08-20T17:37:22Z</time>
    <speed>1.04</speed>
  </trkpt>
  <trkpt lat="50.626745" lon="-3.816219">
    <ele>313</ele>
    <time>2026-08-20T17:37:33Z</time>
    <speed>1.22</speed>
  </trkpt>
  <trkpt lat="50.626805" lon="-3.816351">
    <ele>310</ele>
    <time>2026-08-20T17:37:44Z</time>
    <speed>0.34</speed>
  </trkpt>
  <trkpt lat="50.626868" lon="-3.816455">
    <ele>311</ele>
    <time>2026-08-20T17:38:00Z</time>
    <speed>1.05</speed>
  </trkpt>
  <trkpt lat="50.626948" lon="-3.816671">
    <ele>309</ele>
    <time>2026-08-20T17:38:11Z</time>
    <speed>1.65</speed>
  </trkpt>
  <trkpt lat="50.627007" lon="-3.816880">
    <ele>309</ele>
    <time>2026-08-20T17:38:22Z</time>
    <speed>1.35</speed>
  </trkpt>
  <trkpt lat="50.627075" lon="-3.817088">
    <ele>309</ele>
    <time>2026-08-20T17:38:33Z</time>
    <speed>1.04</speed>
  </trkpt>
  <trkpt lat="50.627117" lon="-3.817273">
    <ele>311</ele>
    <time>2026-08-20T17:38:44Z</time>
    <speed>1.01</speed>
  </trkpt>
  <trkpt lat="50.627157" lon="-3.817501">
    <ele>310</ele>
    <time>2026-08-20T17:38:55Z</time>
    <speed>0.75</speed>
  </trkpt>
  <trkpt lat="50.627179" lon="-3.817674">
    <ele>305</ele>
    <time>2026-08-20T17:39:06Z</time>
    <speed>0.98999995</speed>
  </trkpt>
  <trkpt lat="50.627169" lon="-3.817524">
    <ele>315</ele>
    <time>2026-08-20T17:39:41Z</time>
    <speed>1.43</speed>
  </trkpt>
  <trkpt lat="50.627142" lon="-3.817302">
    <ele>308</ele>
    <time>2026-08-20T17:39:52Z</time>
    <speed>1.13</speed>
  </trkpt>
  <trkpt lat="50.627083" lon="-3.817164">
    <ele>308</ele>
    <time>2026-08-20T17:40:03Z</time>
    <speed>1.9599999</speed>
  </trkpt>
  <trkpt lat="50.627008" lon="-3.816968">
    <ele>307</ele>
    <time>2026-08-20T17:40:14Z</time>
    <speed>0.39</speed>
  </trkpt>
  <trkpt lat="50.626937" lon="-3.817092">
    <ele>316</ele>
    <time>2026-08-20T17:40:39Z</time>
    <speed>5.25</speed>
  </trkpt>
  <trkpt lat="50.626893" lon="-3.817234">
    <ele>314</ele>
    <time>2026-08-20T17:41:15Z</time>
    <speed>1.23</speed>
  </trkpt>
  <trkpt lat="50.626905" lon="-3.817377">
    <ele>316</ele>
    <time>2026-08-20T17:41:26Z</time>
    <speed>1.14</speed>
  </trkpt>
  <trkpt lat="50.626913" lon="-3.817562">
    <ele>315</ele>
    <time>2026-08-20T17:41:37Z</time>
    <speed>1.61</speed>
  </trkpt>
  <trkpt lat="50.626906" lon="-3.817797">
    <ele>320</ele>
    <time>2026-08-20T17:41:48Z</time>
    <speed>2.32</speed>
  </trkpt>
  <trkpt lat="50.626943" lon="-3.817959">
    <ele>314</ele>
    <time>2026-08-20T17:41:59Z</time>
    <speed>0.39999998</speed>
  </trkpt>
  <trkpt lat="50.626988" lon="-3.818084">
    <ele>316</ele>
    <time>2026-08-20T17:42:30Z</time>
    <speed>1.01</speed>
  </trkpt>
  <trkpt lat="50.627053" lon="-3.818230">
    <ele>315</ele>
    <time>2026-08-20T17:42:41Z</time>
    <speed>0.78999996</speed>
  </trkpt>
  <trkpt lat="50.627100" lon="-3.818383">
    <ele>314</ele>
    <time>2026-08-20T17:42:52Z</time>
    <speed>0.76</speed>
  </trkpt>
  <trkpt lat="50.627166" lon="-3.818543">
    <ele>313</ele>
    <time>2026-08-20T17:43:03Z</time>
    <speed>1.26</speed>
  </trkpt>
  <trkpt lat="50.627234" lon="-3.818756">
    <ele>311</ele>
    <time>2026-08-20T17:43:14Z</time>
    <speed>1.5</speed>
  </trkpt>
  <trkpt lat="50.627275" lon="-3.818974">
    <ele>312</ele>
    <time>2026-08-20T17:43:25Z</time>
    <speed>1.05</speed>
  </trkpt>
  <trkpt lat="50.627310" lon="-3.819122">
    <ele>309</ele>
    <time>2026-08-20T17:43:36Z</time>
    <speed>0.83</speed>
  </trkpt>
  <trkpt lat="50.627359" lon="-3.819292">
    <ele>307</ele>
    <time>2026-08-20T17:43:47Z</time>
    <speed>1.27</speed>
  </trkpt>
  <trkpt lat="50.627415" lon="-3.819406">
    <ele>309</ele>
    <time>2026-08-20T17:44:08Z</time>
    <speed>0.17999999</speed>
  </trkpt>
  <trkpt lat="50.627489" lon="-3.819552">
    <ele>311</ele>
    <time>2026-08-20T17:44:19Z</time>
    <speed>0.61</speed>
  </trkpt>
  <trkpt lat="50.627481" lon="-3.819697">
    <ele>312</ele>
    <time>2026-08-20T17:44:30Z</time>
    <speed>0.71999997</speed>
  </trkpt>
  <trkpt lat="50.627430" lon="-3.819840">
    <ele>314</ele>
    <time>2026-08-20T17:44:41Z</time>
    <speed>0.44</speed>
  </trkpt>
  <trkpt lat="50.627365" lon="-3.819945">
    <ele>313</ele>
    <time>2026-08-20T17:44:52Z</time>
    <speed>1.4</speed>
  </trkpt>
  <trkpt lat="50.627264" lon="-3.820006">
    <ele>312</ele>
    <time>2026-08-20T17:45:03Z</time>
    <speed>1.1899999</speed>
  </trkpt>
  <trkpt lat="50.627195" lon="-3.820099">
    <ele>315</ele>
    <time>2026-08-20T17:45:14Z</time>
    <speed>1.02</speed>
  </trkpt>
  <trkpt lat="50.627111" lon="-3.820178">
    <ele>318</ele>
    <time>2026-08-20T17:45:25Z</time>
    <speed>1.18</speed>
  </trkpt>
  <trkpt lat="50.627022" lon="-3.820250">
    <ele>322</ele>
    <time>2026-08-20T17:45:37Z</time>
    <speed>1.29</speed>
  </trkpt>
  <trkpt lat="50.626933" lon="-3.820285">
    <ele>321</ele>
    <time>2026-08-20T17:45:49Z</time>
    <speed>1.2099999</speed>
  </trkpt>
  <trkpt lat="50.626840" lon="-3.820295">
    <ele>317</ele>
    <time>2026-08-20T17:46:02Z</time>
    <speed>0.59999996</speed>
  </trkpt>
  <trkpt lat="50.626763" lon="-3.820389">
    <ele>326</ele>
    <time>2026-08-20T17:46:14Z</time>
    <speed>1.36</speed>
  </trkpt>
  <trkpt lat="50.626657" lon="-3.820507">
    <ele>326</ele>
    <time>2026-08-20T17:46:25Z</time>
    <speed>1.31</speed>
  </trkpt>
  <trkpt lat="50.626574" lon="-3.820618">
    <ele>327</ele>
    <time>2026-08-20T17:46:36Z</time>
    <speed>1.3399999</speed>
  </trkpt>
  <trkpt lat="50.626649" lon="-3.820517">
    <ele>323</ele>
    <time>2026-08-20T17:47:14Z</time>
    <speed>1.3199999</speed>
  </trkpt>
  <trkpt lat="50.626713" lon="-3.820417">
    <ele>275</ele>
    <time>2026-08-20T17:47:25Z</time>
    <speed>0.34</speed>
  </trkpt>
  <trkpt lat="50.626652" lon="-3.820524">
    <ele>325</ele>
    <time>2026-08-20T17:47:58Z</time>
    <speed>0.5</speed>
  </trkpt>
  <trkpt lat="50.626613" lon="-3.820663">
    <ele>323</ele>
    <time>2026-08-20T17:48:10Z</time>
    <speed>1.53</speed>
  </trkpt>
  <trkpt lat="50.626531" lon="-3.820803">
    <ele>322</ele>
    <time>2026-08-20T17:48:21Z</time>
    <speed>0.74</speed>
  </trkpt>
  <trkpt lat="50.626579" lon="-3.820674">
    <ele>321</ele>
    <time>2026-08-20T17:48:46Z</time>
    <speed>1.18</speed>
  </trkpt>
  <trkpt lat="50.626664" lon="-3.820502">
    <ele>325</ele>
    <time>2026-08-20T17:48:57Z</time>
    <speed>1.1899999</speed>
  </trkpt>
  <trkpt lat="50.626754" lon="-3.820353">
    <ele>323</ele>
    <time>2026-08-20T17:49:08Z</time>
    <speed>1.05</speed>
  </trkpt>
  <trkpt lat="50.626846" lon="-3.820291">
    <ele>322</ele>
    <time>2026-08-20T17:49:19Z</time>
    <speed>0.93</speed>
  </trkpt>
  <trkpt lat="50.626956" lon="-3.820284">
    <ele>320</ele>
    <time>2026-08-20T17:49:30Z</time>
    <speed>1.3199999</speed>
  </trkpt>
  <trkpt lat="50.627063" lon="-3.820242">
    <ele>315</ele>
    <time>2026-08-20T17:49:41Z</time>
    <speed>1.26</speed>
  </trkpt>
  <trkpt lat="50.627162" lon="-3.820127">
    <ele>315</ele>
    <time>2026-08-20T17:49:52Z</time>
    <speed>1.09</speed>
  </trkpt>
  <trkpt lat="50.627251" lon="-3.820060">
    <ele>313</ele>
    <time>2026-08-20T17:50:03Z</time>
    <speed>1.18</speed>
  </trkpt>
  <trkpt lat="50.627374" lon="-3.819969">
    <ele>314</ele>
    <time>2026-08-20T17:50:14Z</time>
    <speed>1.27</speed>
  </trkpt>
  <trkpt lat="50.627449" lon="-3.819879">
    <ele>309</ele>
    <time>2026-08-20T17:50:25Z</time>
    <speed>0.45</speed>
  </trkpt>
  <trkpt lat="50.627457" lon="-3.820024">
    <ele>314</ele>
    <time>2026-08-20T17:50:39Z</time>
    <speed>0.96999997</speed>
  </trkpt>
  <trkpt lat="50.627373" lon="-3.820224">
    <ele>311</ele>
    <time>2026-08-20T17:50:50Z</time>
    <speed>1.5699999</speed>
  </trkpt>
  <trkpt lat="50.627318" lon="-3.820417">
    <ele>315</ele>
    <time>2026-08-20T17:51:01Z</time>
    <speed>1.28</speed>
  </trkpt>
  <trkpt lat="50.627262" lon="-3.820616">
    <ele>307</ele>
    <time>2026-08-20T17:51:12Z</time>
    <speed>1.28</speed>
  </trkpt>
  <trkpt lat="50.627207" lon="-3.820774">
    <ele>310</ele>
    <time>2026-08-20T17:51:23Z</time>
    <speed>0.93</speed>
  </trkpt>
  <trkpt lat="50.627158" lon="-3.820930">
    <ele>310</ele>
    <time>2026-08-20T17:51:34Z</time>
    <speed>1.4499999</speed>
  </trkpt>
  <trkpt lat="50.627153" lon="-3.821131">
    <ele>310</ele>
    <time>2026-08-20T17:51:45Z</time>
    <speed>1.14</speed>
  </trkpt>
  <trkpt lat="50.627202" lon="-3.821305">
    <ele>311</ele>
    <time>2026-08-20T17:51:56Z</time>
    <speed>1.5699999</speed>
  </trkpt>
  <trkpt lat="50.627245" lon="-3.821486">
    <ele>309</ele>
    <time>2026-08-20T17:52:07Z</time>
    <speed>1.17</speed>
  </trkpt>
  <trkpt lat="50.627289" lon="-3.821684">
    <ele>307</ele>
    <time>2026-08-20T17:52:18Z</time>
    <speed>1.27</speed>
  </trkpt>
  <trkpt lat="50.627348" lon="-3.821876">
    <ele>311</ele>
    <time>2026-08-20T17:52:29Z</time>
    <speed>1.02</speed>
  </trkpt>
  <trkpt lat="50.627389" lon="-3.822015">
    <ele>312</ele>
    <time>2026-08-20T17:52:40Z</time>
    <speed>0.69</speed>
  </trkpt>
  <trkpt lat="50.627442" lon="-3.822171">
    <ele>311</ele>
    <time>2026-08-20T17:52:51Z</time>
    <speed>1.14</speed>
  </trkpt>
  <trkpt lat="50.627509" lon="-3.822343">
    <ele>309</ele>
    <time>2026-08-20T17:53:02Z</time>
    <speed>0.96999997</speed>
  </trkpt>
  <trkpt lat="50.627581" lon="-3.822460">
    <ele>307</ele>
    <time>2026-08-20T17:53:13Z</time>
    <speed>1.22</speed>
  </trkpt>
  <trkpt lat="50.627619" lon="-3.822599">
    <ele>311</ele>
    <time>2026-08-20T17:53:24Z</time>
    <speed>1.16</speed>
  </trkpt>
  <trkpt lat="50.627557" lon="-3.822768">
    <ele>312</ele>
    <time>2026-08-20T17:53:35Z</time>
    <speed>1.0699999</speed>
  </trkpt>
  <trkpt lat="50.627501" lon="-3.822915">
    <ele>308</ele>
    <time>2026-08-20T17:53:46Z</time>
    <speed>1.1</speed>
  </trkpt>
  <trkpt lat="50.627473" lon="-3.823063">
    <ele>315</ele>
    <time>2026-08-20T17:53:57Z</time>
    <speed>0.96999997</speed>
  </trkpt>
  <trkpt lat="50.627480" lon="-3.823241">
    <ele>309</ele>
    <time>2026-08-20T17:54:08Z</time>
    <speed>1.03</speed>
  </trkpt>
  <trkpt lat="50.627476" lon="-3.823438">
    <ele>315</ele>
    <time>2026-08-20T17:54:19Z</time>
    <speed>1.35</speed>
  </trkpt>
  <trkpt lat="50.627506" lon="-3.823654">
    <ele>317</ele>
    <time>2026-08-20T17:54:30Z</time>
    <speed>1.25</speed>
  </trkpt>
  <trkpt lat="50.627529" lon="-3.823861">
    <ele>316</ele>
    <time>2026-08-20T17:54:41Z</time>
    <speed>1.67</speed>
  </trkpt>
  <trkpt lat="50.627543" lon="-3.824051">
    <ele>318</ele>
    <time>2026-08-20T17:54:52Z</time>
    <speed>1.0</speed>
  </trkpt>
  <trkpt lat="50.627558" lon="-3.824257">
    <ele>317</ele>
    <time>2026-08-20T17:55:03Z</time>
    <speed>1.4499999</speed>
  </trkpt>
  <trkpt lat="50.627563" lon="-3.824446">
    <ele>314</ele>
    <time>2026-08-20T17:55:14Z</time>
    <speed>1.12</speed>
  </trkpt>
  <trkpt lat="50.627600" lon="-3.824660">
    <ele>316</ele>
    <time>2026-08-20T17:55:25Z</time>
    <speed>1.9399999</speed>
  </trkpt>
  <trkpt lat="50.627625" lon="-3.824844">
    <ele>313</ele>
    <time>2026-08-20T17:55:36Z</time>
    <speed>1.4</speed>
  </trkpt>
  <trkpt lat="50.627635" lon="-3.825052">
    <ele>320</ele>
    <time>2026-08-20T17:55:47Z</time>
    <speed>1.65</speed>
  </trkpt>
  <trkpt lat="50.627662" lon="-3.825259">
    <ele>315</ele>
    <time>2026-08-20T17:55:58Z</time>
    <speed>1.3299999</speed>
  </trkpt>
  <trkpt lat="50.627651" lon="-3.825440">
    <ele>317</ele>
    <time>2026-08-20T17:56:09Z</time>
    <speed>0.98999995</speed>
  </trkpt>
  <trkpt lat="50.627667" lon="-3.825580">
    <ele>315</ele>
    <time>2026-08-20T17:56:49Z</time>
    <speed>0.35999998</speed>
  </trkpt>
  <trkpt lat="50.627745" lon="-3.825652">
    <ele>317</ele>
    <time>2026-08-20T17:57:20Z</time>
    <speed>0.79999995</speed>
  </trkpt>
  <trkpt lat="50.627822" lon="-3.825729">
    <ele>313</ele>
    <time>2026-08-20T17:57:44Z</time>
    <speed>1.36</speed>
  </trkpt>
  <trkpt lat="50.627927" lon="-3.825820">
    <ele>315</ele>
    <time>2026-08-20T17:57:55Z</time>
    <speed>1.09</speed>
  </trkpt>
  <trkpt lat="50.627977" lon="-3.825943">
    <ele>315</ele>
    <time>2026-08-20T17:58:10Z</time>
    <speed>1.17</speed>
  </trkpt>
  <trkpt lat="50.627971" lon="-3.826138">
    <ele>318</ele>
    <time>2026-08-20T17:58:21Z</time>
    <speed>0.96</speed>
  </trkpt>
  <trkpt lat="50.627887" lon="-3.826211">
    <ele>318</ele>
    <time>2026-08-20T17:58:32Z</time>
    <speed>1.13</speed>
  </trkpt>
  <trkpt lat="50.627802" lon="-3.826267">
    <ele>320</ele>
    <time>2026-08-20T17:58:54Z</time>
    <speed>1.09</speed>
  </trkpt>
  <trkpt lat="50.627733" lon="-3.826390">
    <ele>325</ele>
    <time>2026-08-20T17:59:05Z</time>
    <speed>1.3299999</speed>
  </trkpt>
  <trkpt lat="50.627657" lon="-3.826567">
    <ele>318</ele>
    <time>2026-08-20T17:59:16Z</time>
    <speed>1.76</speed>
  </trkpt>
  <trkpt lat="50.627592" lon="-3.826666">
    <ele>329</ele>
    <time>2026-08-20T17:59:29Z</time>
    <speed>1.3</speed>
  </trkpt>
  <trkpt lat="50.627506" lon="-3.826727">
    <ele>329</ele>
    <time>2026-08-20T17:59:41Z</time>
    <speed>1.12</speed>
  </trkpt>
  <trkpt lat="50.627439" lon="-3.826830">
    <ele>335</ele>
    <time>2026-08-20T17:59:53Z</time>
    <speed>1.13</speed>
  </trkpt>
  <trkpt lat="50.627350" lon="-3.826880">
    <ele>337</ele>
    <time>2026-08-20T18:00:04Z</time>
    <speed>0.95</speed>
  </trkpt>
  <trkpt lat="50.627286" lon="-3.826987">
    <ele>340</ele>
    <time>2026-08-20T18:00:16Z</time>
    <speed>1.27</speed>
  </trkpt>
  <trkpt lat="50.627199" lon="-3.827077">
    <ele>341</ele>
    <time>2026-08-20T18:00:27Z</time>
    <speed>0.19999999</speed>
  </trkpt>
  <trkpt lat="50.627108" lon="-3.827147">
    <ele>343</ele>
    <time>2026-08-20T18:00:38Z</time>
    <speed>0.96</speed>
  </trkpt>
  <trkpt lat="50.627002" lon="-3.827235">
    <ele>345</ele>
    <time>2026-08-20T18:00:49Z</time>
    <speed>1.04</speed>
  </trkpt>
  <trkpt lat="50.626935" lon="-3.827337">
    <ele>347</ele>
    <time>2026-08-20T18:01:00Z</time>
    <speed>1.12</speed>
  </trkpt>
  <trkpt lat="50.626837" lon="-3.827356">
    <ele>348</ele>
    <time>2026-08-20T18:01:14Z</time>
    <speed>1.3</speed>
  </trkpt>
  <trkpt lat="50.626738" lon="-3.827430">
    <ele>348</ele>
    <time>2026-08-20T18:01:25Z</time>
    <speed>1.1999999</speed>
  </trkpt>
  <trkpt lat="50.626646" lon="-3.827449">
    <ele>351</ele>
    <time>2026-08-20T18:01:36Z</time>
    <speed>0.65999997</speed>
  </trkpt>
  <trkpt lat="50.626556" lon="-3.827491">
    <ele>357</ele>
    <time>2026-08-20T18:01:48Z</time>
    <speed>0.34</speed>
  </trkpt>
  <trkpt lat="50.626460" lon="-3.827497">
    <ele>358</ele>
    <time>2026-08-20T18:02:00Z</time>
    <speed>1.06</speed>
  </trkpt>
  <trkpt lat="50.626371" lon="-3.827539">
    <ele>357</ele>
    <time>2026-08-20T18:02:12Z</time>
    <speed>0.96999997</speed>
  </trkpt>
  <trkpt lat="50.626283" lon="-3.827578">
    <ele>362</ele>
    <time>2026-08-20T18:02:25Z</time>
    <speed>0.26999998</speed>
  </trkpt>
  <trkpt lat="50.626196" lon="-3.827628">
    <ele>365</ele>
    <time>2026-08-20T18:02:39Z</time>
    <speed>0.94</speed>
  </trkpt>
  <trkpt lat="50.626107" lon="-3.827705">
    <ele>369</ele>
    <time>2026-08-20T18:02:50Z</time>
    <speed>0.85999995</speed>
  </trkpt>
  <trkpt lat="50.626024" lon="-3.827771">
    <ele>371</ele>
    <time>2026-08-20T18:03:02Z</time>
    <speed>0.71</speed>
  </trkpt>
  <trkpt lat="50.625944" lon="-3.827854">
    <ele>371</ele>
    <time>2026-08-20T18:03:13Z</time>
    <speed>0.78</speed>
  </trkpt>
  <trkpt lat="50.625826" lon="-3.827947">
    <ele>365</ele>
    <time>2026-08-20T18:03:24Z</time>
    <speed>1.1899999</speed>
  </trkpt>
  <trkpt lat="50.625779" lon="-3.828072">
    <ele>389</ele>
    <time>2026-08-20T18:03:36Z</time>
    <speed>0.13</speed>
  </trkpt>
  <trkpt lat="50.625742" lon="-3.828203">
    <ele>377</ele>
    <time>2026-08-20T18:04:27Z</time>
    <speed>0.85999995</speed>
  </trkpt>
  <trkpt lat="50.625708" lon="-3.828348">
    <ele>372</ele>
    <time>2026-08-20T18:04:38Z</time>
    <speed>1.14</speed>
  </trkpt>
  <trkpt lat="50.625655" lon="-3.828494">
    <ele>380</ele>
    <time>2026-08-20T18:04:49Z</time>
    <speed>1.12</speed>
  </trkpt>
  <trkpt lat="50.625573" lon="-3.828620">
    <ele>380</ele>
    <time>2026-08-20T18:05:00Z</time>
    <speed>0.69</speed>
  </trkpt>
  <trkpt lat="50.625518" lon="-3.828749">
    <ele>380</ele>
    <time>2026-08-20T18:05:11Z</time>
    <speed>1.15</speed>
  </trkpt>
  <trkpt lat="50.625480" lon="-3.828881">
    <ele>383</ele>
    <time>2026-08-20T18:05:22Z</time>
    <speed>1.05</speed>
  </trkpt>
  <trkpt lat="50.625413" lon="-3.828990">
    <ele>377</ele>
    <time>2026-08-20T18:05:33Z</time>
    <speed>1.18</speed>
  </trkpt>
  <trkpt lat="50.625369" lon="-3.829129">
    <ele>378</ele>
    <time>2026-08-20T18:05:44Z</time>
    <speed>0.79999995</speed>
  </trkpt>
  <trkpt lat="50.625313" lon="-3.829282">
    <ele>385</ele>
    <time>2026-08-20T18:05:55Z</time>
    <speed>1.03</speed>
  </trkpt>
  <trkpt lat="50.625246" lon="-3.829411">
    <ele>386</ele>
    <time>2026-08-20T18:06:06Z</time>
    <speed>0.84999996</speed>
  </trkpt>
  <trkpt lat="50.625166" lon="-3.829478">
    <ele>384</ele>
    <time>2026-08-20T18:06:17Z</time>
    <speed>0.39</speed>
  </trkpt>
  <trkpt lat="50.625069" lon="-3.829533">
    <ele>386</ele>
    <time>2026-08-20T18:06:28Z</time>
    <speed>1.1899999</speed>
  </trkpt>
  <trkpt lat="50.624974" lon="-3.829638">
    <ele>390</ele>
    <time>2026-08-20T18:06:39Z</time>
    <speed>1.09</speed>
  </trkpt>
  <trkpt lat="50.624882" lon="-3.829707">
    <ele>391</ele>
    <time>2026-08-20T18:06:50Z</time>
    <speed>0.75</speed>
  </trkpt>
  <trkpt lat="50.624813" lon="-3.829801">
    <ele>393</ele>
    <time>2026-08-20T18:07:03Z</time>
    <speed>0.84999996</speed>
  </trkpt>
  <trkpt lat="50.624738" lon="-3.829904">
    <ele>394</ele>
    <time>2026-08-20T18:07:14Z</time>
    <speed>0.35</speed>
  </trkpt>
  <trkpt lat="50.624662" lon="-3.829998">
    <ele>392</ele>
    <time>2026-08-20T18:07:26Z</time>
    <speed>1.4699999</speed>
  </trkpt>
  <trkpt lat="50.624592" lon="-3.830091">
    <ele>398</ele>
    <time>2026-08-20T18:07:40Z</time>
    <speed>0.78</speed>
  </trkpt>
  <trkpt lat="50.624514" lon="-3.830167">
    <ele>401</ele>
    <time>2026-08-20T18:07:51Z</time>
    <speed>1.14</speed>
  </trkpt>
  <trkpt lat="50.624439" lon="-3.830255">
    <ele>399</ele>
    <time>2026-08-20T18:08:03Z</time>
    <speed>0.96</speed>
  </trkpt>
  <trkpt lat="50.624350" lon="-3.830298">
    <ele>401</ele>
    <time>2026-08-20T18:08:15Z</time>
    <speed>1.28</speed>
  </trkpt>
  <trkpt lat="50.624262" lon="-3.830379">
    <ele>402</ele>
    <time>2026-08-20T18:08:26Z</time>
    <speed>0.96</speed>
  </trkpt>
  <trkpt lat="50.624227" lon="-3.830526">
    <ele>386</ele>
    <time>2026-08-20T18:08:39Z</time>
    <speed>1.0699999</speed>
  </trkpt>
  <trkpt lat="50.624218" lon="-3.830677">
    <ele>402</ele>
    <time>2026-08-20T18:08:50Z</time>
    <speed>0.88</speed>
  </trkpt>
  <trkpt lat="50.624212" lon="-3.830818">
    <ele>406</ele>
    <time>2026-08-20T18:09:03Z</time>
    <speed>1.1999999</speed>
  </trkpt>
  <trkpt lat="50.624108" lon="-3.830907">
    <ele>411</ele>
    <time>2026-08-20T18:09:14Z</time>
    <speed>1.3399999</speed>
  </trkpt>
  <trkpt lat="50.624004" lon="-3.830992">
    <ele>404</ele>
    <time>2026-08-20T18:09:25Z</time>
    <speed>1.04</speed>
  </trkpt>
  <trkpt lat="50.623932" lon="-3.831094">
    <ele>414</ele>
    <time>2026-08-20T18:09:36Z</time>
    <speed>1.02</speed>
  </trkpt>
  <trkpt lat="50.623856" lon="-3.831205">
    <ele>410</ele>
    <time>2026-08-20T18:09:47Z</time>
    <speed>1.0</speed>
  </trkpt>
  <trkpt lat="50.623798" lon="-3.831344">
    <ele>411</ele>
    <time>2026-08-20T18:09:58Z</time>
    <speed>1.2099999</speed>
  </trkpt>
  <trkpt lat="50.623758" lon="-3.831493">
    <ele>410</ele>
    <time>2026-08-20T18:10:09Z</time>
    <speed>1.35</speed>
  </trkpt>
  <trkpt lat="50.623713" lon="-3.831622">
    <ele>410</ele>
    <time>2026-08-20T18:10:20Z</time>
    <speed>1.12</speed>
  </trkpt>
  <trkpt lat="50.623686" lon="-3.831776">
    <ele>415</ele>
    <time>2026-08-20T18:10:31Z</time>
    <speed>1.13</speed>
  </trkpt>
  <trkpt lat="50.623663" lon="-3.831918">
    <ele>419</ele>
    <time>2026-08-20T18:10:43Z</time>
    <speed>0.78999996</speed>
  </trkpt>
  <trkpt lat="50.623657" lon="-3.832065">
    <ele>421</ele>
    <time>2026-08-20T18:10:55Z</time>
    <speed>0.81</speed>
  </trkpt>
  <trkpt lat="50.623570" lon="-3.832195">
    <ele>420</ele>
    <time>2026-08-20T18:11:06Z</time>
    <speed>1.14</speed>
  </trkpt>
  <trkpt lat="50.623510" lon="-3.832365">
    <ele>415</ele>
    <time>2026-08-20T18:11:17Z</time>
    <speed>1.26</speed>
  </trkpt>
  <trkpt lat="50.623429" lon="-3.832497">
    <ele>418</ele>
    <time>2026-08-20T18:11:28Z</time>
    <speed>1.3399999</speed>
  </trkpt>
  <trkpt lat="50.623388" lon="-3.832665">
    <ele>425</ele>
    <time>2026-08-20T18:11:39Z</time>
    <speed>1.4499999</speed>
  </trkpt>
  <trkpt lat="50.623318" lon="-3.832792">
    <ele>426</ele>
    <time>2026-08-20T18:11:50Z</time>
    <speed>1.27</speed>
  </trkpt>
  <trkpt lat="50.623254" lon="-3.832919">
    <ele>430</ele>
    <time>2026-08-20T18:12:01Z</time>
    <speed>0.9</speed>
  </trkpt>
  <trkpt lat="50.623205" lon="-3.833047">
    <ele>425</ele>
    <time>2026-08-20T18:12:12Z</time>
    <speed>0.79999995</speed>
  </trkpt>
  <trkpt lat="50.623133" lon="-3.833161">
    <ele>431</ele>
    <time>2026-08-20T18:12:23Z</time>
    <speed>1.35</speed>
  </trkpt>
  <trkpt lat="50.623090" lon="-3.833293">
    <ele>430</ele>
    <time>2026-08-20T18:12:34Z</time>
    <speed>0.9</speed>
  </trkpt>
  <trkpt lat="50.623028" lon="-3.833409">
    <ele>427</ele>
    <time>2026-08-20T18:12:45Z</time>
    <speed>1.04</speed>
  </trkpt>
  <trkpt lat="50.622967" lon="-3.833516">
    <ele>433</ele>
    <time>2026-08-20T18:12:56Z</time>
    <speed>1.04</speed>
  </trkpt>
  <trkpt lat="50.622886" lon="-3.833619">
    <ele>432</ele>
    <time>2026-08-20T18:13:07Z</time>
    <speed>1.39</speed>
  </trkpt>
  <trkpt lat="50.622777" lon="-3.833710">
    <ele>434</ele>
    <time>2026-08-20T18:13:18Z</time>
    <speed>1.1899999</speed>
  </trkpt>
  <trkpt lat="50.622707" lon="-3.833855">
    <ele>435</ele>
    <time>2026-08-20T18:13:29Z</time>
    <speed>1.22</speed>
  </trkpt>
  <trkpt lat="50.622628" lon="-3.834010">
    <ele>438</ele>
    <time>2026-08-20T18:13:40Z</time>
    <speed>0.89</speed>
  </trkpt>
  <trkpt lat="50.622556" lon="-3.834144">
    <ele>438</ele>
    <time>2026-08-20T18:13:51Z</time>
    <speed>1.17</speed>
  </trkpt>
  <trkpt lat="50.622467" lon="-3.834276">
    <ele>441</ele>
    <time>2026-08-20T18:14:02Z</time>
    <speed>1.31</speed>
  </trkpt>
  <trkpt lat="50.622368" lon="-3.834418">
    <ele>438</ele>
    <time>2026-08-20T18:14:13Z</time>
    <speed>1.4599999</speed>
  </trkpt>
  <trkpt lat="50.622276" lon="-3.834532">
    <ele>441</ele>
    <time>2026-08-20T18:14:24Z</time>
    <speed>0.98999995</speed>
  </trkpt>
  <trkpt lat="50.622206" lon="-3.834660">
    <ele>443</ele>
    <time>2026-08-20T18:14:35Z</time>
    <speed>1.16</speed>
  </trkpt>
  <trkpt lat="50.622149" lon="-3.834799">
    <ele>439</ele>
    <time>2026-08-20T18:14:46Z</time>
    <speed>0.93</speed>
  </trkpt>
  <trkpt lat="50.622116" lon="-3.834941">
    <ele>442</ele>
    <time>2026-08-20T18:14:57Z</time>
    <speed>0.97999996</speed>
  </trkpt>
  <trkpt lat="50.622082" lon="-3.835088">
    <ele>441</ele>
    <time>2026-08-20T18:15:08Z</time>
    <speed>1.0799999</speed>
  </trkpt>
  <trkpt lat="50.622042" lon="-3.835233">
    <ele>447</ele>
    <time>2026-08-20T18:15:19Z</time>
    <speed>1.16</speed>
  </trkpt>
  <trkpt lat="50.622001" lon="-3.835372">
    <ele>448</ele>
    <time>2026-08-20T18:15:30Z</time>
    <speed>1.3399999</speed>
  </trkpt>
  <trkpt lat="50.621938" lon="-3.835500">
    <ele>444</ele>
    <time>2026-08-20T18:15:41Z</time>
    <speed>1.0699999</speed>
  </trkpt>
  <trkpt lat="50.621896" lon="-3.835684">
    <ele>456</ele>
    <time>2026-08-20T18:15:52Z</time>
    <speed>1.11</speed>
  </trkpt>
  <trkpt lat="50.621770" lon="-3.835773">
    <ele>453</ele>
    <time>2026-08-20T18:16:03Z</time>
    <speed>1.3299999</speed>
  </trkpt>
  <trkpt lat="50.621653" lon="-3.835808">
    <ele>455</ele>
    <time>2026-08-20T18:16:14Z</time>
    <speed>1.3199999</speed>
  </trkpt>
  <trkpt lat="50.621584" lon="-3.835926">
    <ele>457</ele>
    <time>2026-08-20T18:16:25Z</time>
    <speed>1.39</speed>
  </trkpt>
  <trkpt lat="50.621544" lon="-3.836053">
    <ele>459</ele>
    <time>2026-08-20T18:16:36Z</time>
    <speed>0.69</speed>
  </trkpt>
  <trkpt lat="50.621521" lon="-3.836197">
    <ele>460</ele>
    <time>2026-08-20T18:16:47Z</time>
    <speed>1.3199999</speed>
  </trkpt>
  <trkpt lat="50.621479" lon="-3.836346">
    <ele>458</ele>
    <time>2026-08-20T18:16:58Z</time>
    <speed>1.04</speed>
  </trkpt>
  <trkpt lat="50.621399" lon="-3.836489">
    <ele>465</ele>
    <time>2026-08-20T18:17:09Z</time>
    <speed>0.84999996</speed>
  </trkpt>
  <trkpt lat="50.621409" lon="-3.836641">
    <ele>466</ele>
    <time>2026-08-20T18:17:22Z</time>
    <speed>0.76</speed>
  </trkpt>
  <trkpt lat="50.621409" lon="-3.836812">
    <ele>463</ele>
    <time>2026-08-20T18:17:33Z</time>
    <speed>0.96999997</speed>
  </trkpt>
  <trkpt lat="50.621344" lon="-3.836949">
    <ele>469</ele>
    <time>2026-08-20T18:17:44Z</time>
    <speed>1.3</speed>
  </trkpt>
  <trkpt lat="50.621276" lon="-3.837093">
    <ele>470</ele>
    <time>2026-08-20T18:17:55Z</time>
    <speed>1.25</speed>
  </trkpt>
  <trkpt lat="50.621199" lon="-3.837239">
    <ele>473</ele>
    <time>2026-08-20T18:18:06Z</time>
    <speed>1.36</speed>
  </trkpt>
  <trkpt lat="50.621130" lon="-3.837356">
    <ele>474</ele>
    <time>2026-08-20T18:18:17Z</time>
    <speed>1.04</speed>
  </trkpt>
  <trkpt lat="50.621053" lon="-3.837479">
    <ele>474</ele>
    <time>2026-08-20T18:18:28Z</time>
    <speed>0.84999996</speed>
  </trkpt>
  <trkpt lat="50.620984" lon="-3.837622">
    <ele>472</ele>
    <time>2026-08-20T18:18:39Z</time>
    <speed>1.26</speed>
  </trkpt>
  <trkpt lat="50.620925" lon="-3.837761">
    <ele>476</ele>
    <time>2026-08-20T18:18:50Z</time>
    <speed>1.16</speed>
  </trkpt>
  <trkpt lat="50.620871" lon="-3.837890">
    <ele>477</ele>
    <time>2026-08-20T18:19:01Z</time>
    <speed>1.09</speed>
  </trkpt>
  <trkpt lat="50.620825" lon="-3.838027">
    <ele>476</ele>
    <time>2026-08-20T18:19:12Z</time>
    <speed>1.27</speed>
  </trkpt>
  <trkpt lat="50.620736" lon="-3.838143">
    <ele>484</ele>
    <time>2026-08-20T18:19:23Z</time>
    <speed>0.97999996</speed>
  </trkpt>
  <trkpt lat="50.620701" lon="-3.838311">
    <ele>489</ele>
    <time>2026-08-20T18:19:34Z</time>
    <speed>1.0</speed>
  </trkpt>
  <trkpt lat="50.620636" lon="-3.838446">
    <ele>483</ele>
    <time>2026-08-20T18:19:45Z</time>
    <speed>1.01</speed>
  </trkpt>
  <trkpt lat="50.620554" lon="-3.838602">
    <ele>486</ele>
    <time>2026-08-20T18:19:56Z</time>
    <speed>1.26</speed>
  </trkpt>
  <trkpt lat="50.620476" lon="-3.838726">
    <ele>483</ele>
    <time>2026-08-20T18:20:07Z</time>
    <speed>1.15</speed>
  </trkpt>
  <trkpt lat="50.620415" lon="-3.838855">
    <ele>490</ele>
    <time>2026-08-20T18:20:18Z</time>
    <speed>1.43</speed>
  </trkpt>
  <trkpt lat="50.620363" lon="-3.839004">
    <ele>488</ele>
    <time>2026-08-20T18:20:29Z</time>
    <speed>1.24</speed>
  </trkpt>
  <trkpt lat="50.620348" lon="-3.839155">
    <ele>492</ele>
    <time>2026-08-20T18:20:41Z</time>
    <speed>1.18</speed>
  </trkpt>
  <trkpt lat="50.620324" lon="-3.839308">
    <ele>492</ele>
    <time>2026-08-20T18:20:52Z</time>
    <speed>0.96999997</speed>
  </trkpt>
  <trkpt lat="50.620280" lon="-3.839470">
    <ele>495</ele>
    <time>2026-08-20T18:21:03Z</time>
    <speed>1.28</speed>
  </trkpt>
  <trkpt lat="50.620225" lon="-3.839602">
    <ele>496</ele>
    <time>2026-08-20T18:21:42Z</time>
    <speed>1.06</speed>
  </trkpt>
  <trkpt lat="50.620211" lon="-3.839749">
    <ele>496</ele>
    <time>2026-08-20T18:21:53Z</time>
    <speed>0.55</speed>
  </trkpt>
  <trkpt lat="50.620157" lon="-3.839864">
    <ele>499</ele>
    <time>2026-08-20T18:22:07Z</time>
    <speed>0.5</speed>
  </trkpt>
  <trkpt lat="50.620069" lon="-3.839899">
    <ele>496</ele>
    <time>2026-08-20T18:24:50Z</time>
    <speed>1.1899999</speed>
  </trkpt>
  <trkpt lat="50.619972" lon="-3.839971">
    <ele>498</ele>
    <time>2026-08-20T18:25:01Z</time>
    <speed>0.96</speed>
  </trkpt>
  <trkpt lat="50.619883" lon="-3.840046">
    <ele>499</ele>
    <time>2026-08-20T18:25:13Z</time>
    <speed>1.4</speed>
  </trkpt>
  <trkpt lat="50.619770" lon="-3.840162">
    <ele>499</ele>
    <time>2026-08-20T18:25:24Z</time>
    <speed>1.14</speed>
  </trkpt>
  <trkpt lat="50.619670" lon="-3.840231">
    <ele>500</ele>
    <time>2026-08-20T18:25:35Z</time>
    <speed>1.0</speed>
  </trkpt>
  <trkpt lat="50.619566" lon="-3.840321">
    <ele>494</ele>
    <time>2026-08-20T18:25:46Z</time>
    <speed>1.65</speed>
  </trkpt>
  <trkpt lat="50.619467" lon="-3.840439">
    <ele>501</ele>
    <time>2026-08-20T18:25:57Z</time>
    <speed>1.3399999</speed>
  </trkpt>
  <trkpt lat="50.619335" lon="-3.840527">
    <ele>503</ele>
    <time>2026-08-20T18:26:08Z</time>
    <speed>1.27</speed>
  </trkpt>
  <trkpt lat="50.619216" lon="-3.840614">
    <ele>501</ele>
    <time>2026-08-20T18:26:19Z</time>
    <speed>1.3399999</speed>
  </trkpt>
  <trkpt lat="50.619090" lon="-3.840634">
    <ele>492</ele>
    <time>2026-08-20T18:26:30Z</time>
    <speed>3.6299999</speed>
  </trkpt>
  <trkpt lat="50.618965" lon="-3.840728">
    <ele>506</ele>
    <time>2026-08-20T18:26:41Z</time>
    <speed>1.65</speed>
  </trkpt>
  <trkpt lat="50.618877" lon="-3.840759">
    <ele>508</ele>
    <time>2026-08-20T18:26:52Z</time>
    <speed>1.25</speed>
  </trkpt>
  <trkpt lat="50.618774" lon="-3.840859">
    <ele>508</ele>
    <time>2026-08-20T18:27:03Z</time>
    <speed>1.8199999</speed>
  </trkpt>
  <trkpt lat="50.618646" lon="-3.840813">
    <ele>511</ele>
    <time>2026-08-20T18:27:14Z</time>
    <speed>1.0799999</speed>
  </trkpt>
  <trkpt lat="50.618504" lon="-3.840762">
    <ele>507</ele>
    <time>2026-08-20T18:27:25Z</time>
    <speed>1.04</speed>
  </trkpt>
  <trkpt lat="50.618372" lon="-3.840728">
    <ele>508</ele>
    <time>2026-08-20T18:27:36Z</time>
    <speed>1.23</speed>
  </trkpt>
  <trkpt lat="50.618240" lon="-3.840676">
    <ele>511</ele>
    <time>2026-08-20T18:27:47Z</time>
    <speed>1.54</speed>
  </trkpt>
  <trkpt lat="50.618120" lon="-3.840627">
    <ele>511</ele>
    <time>2026-08-20T18:27:58Z</time>
    <speed>1.37</speed>
  </trkpt>
  <trkpt lat="50.617978" lon="-3.840577">
    <ele>514</ele>
    <time>2026-08-20T18:28:09Z</time>
    <speed>1.3</speed>
  </trkpt>
  <trkpt lat="50.617832" lon="-3.840522">
    <ele>512</ele>
    <time>2026-08-20T18:28:20Z</time>
    <speed>1.79</speed>
  </trkpt>
  <trkpt lat="50.617729" lon="-3.840495">
    <ele>516</ele>
    <time>2026-08-20T18:28:32Z</time>
    <speed>1.93</speed>
  </trkpt>
  <trkpt lat="50.617592" lon="-3.840453">
    <ele>518</ele>
    <time>2026-08-20T18:28:43Z</time>
    <speed>1.25</speed>
  </trkpt>
  <trkpt lat="50.617461" lon="-3.840449">
    <ele>511</ele>
    <time>2026-08-20T18:28:54Z</time>
    <speed>1.64</speed>
  </trkpt>
  <trkpt lat="50.617328" lon="-3.840457">
    <ele>518</ele>
    <time>2026-08-20T18:29:05Z</time>
    <speed>1.76</speed>
  </trkpt>
  <trkpt lat="50.617210" lon="-3.840552">
    <ele>519</ele>
    <time>2026-08-20T18:29:16Z</time>
    <speed>1.49</speed>
  </trkpt>
  <trkpt lat="50.617061" lon="-3.840601">
    <ele>520</ele>
    <time>2026-08-20T18:29:27Z</time>
    <speed>1.5799999</speed>
  </trkpt>
  <trkpt lat="50.616935" lon="-3.840609">
    <ele>519</ele>
    <time>2026-08-20T18:29:38Z</time>
    <speed>1.39</speed>
  </trkpt>
  <trkpt lat="50.616795" lon="-3.840672">
    <ele>520</ele>
    <time>2026-08-20T18:29:49Z</time>
    <speed>1.1</speed>
  </trkpt>
  <trkpt lat="50.616670" lon="-3.840715">
    <ele>519</ele>
    <time>2026-08-20T18:30:00Z</time>
    <speed>1.24</speed>
  </trkpt>
  <trkpt lat="50.616568" lon="-3.840845">
    <ele>518</ele>
    <time>2026-08-20T18:30:11Z</time>
    <speed>1.3199999</speed>
  </trkpt>
  <trkpt lat="50.616478" lon="-3.840904">
    <ele>517</ele>
    <time>2026-08-20T18:30:22Z</time>
    <speed>1.24</speed>
  </trkpt>
  <trkpt lat="50.616385" lon="-3.840928">
    <ele>517</ele>
    <time>2026-08-20T18:30:34Z</time>
    <speed>1.17</speed>
  </trkpt>
  <trkpt lat="50.616331" lon="-3.841049">
    <ele>514</ele>
    <time>2026-08-20T18:32:04Z</time>
    <speed>0.34</speed>
  </trkpt>
  <trkpt lat="50.616339" lon="-3.840908">
    <ele>514</ele>
    <time>2026-08-20T18:47:02Z</time>
    <speed>0.53</speed>
  </trkpt>
  <trkpt lat="50.616256" lon="-3.840846">
    <ele>513</ele>
    <time>2026-08-20T18:47:32Z</time>
    <speed>1.23</speed>
  </trkpt>
  <trkpt lat="50.616155" lon="-3.840807">
    <ele>512</ele>
    <time>2026-08-20T18:47:43Z</time>
    <speed>0.97999996</speed>
  </trkpt>
  <trkpt lat="50.616084" lon="-3.840688">
    <ele>508</ele>
    <time>2026-08-20T18:47:54Z</time>
    <speed>1.17</speed>
  </trkpt>
  <trkpt lat="50.615994" lon="-3.840659">
    <ele>508</ele>
    <time>2026-08-20T18:48:08Z</time>
    <speed>0.57</speed>
  </trkpt>
  <trkpt lat="50.615909" lon="-3.840587">
    <ele>505</ele>
    <time>2026-08-20T18:48:23Z</time>
    <speed>0.96</speed>
  </trkpt>
  <trkpt lat="50.615858" lon="-3.840433">
    <ele>504</ele>
    <time>2026-08-20T18:48:34Z</time>
    <speed>1.03</speed>
  </trkpt>
  <trkpt lat="50.615805" lon="-3.840291">
    <ele>504</ele>
    <time>2026-08-20T18:48:45Z</time>
    <speed>0.52</speed>
  </trkpt>
  <trkpt lat="50.615748" lon="-3.840134">
    <ele>501</ele>
    <time>2026-08-20T18:48:56Z</time>
    <speed>0.94</speed>
  </trkpt>
  <trkpt lat="50.615662" lon="-3.840070">
    <ele>500</ele>
    <time>2026-08-20T18:49:10Z</time>
    <speed>0.55</speed>
  </trkpt>
  <trkpt lat="50.615583" lon="-3.839979">
    <ele>499</ele>
    <time>2026-08-20T18:49:22Z</time>
    <speed>0.84</speed>
  </trkpt>
  <trkpt lat="50.615503" lon="-3.839875">
    <ele>497</ele>
    <time>2026-08-20T18:49:33Z</time>
    <speed>1.1</speed>
  </trkpt>
  <trkpt lat="50.615418" lon="-3.839790">
    <ele>495</ele>
    <time>2026-08-20T18:49:44Z</time>
    <speed>1.35</speed>
  </trkpt>
  <trkpt lat="50.615322" lon="-3.839750">
    <ele>496</ele>
    <time>2026-08-20T18:50:00Z</time>
    <speed>1.42</speed>
  </trkpt>
  <trkpt lat="50.615224" lon="-3.839744">
    <ele>489</ele>
    <time>2026-08-20T18:50:11Z</time>
    <speed>0.83</speed>
  </trkpt>
  <trkpt lat="50.615132" lon="-3.839716">
    <ele>490</ele>
    <time>2026-08-20T18:50:22Z</time>
    <speed>0.85999995</speed>
  </trkpt>
  <trkpt lat="50.615036" lon="-3.839705">
    <ele>488</ele>
    <time>2026-08-20T18:50:35Z</time>
    <speed>0.90999997</speed>
  </trkpt>
  <trkpt lat="50.614928" lon="-3.839679">
    <ele>486</ele>
    <time>2026-08-20T18:50:46Z</time>
    <speed>1.1</speed>
  </trkpt>
  <trkpt lat="50.614809" lon="-3.839637">
    <ele>483</ele>
    <time>2026-08-20T18:50:57Z</time>
    <speed>1.02</speed>
  </trkpt>
  <trkpt lat="50.614720" lon="-3.839609">
    <ele>472</ele>
    <time>2026-08-20T18:51:08Z</time>
    <speed>1.02</speed>
  </trkpt>
  <trkpt lat="50.614630" lon="-3.839614">
    <ele>475</ele>
    <time>2026-08-20T18:51:20Z</time>
    <speed>0.71999997</speed>
  </trkpt>
  <trkpt lat="50.614538" lon="-3.839640">
    <ele>482</ele>
    <time>2026-08-20T18:51:31Z</time>
    <speed>0.96999997</speed>
  </trkpt>
  <trkpt lat="50.614445" lon="-3.839601">
    <ele>474</ele>
    <time>2026-08-20T18:51:46Z</time>
    <speed>0.93</speed>
  </trkpt>
  <trkpt lat="50.614359" lon="-3.839532">
    <ele>474</ele>
    <time>2026-08-20T18:51:57Z</time>
    <speed>1.0</speed>
  </trkpt>
  <trkpt lat="50.614270" lon="-3.839498">
    <ele>472</ele>
    <time>2026-08-20T18:52:08Z</time>
    <speed>0.98999995</speed>
  </trkpt>
  <trkpt lat="50.614172" lon="-3.839438">
    <ele>469</ele>
    <time>2026-08-20T18:52:19Z</time>
    <speed>1.39</speed>
  </trkpt>
  <trkpt lat="50.614070" lon="-3.839403">
    <ele>471</ele>
    <time>2026-08-20T18:52:30Z</time>
    <speed>1.49</speed>
  </trkpt>
  <trkpt lat="50.613961" lon="-3.839344">
    <ele>465</ele>
    <time>2026-08-20T18:52:41Z</time>
    <speed>1.0799999</speed>
  </trkpt>
  <trkpt lat="50.613885" lon="-3.839258">
    <ele>465</ele>
    <time>2026-08-20T18:52:52Z</time>
    <speed>1.8</speed>
  </trkpt>
  <trkpt lat="50.613802" lon="-3.839195">
    <ele>467</ele>
    <time>2026-08-20T18:53:03Z</time>
    <speed>0.71</speed>
  </trkpt>
  <trkpt lat="50.613708" lon="-3.839137">
    <ele>463</ele>
    <time>2026-08-20T18:53:15Z</time>
    <speed>1.3299999</speed>
  </trkpt>
  <trkpt lat="50.613624" lon="-3.839043">
    <ele>464</ele>
    <time>2026-08-20T18:53:26Z</time>
    <speed>0.59</speed>
  </trkpt>
  <trkpt lat="50.613527" lon="-3.839026">
    <ele>461</ele>
    <time>2026-08-20T18:53:39Z</time>
    <speed>1.68</speed>
  </trkpt>
  <trkpt lat="50.613414" lon="-3.838982">
    <ele>466</ele>
    <time>2026-08-20T18:53:50Z</time>
    <speed>1.4699999</speed>
  </trkpt>
  <trkpt lat="50.613293" lon="-3.838953">
    <ele>469</ele>
    <time>2026-08-20T18:54:01Z</time>
    <speed>1.17</speed>
  </trkpt>
  <trkpt lat="50.613187" lon="-3.838918">
    <ele>467</ele>
    <time>2026-08-20T18:54:12Z</time>
    <speed>1.3</speed>
  </trkpt>
  <trkpt lat="50.613071" lon="-3.838866">
    <ele>471</ele>
    <time>2026-08-20T18:54:23Z</time>
    <speed>1.24</speed>
  </trkpt>
  <trkpt lat="50.612971" lon="-3.838764">
    <ele>472</ele>
    <time>2026-08-20T18:54:34Z</time>
    <speed>1.1899999</speed>
  </trkpt>
  <trkpt lat="50.612941" lon="-3.838589">
    <ele>480</ele>
    <time>2026-08-20T18:54:45Z</time>
    <speed>2.82</speed>
  </trkpt>
  <trkpt lat="50.612953" lon="-3.838435">
    <ele>474</ele>
    <time>2026-08-20T18:55:01Z</time>
    <speed>0.98999995</speed>
  </trkpt>
  <trkpt lat="50.612957" lon="-3.838287">
    <ele>473</ele>
    <time>2026-08-20T18:55:16Z</time>
    <speed>0.52</speed>
  </trkpt>
  <trkpt lat="50.613040" lon="-3.838196">
    <ele>469</ele>
    <time>2026-08-20T18:55:29Z</time>
    <speed>1.99</speed>
  </trkpt>
  <trkpt lat="50.613051" lon="-3.838056">
    <ele>474</ele>
    <time>2026-08-20T18:55:42Z</time>
    <speed>1.02</speed>
  </trkpt>
  <trkpt lat="50.613027" lon="-3.837915">
    <ele>479</ele>
    <time>2026-08-20T18:55:59Z</time>
    <speed>0.52</speed>
  </trkpt>
  <trkpt lat="50.613030" lon="-3.837768">
    <ele>478</ele>
    <time>2026-08-20T18:56:49Z</time>
    <speed>0.04</speed>
  </trkpt>
  <trkpt lat="50.612968" lon="-3.837656">
    <ele>477</ele>
    <time>2026-08-20T18:58:49Z</time>
    <speed>0.69</speed>
  </trkpt>
  <trkpt lat="50.612959" lon="-3.837498">
    <ele>475</ele>
    <time>2026-08-20T18:59:00Z</time>
    <speed>1.36</speed>
  </trkpt>
  <trkpt lat="50.612927" lon="-3.837356">
    <ele>479</ele>
    <time>2026-08-20T18:59:14Z</time>
    <speed>1.05</speed>
  </trkpt>
  <trkpt lat="50.612895" lon="-3.837223">
    <ele>483</ele>
    <time>2026-08-20T18:59:29Z</time>
    <speed>0.61</speed>
  </trkpt>
  <trkpt lat="50.612825" lon="-3.837130">
    <ele>486</ele>
    <time>2026-08-20T18:59:47Z</time>
    <speed>0.77</speed>
  </trkpt>
  <trkpt lat="50.612733" lon="-3.837111">
    <ele>488</ele>
    <time>2026-08-20T19:00:00Z</time>
    <speed>0.65999997</speed>
  </trkpt>
  <trkpt lat="50.612641" lon="-3.837065">
    <ele>490</ele>
    <time>2026-08-20T19:00:12Z</time>
    <speed>0.78999996</speed>
  </trkpt>
  <trkpt lat="50.612550" lon="-3.837006">
    <ele>494</ele>
    <time>2026-08-20T19:00:26Z</time>
    <speed>1.25</speed>
  </trkpt>
  <trkpt lat="50.612459" lon="-3.836950">
    <ele>495</ele>
    <time>2026-08-20T19:00:38Z</time>
    <speed>0.78999996</speed>
  </trkpt>
  <trkpt lat="50.612367" lon="-3.836905">
    <ele>495</ele>
    <time>2026-08-20T19:00:49Z</time>
    <speed>0.72999996</speed>
  </trkpt>
  <trkpt lat="50.612275" lon="-3.836856">
    <ele>499</ele>
    <time>2026-08-20T19:01:01Z</time>
    <speed>0.88</speed>
  </trkpt>
  <trkpt lat="50.612179" lon="-3.836783">
    <ele>500</ele>
    <time>2026-08-20T19:01:12Z</time>
    <speed>0.98999995</speed>
  </trkpt>
  <trkpt lat="50.612098" lon="-3.836713">
    <ele>498</ele>
    <time>2026-08-20T19:01:25Z</time>
    <speed>1.29</speed>
  </trkpt>
  <trkpt lat="50.612021" lon="-3.836633">
    <ele>503</ele>
    <time>2026-08-20T19:01:38Z</time>
    <speed>1.4399999</speed>
  </trkpt>
  <trkpt lat="50.611943" lon="-3.836558">
    <ele>504</ele>
    <time>2026-08-20T19:01:50Z</time>
    <speed>1.02</speed>
  </trkpt>
  <trkpt lat="50.611866" lon="-3.836479">
    <ele>506</ele>
    <time>2026-08-20T19:02:07Z</time>
    <speed>0.97999996</speed>
  </trkpt>
  <trkpt lat="50.611786" lon="-3.836409">
    <ele>513</ele>
    <time>2026-08-20T19:02:20Z</time>
    <speed>1.18</speed>
  </trkpt>
  <trkpt lat="50.611702" lon="-3.836356">
    <ele>516</ele>
    <time>2026-08-20T19:02:38Z</time>
    <speed>0.45</speed>
  </trkpt>
  <trkpt lat="50.611631" lon="-3.836265">
    <ele>519</ele>
    <time>2026-08-20T19:02:56Z</time>
    <speed>0.32999998</speed>
  </trkpt>
  <trkpt lat="50.611543" lon="-3.836230">
    <ele>523</ele>
    <time>2026-08-20T19:03:12Z</time>
    <speed>0.16</speed>
  </trkpt>
  <trkpt lat="50.611466" lon="-3.836146">
    <ele>519</ele>
    <time>2026-08-20T19:03:27Z</time>
    <speed>1.1899999</speed>
  </trkpt>
  <trkpt lat="50.611379" lon="-3.836082">
    <ele>528</ele>
    <time>2026-08-20T19:03:43Z</time>
    <speed>0.48999998</speed>
  </trkpt>
  <trkpt lat="50.611289" lon="-3.836039">
    <ele>527</ele>
    <time>2026-08-20T19:03:59Z</time>
    <speed>0.65</speed>
  </trkpt>
  <trkpt lat="50.611212" lon="-3.835942">
    <ele>533</ele>
    <time>2026-08-20T19:04:10Z</time>
    <speed>0.14999999</speed>
  </trkpt>
  <trkpt lat="50.611121" lon="-3.835897">
    <ele>535</ele>
    <time>2026-08-20T19:04:26Z</time>
    <speed>1.2099999</speed>
  </trkpt>
  <trkpt lat="50.611020" lon="-3.835828">
    <ele>528</ele>
    <time>2026-08-20T19:04:37Z</time>
    <speed>1.22</speed>
  </trkpt>
  <trkpt lat="50.610943" lon="-3.835727">
    <ele>534</ele>
    <time>2026-08-20T19:04:49Z</time>
    <speed>1.3299999</speed>
  </trkpt>
  <trkpt lat="50.610869" lon="-3.835604">
    <ele>543</ele>
    <time>2026-08-20T19:05:00Z</time>
    <speed>0.94</speed>
  </trkpt>
  <trkpt lat="50.610795" lon="-3.835488">
    <ele>543</ele>
    <time>2026-08-20T19:05:11Z</time>
    <speed>0.79999995</speed>
  </trkpt>
  <trkpt lat="50.610748" lon="-3.835362">
    <ele>544</ele>
    <time>2026-08-20T19:05:29Z</time>
    <speed>1.29</speed>
  </trkpt>
  <trkpt lat="50.610691" lon="-3.835247">
    <ele>544</ele>
    <time>2026-08-20T19:05:40Z</time>
    <speed>1.6899999</speed>
  </trkpt>
  <trkpt lat="50.610627" lon="-3.835084">
    <ele>547</ele>
    <time>2026-08-20T19:05:51Z</time>
    <speed>1.4499999</speed>
  </trkpt>
  <trkpt lat="50.610551" lon="-3.834900">
    <ele>541</ele>
    <time>2026-08-20T19:06:02Z</time>
    <speed>1.4699999</speed>
  </trkpt>
  <trkpt lat="50.610517" lon="-3.834705">
    <ele>550</ele>
    <time>2026-08-20T19:06:13Z</time>
    <speed>1.23</speed>
  </trkpt>
  <trkpt lat="50.610476" lon="-3.834525">
    <ele>550</ele>
    <time>2026-08-20T19:06:24Z</time>
    <speed>1.48</speed>
  </trkpt>
  <trkpt lat="50.610421" lon="-3.834383">
    <ele>553</ele>
    <time>2026-08-20T19:06:35Z</time>
    <speed>1.25</speed>
  </trkpt>
  <trkpt lat="50.610386" lon="-3.834250">
    <ele>546</ele>
    <time>2026-08-20T19:06:51Z</time>
    <speed>1.1999999</speed>
  </trkpt>
  <trkpt lat="50.610440" lon="-3.834129">
    <ele>549</ele>
    <time>2026-08-20T19:07:28Z</time>
    <speed>1.39</speed>
  </trkpt>
  <trkpt lat="50.610478" lon="-3.833932">
    <ele>550</ele>
    <time>2026-08-20T19:07:39Z</time>
    <speed>1.62</speed>
  </trkpt>
  <trkpt lat="50.610525" lon="-3.833713">
    <ele>550</ele>
    <time>2026-08-20T19:07:50Z</time>
    <speed>1.66</speed>
  </trkpt>
  <trkpt lat="50.610569" lon="-3.833516">
    <ele>545</ele>
    <time>2026-08-20T19:08:01Z</time>
    <speed>1.5899999</speed>
  </trkpt>
  <trkpt lat="50.610626" lon="-3.833296">
    <ele>547</ele>
    <time>2026-08-20T19:08:12Z</time>
    <speed>1.48</speed>
  </trkpt>
  <trkpt lat="50.610699" lon="-3.833068">
    <ele>548</ele>
    <time>2026-08-20T19:08:23Z</time>
    <speed>1.4699999</speed>
  </trkpt>
  <trkpt lat="50.610737" lon="-3.832848">
    <ele>545</ele>
    <time>2026-08-20T19:08:34Z</time>
    <speed>1.79</speed>
  </trkpt>
  <trkpt lat="50.610831" lon="-3.832636">
    <ele>545</ele>
    <time>2026-08-20T19:08:45Z</time>
    <speed>1.62</speed>
  </trkpt>
  <trkpt lat="50.610850" lon="-3.832430">
    <ele>546</ele>
    <time>2026-08-20T19:08:56Z</time>
    <speed>1.13</speed>
  </trkpt>
  <trkpt lat="50.610879" lon="-3.832218">
    <ele>540</ele>
    <time>2026-08-20T19:09:07Z</time>
    <speed>1.4699999</speed>
  </trkpt>
  <trkpt lat="50.610918" lon="-3.831991">
    <ele>544</ele>
    <time>2026-08-20T19:09:18Z</time>
    <speed>1.49</speed>
  </trkpt>
  <trkpt lat="50.610963" lon="-3.831777">
    <ele>541</ele>
    <time>2026-08-20T19:09:29Z</time>
    <speed>1.63</speed>
  </trkpt>
  <trkpt lat="50.610957" lon="-3.831545">
    <ele>541</ele>
    <time>2026-08-20T19:09:40Z</time>
    <speed>1.25</speed>
  </trkpt>
  <trkpt lat="50.610961" lon="-3.831330">
    <ele>538</ele>
    <time>2026-08-20T19:09:51Z</time>
    <speed>1.4599999</speed>
  </trkpt>
  <trkpt lat="50.610961" lon="-3.831121">
    <ele>540</ele>
    <time>2026-08-20T19:10:02Z</time>
    <speed>1.35</speed>
  </trkpt>
  <trkpt lat="50.610954" lon="-3.830893">
    <ele>538</ele>
    <time>2026-08-20T19:10:13Z</time>
    <speed>1.38</speed>
  </trkpt>
  <trkpt lat="50.610955" lon="-3.830693">
    <ele>536</ele>
    <time>2026-08-20T19:10:24Z</time>
    <speed>1.68</speed>
  </trkpt>
  <trkpt lat="50.610949" lon="-3.830491">
    <ele>536</ele>
    <time>2026-08-20T19:10:35Z</time>
    <speed>1.27</speed>
  </trkpt>
  <trkpt lat="50.610917" lon="-3.830279">
    <ele>536</ele>
    <time>2026-08-20T19:10:46Z</time>
    <speed>1.4</speed>
  </trkpt>
  <trkpt lat="50.610899" lon="-3.830072">
    <ele>530</ele>
    <time>2026-08-20T19:10:57Z</time>
    <speed>1.22</speed>
  </trkpt>
  <trkpt lat="50.610871" lon="-3.829876">
    <ele>534</ele>
    <time>2026-08-20T19:11:08Z</time>
    <speed>1.1899999</speed>
  </trkpt>
  <trkpt lat="50.610861" lon="-3.829651">
    <ele>533</ele>
    <time>2026-08-20T19:11:19Z</time>
    <speed>1.1899999</speed>
  </trkpt>
  <trkpt lat="50.610838" lon="-3.829450">
    <ele>535</ele>
    <time>2026-08-20T19:11:30Z</time>
    <speed>1.61</speed>
  </trkpt>
  <trkpt lat="50.610834" lon="-3.829285">
    <ele>529</ele>
    <time>2026-08-20T19:11:44Z</time>
    <speed>1.79</speed>
  </trkpt>
  <trkpt lat="50.610812" lon="-3.829085">
    <ele>530</ele>
    <time>2026-08-20T19:11:55Z</time>
    <speed>1.18</speed>
  </trkpt>
  <trkpt lat="50.610776" lon="-3.828892">
    <ele>526</ele>
    <time>2026-08-20T19:12:06Z</time>
    <speed>1.41</speed>
  </trkpt>
  <trkpt lat="50.610757" lon="-3.828749">
    <ele>531</ele>
    <time>2026-08-20T19:12:19Z</time>
    <speed>1.09</speed>
  </trkpt>
  <trkpt lat="50.610794" lon="-3.828546">
    <ele>527</ele>
    <time>2026-08-20T19:12:30Z</time>
    <speed>1.4599999</speed>
  </trkpt>
  <trkpt lat="50.610838" lon="-3.828319">
    <ele>526</ele>
    <time>2026-08-20T19:12:41Z</time>
    <speed>1.05</speed>
  </trkpt>
  <trkpt lat="50.610897" lon="-3.828099">
    <ele>527</ele>
    <time>2026-08-20T19:12:52Z</time>
    <speed>1.31</speed>
  </trkpt>
  <trkpt lat="50.610972" lon="-3.827903">
    <ele>527</ele>
    <time>2026-08-20T19:13:03Z</time>
    <speed>1.3399999</speed>
  </trkpt>
  <trkpt lat="50.611049" lon="-3.827693">
    <ele>528</ele>
    <time>2026-08-20T19:13:14Z</time>
    <speed>1.6999999</speed>
  </trkpt>
  <trkpt lat="50.611107" lon="-3.827488">
    <ele>527</ele>
    <time>2026-08-20T19:13:25Z</time>
    <speed>1.93</speed>
  </trkpt>
  <trkpt lat="50.611159" lon="-3.827272">
    <ele>526</ele>
    <time>2026-08-20T19:13:36Z</time>
    <speed>1.49</speed>
  </trkpt>
  <trkpt lat="50.611221" lon="-3.827074">
    <ele>523</ele>
    <time>2026-08-20T19:13:47Z</time>
    <speed>1.3</speed>
  </trkpt>
  <trkpt lat="50.611302" lon="-3.826890">
    <ele>530</ele>
    <time>2026-08-20T19:13:58Z</time>
    <speed>1.63</speed>
  </trkpt>
  <trkpt lat="50.611391" lon="-3.826712">
    <ele>524</ele>
    <time>2026-08-20T19:14:09Z</time>
    <speed>1.5699999</speed>
  </trkpt>
  <trkpt lat="50.611439" lon="-3.826498">
    <ele>523</ele>
    <time>2026-08-20T19:14:20Z</time>
    <speed>1.3</speed>
  </trkpt>
  <trkpt lat="50.611504" lon="-3.826288">
    <ele>522</ele>
    <time>2026-08-20T19:14:31Z</time>
    <speed>1.55</speed>
  </trkpt>
  <trkpt lat="50.611578" lon="-3.826085">
    <ele>521</ele>
    <time>2026-08-20T19:14:42Z</time>
    <speed>1.5</speed>
  </trkpt>
  <trkpt lat="50.611643" lon="-3.825872">
    <ele>517</ele>
    <time>2026-08-20T19:14:53Z</time>
    <speed>1.52</speed>
  </trkpt>
  <trkpt lat="50.611694" lon="-3.825663">
    <ele>520</ele>
    <time>2026-08-20T19:15:04Z</time>
    <speed>1.14</speed>
  </trkpt>
  <trkpt lat="50.611735" lon="-3.825446">
    <ele>520</ele>
    <time>2026-08-20T19:15:15Z</time>
    <speed>1.3</speed>
  </trkpt>
  <trkpt lat="50.611781" lon="-3.825226">
    <ele>514</ele>
    <time>2026-08-20T19:15:26Z</time>
    <speed>1.4699999</speed>
  </trkpt>
  <trkpt lat="50.611813" lon="-3.824990">
    <ele>517</ele>
    <time>2026-08-20T19:15:37Z</time>
    <speed>1.39</speed>
  </trkpt>
  <trkpt lat="50.611861" lon="-3.824778">
    <ele>515</ele>
    <time>2026-08-20T19:15:48Z</time>
    <speed>1.5899999</speed>
  </trkpt>
  <trkpt lat="50.611899" lon="-3.824575">
    <ele>515</ele>
    <time>2026-08-20T19:15:59Z</time>
    <speed>1.3</speed>
  </trkpt>
  <trkpt lat="50.611935" lon="-3.824368">
    <ele>514</ele>
    <time>2026-08-20T19:16:10Z</time>
    <speed>1.5799999</speed>
  </trkpt>
  <trkpt lat="50.611975" lon="-3.824139">
    <ele>508</ele>
    <time>2026-08-20T19:16:21Z</time>
    <speed>1.8499999</speed>
  </trkpt>
  <trkpt lat="50.612014" lon="-3.823925">
    <ele>508</ele>
    <time>2026-08-20T19:16:32Z</time>
    <speed>1.79</speed>
  </trkpt>
  <trkpt lat="50.612056" lon="-3.823706">
    <ele>511</ele>
    <time>2026-08-20T19:16:43Z</time>
    <speed>1.28</speed>
  </trkpt>
  <trkpt lat="50.612099" lon="-3.823487">
    <ele>510</ele>
    <time>2026-08-20T19:16:54Z</time>
    <speed>1.29</speed>
  </trkpt>
  <trkpt lat="50.612123" lon="-3.823259">
    <ele>510</ele>
    <time>2026-08-20T19:17:05Z</time>
    <speed>1.51</speed>
  </trkpt>
  <trkpt lat="50.612155" lon="-3.823040">
    <ele>507</ele>
    <time>2026-08-20T19:17:16Z</time>
    <speed>1.3199999</speed>
  </trkpt>
  <trkpt lat="50.612186" lon="-3.822836">
    <ele>507</ele>
    <time>2026-08-20T19:17:27Z</time>
    <speed>1.8499999</speed>
  </trkpt>
  <trkpt lat="50.612175" lon="-3.822617">
    <ele>509</ele>
    <time>2026-08-20T19:17:38Z</time>
    <speed>1.7099999</speed>
  </trkpt>
  <trkpt lat="50.612149" lon="-3.822403">
    <ele>502</ele>
    <time>2026-08-20T19:17:49Z</time>
    <speed>1.4399999</speed>
  </trkpt>
  <trkpt lat="50.612101" lon="-3.822186">
    <ele>506</ele>
    <time>2026-08-20T19:18:00Z</time>
    <speed>1.41</speed>
  </trkpt>
  <trkpt lat="50.612056" lon="-3.821962">
    <ele>505</ele>
    <time>2026-08-20T19:18:11Z</time>
    <speed>1.41</speed>
  </trkpt>
  <trkpt lat="50.612002" lon="-3.821765">
    <ele>500</ele>
    <time>2026-08-20T19:18:22Z</time>
    <speed>1.5</speed>
  </trkpt>
  <trkpt lat="50.611959" lon="-3.821547">
    <ele>503</ele>
    <time>2026-08-20T19:18:33Z</time>
    <speed>1.43</speed>
  </trkpt>
  <trkpt lat="50.611916" lon="-3.821343">
    <ele>501</ele>
    <time>2026-08-20T19:18:44Z</time>
    <speed>1.38</speed>
  </trkpt>
  <trkpt lat="50.611868" lon="-3.821145">
    <ele>501</ele>
    <time>2026-08-20T19:18:55Z</time>
    <speed>1.2099999</speed>
  </trkpt>
  <trkpt lat="50.611811" lon="-3.820935">
    <ele>497</ele>
    <time>2026-08-20T19:19:06Z</time>
    <speed>1.39</speed>
  </trkpt>
  <trkpt lat="50.611755" lon="-3.820732">
    <ele>497</ele>
    <time>2026-08-20T19:19:17Z</time>
    <speed>1.27</speed>
  </trkpt>
  <trkpt lat="50.611761" lon="-3.820563">
    <ele>499</ele>
    <time>2026-08-20T19:19:28Z</time>
    <speed>0.07</speed>
  </trkpt>
  <trkpt lat="50.611792" lon="-3.820410">
    <ele>497</ele>
    <time>2026-08-20T19:19:39Z</time>
    <speed>0.44</speed>
  </trkpt>
  <trkpt lat="50.611860" lon="-3.820241">
    <ele>494</ele>
    <time>2026-08-20T19:19:50Z</time>
    <speed>1.6999999</speed>
  </trkpt>
  <trkpt lat="50.611909" lon="-3.820055">
    <ele>493</ele>
    <time>2026-08-20T19:20:01Z</time>
    <speed>1.17</speed>
  </trkpt>
  <trkpt lat="50.611891" lon="-3.819842">
    <ele>490</ele>
    <time>2026-08-20T19:20:12Z</time>
    <speed>1.61</speed>
  </trkpt>
  <trkpt lat="50.611846" lon="-3.819644">
    <ele>489</ele>
    <time>2026-08-20T19:20:23Z</time>
    <speed>1.61</speed>
  </trkpt>
  <trkpt lat="50.611757" lon="-3.819478">
    <ele>483</ele>
    <time>2026-08-20T19:20:34Z</time>
    <speed>1.9599999</speed>
  </trkpt>
  <trkpt lat="50.611686" lon="-3.819296">
    <ele>483</ele>
    <time>2026-08-20T19:20:45Z</time>
    <speed>1.36</speed>
  </trkpt>
  <trkpt lat="50.611598" lon="-3.819114">
    <ele>481</ele>
    <time>2026-08-20T19:20:56Z</time>
    <speed>1.26</speed>
  </trkpt>
  <trkpt lat="50.611509" lon="-3.818950">
    <ele>478</ele>
    <time>2026-08-20T19:21:07Z</time>
    <speed>1.3199999</speed>
  </trkpt>
  <trkpt lat="50.611431" lon="-3.818786">
    <ele>478</ele>
    <time>2026-08-20T19:21:18Z</time>
    <speed>1.38</speed>
  </trkpt>
  <trkpt lat="50.611355" lon="-3.818615">
    <ele>475</ele>
    <time>2026-08-20T19:21:29Z</time>
    <speed>1.4399999</speed>
  </trkpt>
  <trkpt lat="50.611293" lon="-3.818440">
    <ele>470</ele>
    <time>2026-08-20T19:21:40Z</time>
    <speed>1.37</speed>
  </trkpt>
  <trkpt lat="50.611237" lon="-3.818246">
    <ele>470</ele>
    <time>2026-08-20T19:21:51Z</time>
    <speed>1.37</speed>
  </trkpt>
  <trkpt lat="50.611177" lon="-3.818048">
    <ele>467</ele>
    <time>2026-08-20T19:22:02Z</time>
    <speed>1.39</speed>
  </trkpt>
  <trkpt lat="50.611107" lon="-3.817850">
    <ele>463</ele>
    <time>2026-08-20T19:22:13Z</time>
    <speed>1.26</speed>
  </trkpt>
  <trkpt lat="50.611044" lon="-3.817659">
    <ele>459</ele>
    <time>2026-08-20T19:22:24Z</time>
    <speed>1.31</speed>
  </trkpt>
  <trkpt lat="50.611021" lon="-3.817453">
    <ele>458</ele>
    <time>2026-08-20T19:22:35Z</time>
    <speed>1.3299999</speed>
  </trkpt>
  <trkpt lat="50.610930" lon="-3.817281">
    <ele>456</ele>
    <time>2026-08-20T19:22:46Z</time>
    <speed>1.29</speed>
  </trkpt>
  <trkpt lat="50.610875" lon="-3.817089">
    <ele>454</ele>
    <time>2026-08-20T19:22:57Z</time>
    <speed>1.26</speed>
  </trkpt>
  <trkpt lat="50.610804" lon="-3.816901">
    <ele>450</ele>
    <time>2026-08-20T19:23:08Z</time>
    <speed>1.3299999</speed>
  </trkpt>
  <trkpt lat="50.610728" lon="-3.816730">
    <ele>445</ele>
    <time>2026-08-20T19:23:19Z</time>
    <speed>1.55</speed>
  </trkpt>
  <trkpt lat="50.610616" lon="-3.816588">
    <ele>442</ele>
    <time>2026-08-20T19:23:30Z</time>
    <speed>1.18</speed>
  </trkpt>
  <trkpt lat="50.610521" lon="-3.816453">
    <ele>443</ele>
    <time>2026-08-20T19:23:41Z</time>
    <speed>1.13</speed>
  </trkpt>
  <trkpt lat="50.610424" lon="-3.816334">
    <ele>440</ele>
    <time>2026-08-20T19:23:52Z</time>
    <speed>1.43</speed>
  </trkpt>
  <trkpt lat="50.610306" lon="-3.816249">
    <ele>436</ele>
    <time>2026-08-20T19:24:03Z</time>
    <speed>1.42</speed>
  </trkpt>
  <trkpt lat="50.610214" lon="-3.816090">
    <ele>436</ele>
    <time>2026-08-20T19:24:14Z</time>
    <speed>1.1999999</speed>
  </trkpt>
  <trkpt lat="50.610147" lon="-3.815881">
    <ele>435</ele>
    <time>2026-08-20T19:24:25Z</time>
    <speed>1.31</speed>
  </trkpt>
  <trkpt lat="50.610062" lon="-3.815693">
    <ele>434</ele>
    <time>2026-08-20T19:24:36Z</time>
    <speed>1.37</speed>
  </trkpt>
  <trkpt lat="50.610000" lon="-3.815475">
    <ele>433</ele>
    <time>2026-08-20T19:24:47Z</time>
    <speed>1.7199999</speed>
  </trkpt>
  <trkpt lat="50.609899" lon="-3.815337">
    <ele>429</ele>
    <time>2026-08-20T19:24:58Z</time>
    <speed>1.7099999</speed>
  </trkpt>
  <trkpt lat="50.609827" lon="-3.815106">
    <ele>424</ele>
    <time>2026-08-20T19:25:09Z</time>
    <speed>1.77</speed>
  </trkpt>
  <trkpt lat="50.609715" lon="-3.814957">
    <ele>430</ele>
    <time>2026-08-20T19:25:20Z</time>
    <speed>1.5999999</speed>
  </trkpt>
  <trkpt lat="50.609612" lon="-3.814781">
    <ele>431</ele>
    <time>2026-08-20T19:25:31Z</time>
    <speed>1.36</speed>
  </trkpt>
  <trkpt lat="50.609532" lon="-3.814596">
    <ele>430</ele>
    <time>2026-08-20T19:25:42Z</time>
    <speed>1.3399999</speed>
  </trkpt>
  <trkpt lat="50.609453" lon="-3.814383">
    <ele>430</ele>
    <time>2026-08-20T19:25:53Z</time>
    <speed>1.41</speed>
  </trkpt>
  <trkpt lat="50.609369" lon="-3.814186">
    <ele>427</ele>
    <time>2026-08-20T19:26:04Z</time>
    <speed>1.64</speed>
  </trkpt>
  <trkpt lat="50.609263" lon="-3.814044">
    <ele>423</ele>
    <time>2026-08-20T19:26:15Z</time>
    <speed>1.5699999</speed>
  </trkpt>
  <trkpt lat="50.609167" lon="-3.813877">
    <ele>427</ele>
    <time>2026-08-20T19:26:26Z</time>
    <speed>1.5799999</speed>
  </trkpt>
  <trkpt lat="50.609078" lon="-3.813683">
    <ele>424</ele>
    <time>2026-08-20T19:26:37Z</time>
    <speed>1.39</speed>
  </trkpt>
  <trkpt lat="50.609001" lon="-3.813537">
    <ele>426</ele>
    <time>2026-08-20T19:26:48Z</time>
    <speed>1.0799999</speed>
  </trkpt>
  <trkpt lat="50.608900" lon="-3.813401">
    <ele>419</ele>
    <time>2026-08-20T19:26:59Z</time>
    <speed>1.17</speed>
  </trkpt>
  <trkpt lat="50.608803" lon="-3.813233">
    <ele>422</ele>
    <time>2026-08-20T19:27:10Z</time>
    <speed>1.17</speed>
  </trkpt>
  <trkpt lat="50.608705" lon="-3.813084">
    <ele>422</ele>
    <time>2026-08-20T19:27:21Z</time>
    <speed>1.1</speed>
  </trkpt>
  <trkpt lat="50.608601" lon="-3.812923">
    <ele>421</ele>
    <time>2026-08-20T19:27:32Z</time>
    <speed>1.11</speed>
  </trkpt>
  <trkpt lat="50.608503" lon="-3.812763">
    <ele>421</ele>
    <time>2026-08-20T19:27:43Z</time>
    <speed>1.39</speed>
  </trkpt>
  <trkpt lat="50.608405" lon="-3.812576">
    <ele>419</ele>
    <time>2026-08-20T19:27:54Z</time>
    <speed>1.38</speed>
  </trkpt>
  <trkpt lat="50.608309" lon="-3.812446">
    <ele>420</ele>
    <time>2026-08-20T19:28:05Z</time>
    <speed>1.4599999</speed>
  </trkpt>
  <trkpt lat="50.608208" lon="-3.812264">
    <ele>415</ele>
    <time>2026-08-20T19:28:16Z</time>
    <speed>1.27</speed>
  </trkpt>
  <trkpt lat="50.608193" lon="-3.812048">
    <ele>416</ele>
    <time>2026-08-20T19:28:27Z</time>
    <speed>1.5799999</speed>
  </trkpt>
  <trkpt lat="50.608167" lon="-3.811817">
    <ele>416</ele>
    <time>2026-08-20T19:28:38Z</time>
    <speed>1.13</speed>
  </trkpt>
  <trkpt lat="50.608098" lon="-3.811641">
    <ele>407</ele>
    <time>2026-08-20T19:28:49Z</time>
    <speed>1.28</speed>
  </trkpt>
  <trkpt lat="50.608032" lon="-3.811400">
    <ele>412</ele>
    <time>2026-08-20T19:29:00Z</time>
    <speed>1.5799999</speed>
  </trkpt>
  <trkpt lat="50.607993" lon="-3.811173">
    <ele>411</ele>
    <time>2026-08-20T19:29:11Z</time>
    <speed>1.03</speed>
  </trkpt>
  <trkpt lat="50.607939" lon="-3.810965">
    <ele>411</ele>
    <time>2026-08-20T19:29:22Z</time>
    <speed>1.3199999</speed>
  </trkpt>
  <trkpt lat="50.607895" lon="-3.810742">
    <ele>405</ele>
    <time>2026-08-20T19:29:33Z</time>
    <speed>1.51</speed>
  </trkpt>
  <trkpt lat="50.607862" lon="-3.810541">
    <ele>406</ele>
    <time>2026-08-20T19:29:44Z</time>
    <speed>1.78</speed>
  </trkpt>
  <trkpt lat="50.607791" lon="-3.810321">
    <ele>406</ele>
    <time>2026-08-20T19:29:55Z</time>
    <speed>1.54</speed>
  </trkpt>
  <trkpt lat="50.607763" lon="-3.810076">
    <ele>406</ele>
    <time>2026-08-20T19:30:06Z</time>
    <speed>1.04</speed>
  </trkpt>
  <trkpt lat="50.607723" lon="-3.809851">
    <ele>405</ele>
    <time>2026-08-20T19:30:17Z</time>
    <speed>1.64</speed>
  </trkpt>
  <trkpt lat="50.607674" lon="-3.809625">
    <ele>398</ele>
    <time>2026-08-20T19:30:28Z</time>
    <speed>1.53</speed>
  </trkpt>
  <trkpt lat="50.607655" lon="-3.809392">
    <ele>400</ele>
    <time>2026-08-20T19:30:39Z</time>
    <speed>0.98999995</speed>
  </trkpt>
  <trkpt lat="50.607585" lon="-3.809223">
    <ele>398</ele>
    <time>2026-08-20T19:30:50Z</time>
    <speed>1.65</speed>
  </trkpt>
  <trkpt lat="50.607519" lon="-3.809049">
    <ele>400</ele>
    <time>2026-08-20T19:31:01Z</time>
    <speed>0.59999996</speed>
  </trkpt>
  <trkpt lat="50.607536" lon="-3.808900">
    <ele>402</ele>
    <time>2026-08-20T19:31:15Z</time>
    <speed>1.3299999</speed>
  </trkpt>
  <trkpt lat="50.607445" lon="-3.808877">
    <ele>400</ele>
    <time>2026-08-20T19:31:34Z</time>
    <speed>0.94</speed>
  </trkpt>
 </trkseg>
</trk>
</gpx>
