<?xml version="1.0" encoding="UTF-8" ?>
<gpx
 version="1.0"
 creator="Maverick - http://www.maverickgps.com"
 xmlns:xsi="http://www.w3.org/2001/XMLSchema-instance"
 xmlns="http://www.topografix.com/GPX/1/0"
 xsi:schemaLocation="http://www.topografix.com/GPX/1/0 http://www.topografix.com/GPX/1/0/gpx.xsd">
<time>2026-08-27T17:07:25Z</time>
<trk>
 <name>2026-08-27 @ 18-07-25</name>
 <trkseg>
  <trkpt lat="50.429236" lon="-3.720470">
    <ele>126</ele>
    <time>2026-08-27T17:07:24Z</time>
    <speed>0.55</speed>
  </trkpt>
  <trkpt lat="50.429231" lon="-3.720311">
    <ele>128</ele>
    <time>2026-08-27T17:07:35Z</time>
    <speed>0.29999998</speed>
  </trkpt>
  <trkpt lat="50.429224" lon="-3.720164">
    <ele>134</ele>
    <time>2026-08-27T17:07:47Z</time>
    <speed>0.82</speed>
  </trkpt>
  <trkpt lat="50.429259" lon="-3.720004">
    <ele>126</ele>
    <time>2026-08-27T17:07:58Z</time>
    <speed>0.85999995</speed>
  </trkpt>
  <trkpt lat="50.429356" lon="-3.719958">
    <ele>125</ele>
    <time>2026-08-27T17:08:09Z</time>
    <speed>0.75</speed>
  </trkpt>
  <trkpt lat="50.429465" lon="-3.719935">
    <ele>132</ele>
    <time>2026-08-27T17:08:20Z</time>
    <speed>1.24</speed>
  </trkpt>
  <trkpt lat="50.429578" lon="-3.719926">
    <ele>131</ele>
    <time>2026-08-27T17:08:31Z</time>
    <speed>0.64</speed>
  </trkpt>
  <trkpt lat="50.429677" lon="-3.719866">
    <ele>131</ele>
    <time>2026-08-27T17:08:42Z</time>
    <speed>0.9</speed>
  </trkpt>
  <trkpt lat="50.429750" lon="-3.719777">
    <ele>133</ele>
    <time>2026-08-27T17:08:53Z</time>
    <speed>0.9</speed>
  </trkpt>
  <trkpt lat="50.429853" lon="-3.719687">
    <ele>130</ele>
    <time>2026-08-27T17:09:04Z</time>
    <speed>0.78</speed>
  </trkpt>
  <trkpt lat="50.429957" lon="-3.719537">
    <ele>131</ele>
    <time>2026-08-27T17:09:15Z</time>
    <speed>1.11</speed>
  </trkpt>
  <trkpt lat="50.430051" lon="-3.719398">
    <ele>132</ele>
    <time>2026-08-27T17:09:26Z</time>
    <speed>1.54</speed>
  </trkpt>
  <trkpt lat="50.430149" lon="-3.719231">
    <ele>131</ele>
    <time>2026-08-27T17:09:37Z</time>
    <speed>0.72999996</speed>
  </trkpt>
  <trkpt lat="50.430267" lon="-3.719102">
    <ele>133</ele>
    <time>2026-08-27T17:09:48Z</time>
    <speed>1.5999999</speed>
  </trkpt>
  <trkpt lat="50.430330" lon="-3.718952">
    <ele>133</ele>
    <time>2026-08-27T17:09:59Z</time>
    <speed>1.0</speed>
  </trkpt>
  <trkpt lat="50.430414" lon="-3.718819">
    <ele>129</ele>
    <time>2026-08-27T17:10:10Z</time>
    <speed>1.04</speed>
  </trkpt>
  <trkpt lat="50.430498" lon="-3.718688">
    <ele>134</ele>
    <time>2026-08-27T17:10:21Z</time>
    <speed>1.3299999</speed>
  </trkpt>
  <trkpt lat="50.430563" lon="-3.718517">
    <ele>131</ele>
    <time>2026-08-27T17:10:32Z</time>
    <speed>0.26999998</speed>
  </trkpt>
  <trkpt lat="50.430644" lon="-3.718302">
    <ele>131</ele>
    <time>2026-08-27T17:10:43Z</time>
    <speed>0.93</speed>
  </trkpt>
  <trkpt lat="50.430704" lon="-3.718130">
    <ele>134</ele>
    <time>2026-08-27T17:10:54Z</time>
    <speed>1.15</speed>
  </trkpt>
  <trkpt lat="50.430786" lon="-3.717966">
    <ele>134</ele>
    <time>2026-08-27T17:11:05Z</time>
    <speed>1.66</speed>
  </trkpt>
  <trkpt lat="50.430884" lon="-3.717790">
    <ele>133</ele>
    <time>2026-08-27T17:11:16Z</time>
    <speed>1.1899999</speed>
  </trkpt>
  <trkpt lat="50.430935" lon="-3.717627">
    <ele>131</ele>
    <time>2026-08-27T17:11:27Z</time>
    <speed>1.55</speed>
  </trkpt>
  <trkpt lat="50.431049" lon="-3.717417">
    <ele>128</ele>
    <time>2026-08-27T17:11:38Z</time>
    <speed>0.65999997</speed>
  </trkpt>
  <trkpt lat="50.431094" lon="-3.717266">
    <ele>132</ele>
    <time>2026-08-27T17:11:54Z</time>
    <speed>0.02</speed>
  </trkpt>
  <trkpt lat="50.431142" lon="-3.717143">
    <ele>131</ele>
    <time>2026-08-27T17:12:12Z</time>
    <speed>0.089999996</speed>
  </trkpt>
  <trkpt lat="50.431070" lon="-3.717237">
    <ele>132</ele>
    <time>2026-08-27T17:12:43Z</time>
    <speed>0.31</speed>
  </trkpt>
  <trkpt lat="50.431131" lon="-3.717127">
    <ele>131</ele>
    <time>2026-08-27T17:12:57Z</time>
    <speed>1.13</speed>
  </trkpt>
  <trkpt lat="50.431214" lon="-3.717009">
    <ele>134</ele>
    <time>2026-08-27T17:13:08Z</time>
    <speed>0.35999998</speed>
  </trkpt>
  <trkpt lat="50.431291" lon="-3.716865">
    <ele>124</ele>
    <time>2026-08-27T17:13:19Z</time>
    <speed>1.43</speed>
  </trkpt>
  <trkpt lat="50.431359" lon="-3.716663">
    <ele>127</ele>
    <time>2026-08-27T17:13:30Z</time>
    <speed>1.04</speed>
  </trkpt>
  <trkpt lat="50.431412" lon="-3.716532">
    <ele>128</ele>
    <time>2026-08-27T17:13:41Z</time>
    <speed>0.39</speed>
  </trkpt>
  <trkpt lat="50.431459" lon="-3.716388">
    <ele>126</ele>
    <time>2026-08-27T17:13:54Z</time>
    <speed>1.27</speed>
  </trkpt>
  <trkpt lat="50.431523" lon="-3.716238">
    <ele>125</ele>
    <time>2026-08-27T17:14:05Z</time>
    <speed>0.59</speed>
  </trkpt>
  <trkpt lat="50.431588" lon="-3.716053">
    <ele>125</ele>
    <time>2026-08-27T17:14:16Z</time>
    <speed>1.12</speed>
  </trkpt>
  <trkpt lat="50.431651" lon="-3.715873">
    <ele>122</ele>
    <time>2026-08-27T17:14:27Z</time>
    <speed>0.64</speed>
  </trkpt>
  <trkpt lat="50.431690" lon="-3.715639">
    <ele>123</ele>
    <time>2026-08-27T17:14:38Z</time>
    <speed>0.59999996</speed>
  </trkpt>
  <trkpt lat="50.431702" lon="-3.715404">
    <ele>121</ele>
    <time>2026-08-27T17:14:49Z</time>
    <speed>0.98999995</speed>
  </trkpt>
  <trkpt lat="50.431644" lon="-3.715271">
    <ele>112</ele>
    <time>2026-08-27T17:15:03Z</time>
    <speed>1.24</speed>
  </trkpt>
  <trkpt lat="50.431545" lon="-3.715228">
    <ele>127</ele>
    <time>2026-08-27T17:15:15Z</time>
    <speed>1.29</speed>
  </trkpt>
  <trkpt lat="50.431455" lon="-3.715143">
    <ele>127</ele>
    <time>2026-08-27T17:15:26Z</time>
    <speed>0.59999996</speed>
  </trkpt>
  <trkpt lat="50.431377" lon="-3.715054">
    <ele>127</ele>
    <time>2026-08-27T17:15:38Z</time>
    <speed>0.68</speed>
  </trkpt>
  <trkpt lat="50.431319" lon="-3.714945">
    <ele>126</ele>
    <time>2026-08-27T17:15:50Z</time>
    <speed>1.4699999</speed>
  </trkpt>
  <trkpt lat="50.431224" lon="-3.714907">
    <ele>131</ele>
    <time>2026-08-27T17:16:05Z</time>
    <speed>0.76</speed>
  </trkpt>
  <trkpt lat="50.431160" lon="-3.714801">
    <ele>135</ele>
    <time>2026-08-27T17:16:18Z</time>
    <speed>0.91999996</speed>
  </trkpt>
  <trkpt lat="50.431085" lon="-3.714681">
    <ele>130</ele>
    <time>2026-08-27T17:16:29Z</time>
    <speed>1.87</speed>
  </trkpt>
  <trkpt lat="50.431004" lon="-3.714609">
    <ele>134</ele>
    <time>2026-08-27T17:16:40Z</time>
    <speed>0.07</speed>
  </trkpt>
  <trkpt lat="50.430944" lon="-3.714496">
    <ele>136</ele>
    <time>2026-08-27T17:16:51Z</time>
    <speed>0.61</speed>
  </trkpt>
  <trkpt lat="50.430886" lon="-3.714383">
    <ele>134</ele>
    <time>2026-08-27T17:17:02Z</time>
    <speed>0.68</speed>
  </trkpt>
  <trkpt lat="50.430822" lon="-3.714220">
    <ele>136</ele>
    <time>2026-08-27T17:17:13Z</time>
    <speed>1.03</speed>
  </trkpt>
  <trkpt lat="50.430778" lon="-3.714093">
    <ele>139</ele>
    <time>2026-08-27T17:17:26Z</time>
    <speed>1.64</speed>
  </trkpt>
  <trkpt lat="50.430655" lon="-3.713890">
    <ele>144</ele>
    <time>2026-08-27T17:17:37Z</time>
    <speed>0.96999997</speed>
  </trkpt>
  <trkpt lat="50.430565" lon="-3.713787">
    <ele>145</ele>
    <time>2026-08-27T17:17:48Z</time>
    <speed>0.78</speed>
  </trkpt>
  <trkpt lat="50.430458" lon="-3.713691">
    <ele>141</ele>
    <time>2026-08-27T17:17:59Z</time>
    <speed>0.89</speed>
  </trkpt>
  <trkpt lat="50.430351" lon="-3.713551">
    <ele>145</ele>
    <time>2026-08-27T17:18:10Z</time>
    <speed>1.18</speed>
  </trkpt>
  <trkpt lat="50.430262" lon="-3.713481">
    <ele>141</ele>
    <time>2026-08-27T17:18:21Z</time>
    <speed>1.26</speed>
  </trkpt>
  <trkpt lat="50.430131" lon="-3.713420">
    <ele>148</ele>
    <time>2026-08-27T17:18:32Z</time>
    <speed>1.0799999</speed>
  </trkpt>
  <trkpt lat="50.430030" lon="-3.713382">
    <ele>146</ele>
    <time>2026-08-27T17:18:43Z</time>
    <speed>0.049999997</speed>
  </trkpt>
  <trkpt lat="50.429954" lon="-3.713294">
    <ele>148</ele>
    <time>2026-08-27T17:19:13Z</time>
    <speed>1.38</speed>
  </trkpt>
  <trkpt lat="50.429808" lon="-3.713336">
    <ele>145</ele>
    <time>2026-08-27T17:19:24Z</time>
    <speed>0.64</speed>
  </trkpt>
  <trkpt lat="50.429664" lon="-3.713307">
    <ele>145</ele>
    <time>2026-08-27T17:19:35Z</time>
    <speed>1.12</speed>
  </trkpt>
  <trkpt lat="50.429531" lon="-3.713302">
    <ele>146</ele>
    <time>2026-08-27T17:19:46Z</time>
    <speed>2.28</speed>
  </trkpt>
  <trkpt lat="50.429385" lon="-3.713273">
    <ele>153</ele>
    <time>2026-08-27T17:19:57Z</time>
    <speed>1.8399999</speed>
  </trkpt>
  <trkpt lat="50.429262" lon="-3.713298">
    <ele>149</ele>
    <time>2026-08-27T17:20:08Z</time>
    <speed>0.63</speed>
  </trkpt>
  <trkpt lat="50.429138" lon="-3.713357">
    <ele>149</ele>
    <time>2026-08-27T17:20:19Z</time>
    <speed>1.66</speed>
  </trkpt>
  <trkpt lat="50.429031" lon="-3.713330">
    <ele>153</ele>
    <time>2026-08-27T17:20:30Z</time>
    <speed>1.0799999</speed>
  </trkpt>
  <trkpt lat="50.428888" lon="-3.713362">
    <ele>155</ele>
    <time>2026-08-27T17:20:41Z</time>
    <speed>3.1799998</speed>
  </trkpt>
  <trkpt lat="50.428744" lon="-3.713201">
    <ele>157</ele>
    <time>2026-08-27T17:20:52Z</time>
    <speed>1.3299999</speed>
  </trkpt>
  <trkpt lat="50.428612" lon="-3.713200">
    <ele>158</ele>
    <time>2026-08-27T17:21:03Z</time>
    <speed>2.1</speed>
  </trkpt>
  <trkpt lat="50.428481" lon="-3.713106">
    <ele>161</ele>
    <time>2026-08-27T17:21:14Z</time>
    <speed>0.71</speed>
  </trkpt>
  <trkpt lat="50.428372" lon="-3.713040">
    <ele>158</ele>
    <time>2026-08-27T17:21:25Z</time>
    <speed>0.97999996</speed>
  </trkpt>
  <trkpt lat="50.428269" lon="-3.712992">
    <ele>161</ele>
    <time>2026-08-27T17:21:36Z</time>
    <speed>1.06</speed>
  </trkpt>
  <trkpt lat="50.428140" lon="-3.712907">
    <ele>163</ele>
    <time>2026-08-27T17:21:47Z</time>
    <speed>1.86</speed>
  </trkpt>
  <trkpt lat="50.428031" lon="-3.712840">
    <ele>164</ele>
    <time>2026-08-27T17:21:58Z</time>
    <speed>1.0699999</speed>
  </trkpt>
  <trkpt lat="50.427920" lon="-3.712755">
    <ele>159</ele>
    <time>2026-08-27T17:22:09Z</time>
    <speed>1.52</speed>
  </trkpt>
  <trkpt lat="50.427821" lon="-3.712606">
    <ele>161</ele>
    <time>2026-08-27T17:22:20Z</time>
    <speed>0.94</speed>
  </trkpt>
  <trkpt lat="50.427745" lon="-3.712437">
    <ele>155</ele>
    <time>2026-08-27T17:22:31Z</time>
    <speed>1.52</speed>
  </trkpt>
  <trkpt lat="50.427660" lon="-3.712296">
    <ele>161</ele>
    <time>2026-08-27T17:22:42Z</time>
    <speed>3.4299998</speed>
  </trkpt>
  <trkpt lat="50.427575" lon="-3.712116">
    <ele>162</ele>
    <time>2026-08-27T17:22:53Z</time>
    <speed>0.84</speed>
  </trkpt>
  <trkpt lat="50.427463" lon="-3.711984">
    <ele>163</ele>
    <time>2026-08-27T17:23:04Z</time>
    <speed>1.25</speed>
  </trkpt>
  <trkpt lat="50.427406" lon="-3.711849">
    <ele>167</ele>
    <time>2026-08-27T17:23:15Z</time>
    <speed>0.85999995</speed>
  </trkpt>
  <trkpt lat="50.427295" lon="-3.711726">
    <ele>164</ele>
    <time>2026-08-27T17:23:26Z</time>
    <speed>0.65999997</speed>
  </trkpt>
  <trkpt lat="50.427215" lon="-3.711641">
    <ele>170</ele>
    <time>2026-08-27T17:23:37Z</time>
    <speed>2.34</speed>
  </trkpt>
  <trkpt lat="50.427092" lon="-3.711522">
    <ele>163</ele>
    <time>2026-08-27T17:23:48Z</time>
    <speed>0.39999998</speed>
  </trkpt>
  <trkpt lat="50.427007" lon="-3.711448">
    <ele>173</ele>
    <time>2026-08-27T17:23:59Z</time>
    <speed>1.9499999</speed>
  </trkpt>
  <trkpt lat="50.426840" lon="-3.711303">
    <ele>161</ele>
    <time>2026-08-27T17:24:10Z</time>
    <speed>3.12</speed>
  </trkpt>
  <trkpt lat="50.426744" lon="-3.711226">
    <ele>163</ele>
    <time>2026-08-27T17:24:21Z</time>
    <speed>0.7</speed>
  </trkpt>
  <trkpt lat="50.426654" lon="-3.711106">
    <ele>177</ele>
    <time>2026-08-27T17:24:32Z</time>
    <speed>1.6999999</speed>
  </trkpt>
  <trkpt lat="50.426585" lon="-3.711007">
    <ele>170</ele>
    <time>2026-08-27T17:24:44Z</time>
    <speed>0.45</speed>
  </trkpt>
  <trkpt lat="50.426500" lon="-3.710928">
    <ele>175</ele>
    <time>2026-08-27T17:25:46Z</time>
    <speed>1.23</speed>
  </trkpt>
  <trkpt lat="50.426434" lon="-3.710820">
    <ele>174</ele>
    <time>2026-08-27T17:27:40Z</time>
    <speed>0.9</speed>
  </trkpt>
  <trkpt lat="50.426378" lon="-3.710699">
    <ele>173</ele>
    <time>2026-08-27T17:27:52Z</time>
    <speed>1.4399999</speed>
  </trkpt>
  <trkpt lat="50.426305" lon="-3.710564">
    <ele>180</ele>
    <time>2026-08-27T17:28:03Z</time>
    <speed>0.96</speed>
  </trkpt>
  <trkpt lat="50.426260" lon="-3.710415">
    <ele>174</ele>
    <time>2026-08-27T17:28:14Z</time>
    <speed>1.35</speed>
  </trkpt>
  <trkpt lat="50.426225" lon="-3.710279">
    <ele>178</ele>
    <time>2026-08-27T17:28:25Z</time>
    <speed>0.0</speed>
  </trkpt>
  <trkpt lat="50.426147" lon="-3.710142">
    <ele>177</ele>
    <time>2026-08-27T17:28:36Z</time>
    <speed>1.1855589</speed>
  </trkpt>
  <trkpt lat="50.426080" lon="-3.709932">
    <ele>179</ele>
    <time>2026-08-27T17:28:47Z</time>
    <speed>1.01</speed>
  </trkpt>
  <trkpt lat="50.426024" lon="-3.709776">
    <ele>182</ele>
    <time>2026-08-27T17:28:58Z</time>
    <speed>1.1999999</speed>
  </trkpt>
  <trkpt lat="50.425957" lon="-3.709672">
    <ele>180</ele>
    <time>2026-08-27T17:29:15Z</time>
    <speed>1.09</speed>
  </trkpt>
  <trkpt lat="50.425897" lon="-3.709554">
    <ele>177</ele>
    <time>2026-08-27T17:30:17Z</time>
    <speed>1.54</speed>
  </trkpt>
  <trkpt lat="50.425822" lon="-3.709413">
    <ele>173</ele>
    <time>2026-08-27T17:30:28Z</time>
    <speed>0.9</speed>
  </trkpt>
  <trkpt lat="50.425734" lon="-3.709225">
    <ele>176</ele>
    <time>2026-08-27T17:30:39Z</time>
    <speed>1.4</speed>
  </trkpt>
  <trkpt lat="50.425646" lon="-3.709053">
    <ele>180</ele>
    <time>2026-08-27T17:30:50Z</time>
    <speed>1.06</speed>
  </trkpt>
  <trkpt lat="50.425523" lon="-3.708866">
    <ele>184</ele>
    <time>2026-08-27T17:31:01Z</time>
    <speed>1.77</speed>
  </trkpt>
  <trkpt lat="50.425429" lon="-3.708718">
    <ele>180</ele>
    <time>2026-08-27T17:31:12Z</time>
    <speed>1.27</speed>
  </trkpt>
  <trkpt lat="50.425342" lon="-3.708555">
    <ele>172</ele>
    <time>2026-08-27T17:31:23Z</time>
    <speed>1.31</speed>
  </trkpt>
  <trkpt lat="50.425268" lon="-3.708397">
    <ele>179</ele>
    <time>2026-08-27T17:31:34Z</time>
    <speed>1.22</speed>
  </trkpt>
  <trkpt lat="50.425143" lon="-3.708178">
    <ele>176</ele>
    <time>2026-08-27T17:31:45Z</time>
    <speed>1.2099999</speed>
  </trkpt>
  <trkpt lat="50.425048" lon="-3.707968">
    <ele>178</ele>
    <time>2026-08-27T17:31:56Z</time>
    <speed>1.2099999</speed>
  </trkpt>
  <trkpt lat="50.424949" lon="-3.707822">
    <ele>173</ele>
    <time>2026-08-27T17:32:07Z</time>
    <speed>1.04</speed>
  </trkpt>
  <trkpt lat="50.424863" lon="-3.707649">
    <ele>180</ele>
    <time>2026-08-27T17:32:18Z</time>
    <speed>1.23</speed>
  </trkpt>
  <trkpt lat="50.424777" lon="-3.707419">
    <ele>178</ele>
    <time>2026-08-27T17:32:29Z</time>
    <speed>1.22</speed>
  </trkpt>
  <trkpt lat="50.424710" lon="-3.707307">
    <ele>177</ele>
    <time>2026-08-27T17:32:41Z</time>
    <speed>0.97999996</speed>
  </trkpt>
  <trkpt lat="50.424649" lon="-3.707186">
    <ele>177</ele>
    <time>2026-08-27T17:32:52Z</time>
    <speed>0.19</speed>
  </trkpt>
  <trkpt lat="50.424573" lon="-3.707026">
    <ele>179</ele>
    <time>2026-08-27T17:33:03Z</time>
    <speed>0.65999997</speed>
  </trkpt>
  <trkpt lat="50.424503" lon="-3.706926">
    <ele>179</ele>
    <time>2026-08-27T17:33:14Z</time>
    <speed>0.94</speed>
  </trkpt>
  <trkpt lat="50.424455" lon="-3.706776">
    <ele>177</ele>
    <time>2026-08-27T17:33:25Z</time>
    <speed>0.81</speed>
  </trkpt>
  <trkpt lat="50.424332" lon="-3.706622">
    <ele>180</ele>
    <time>2026-08-27T17:33:36Z</time>
    <speed>1.5899999</speed>
  </trkpt>
  <trkpt lat="50.424228" lon="-3.706432">
    <ele>179</ele>
    <time>2026-08-27T17:33:47Z</time>
    <speed>0.78999996</speed>
  </trkpt>
  <trkpt lat="50.424136" lon="-3.706287">
    <ele>178</ele>
    <time>2026-08-27T17:33:58Z</time>
    <speed>1.18</speed>
  </trkpt>
  <trkpt lat="50.424034" lon="-3.706149">
    <ele>172</ele>
    <time>2026-08-27T17:34:09Z</time>
    <speed>1.09</speed>
  </trkpt>
  <trkpt lat="50.423981" lon="-3.706026">
    <ele>178</ele>
    <time>2026-08-27T17:34:21Z</time>
    <speed>1.13</speed>
  </trkpt>
  <trkpt lat="50.423905" lon="-3.705898">
    <ele>176</ele>
    <time>2026-08-27T17:34:32Z</time>
    <speed>1.02</speed>
  </trkpt>
  <trkpt lat="50.423804" lon="-3.705784">
    <ele>176</ele>
    <time>2026-08-27T17:34:43Z</time>
    <speed>0.79999995</speed>
  </trkpt>
  <trkpt lat="50.423727" lon="-3.705701">
    <ele>178</ele>
    <time>2026-08-27T17:34:54Z</time>
    <speed>0.59999996</speed>
  </trkpt>
  <trkpt lat="50.423619" lon="-3.705593">
    <ele>174</ele>
    <time>2026-08-27T17:35:05Z</time>
    <speed>0.78</speed>
  </trkpt>
  <trkpt lat="50.423493" lon="-3.705557">
    <ele>183</ele>
    <time>2026-08-27T17:35:16Z</time>
    <speed>1.3</speed>
  </trkpt>
  <trkpt lat="50.423380" lon="-3.705489">
    <ele>178</ele>
    <time>2026-08-27T17:35:27Z</time>
    <speed>1.3199999</speed>
  </trkpt>
  <trkpt lat="50.423258" lon="-3.705470">
    <ele>179</ele>
    <time>2026-08-27T17:35:38Z</time>
    <speed>0.58</speed>
  </trkpt>
  <trkpt lat="50.423169" lon="-3.705485">
    <ele>180</ele>
    <time>2026-08-27T17:35:50Z</time>
    <speed>0.89</speed>
  </trkpt>
  <trkpt lat="50.423098" lon="-3.705582">
    <ele>181</ele>
    <time>2026-08-27T17:36:02Z</time>
    <speed>0.96</speed>
  </trkpt>
  <trkpt lat="50.423047" lon="-3.705711">
    <ele>180</ele>
    <time>2026-08-27T17:36:15Z</time>
    <speed>1.24</speed>
  </trkpt>
  <trkpt lat="50.423001" lon="-3.705896">
    <ele>173</ele>
    <time>2026-08-27T17:36:26Z</time>
    <speed>1.5999999</speed>
  </trkpt>
  <trkpt lat="50.422944" lon="-3.706093">
    <ele>175</ele>
    <time>2026-08-27T17:36:37Z</time>
    <speed>1.18</speed>
  </trkpt>
  <trkpt lat="50.422870" lon="-3.706298">
    <ele>179</ele>
    <time>2026-08-27T17:36:48Z</time>
    <speed>1.28</speed>
  </trkpt>
  <trkpt lat="50.422808" lon="-3.706477">
    <ele>179</ele>
    <time>2026-08-27T17:36:59Z</time>
    <speed>1.39</speed>
  </trkpt>
  <trkpt lat="50.422721" lon="-3.706670">
    <ele>172</ele>
    <time>2026-08-27T17:37:10Z</time>
    <speed>0.79999995</speed>
  </trkpt>
  <trkpt lat="50.422688" lon="-3.706833">
    <ele>170</ele>
    <time>2026-08-27T17:37:21Z</time>
    <speed>1.09</speed>
  </trkpt>
  <trkpt lat="50.422634" lon="-3.706962">
    <ele>174</ele>
    <time>2026-08-27T17:37:32Z</time>
    <speed>0.84999996</speed>
  </trkpt>
  <trkpt lat="50.422595" lon="-3.707128">
    <ele>172</ele>
    <time>2026-08-27T17:37:43Z</time>
    <speed>0.85999995</speed>
  </trkpt>
  <trkpt lat="50.422548" lon="-3.707297">
    <ele>171</ele>
    <time>2026-08-27T17:37:54Z</time>
    <speed>1.14</speed>
  </trkpt>
  <trkpt lat="50.422522" lon="-3.707527">
    <ele>169</ele>
    <time>2026-08-27T17:38:05Z</time>
    <speed>1.24</speed>
  </trkpt>
  <trkpt lat="50.422476" lon="-3.707728">
    <ele>168</ele>
    <time>2026-08-27T17:38:16Z</time>
    <speed>1.36</speed>
  </trkpt>
  <trkpt lat="50.422458" lon="-3.707917">
    <ele>168</ele>
    <time>2026-08-27T17:38:27Z</time>
    <speed>1.31</speed>
  </trkpt>
  <trkpt lat="50.422428" lon="-3.708061">
    <ele>168</ele>
    <time>2026-08-27T17:38:38Z</time>
    <speed>1.1899999</speed>
  </trkpt>
  <trkpt lat="50.422396" lon="-3.708223">
    <ele>163</ele>
    <time>2026-08-27T17:38:49Z</time>
    <speed>1.0</speed>
  </trkpt>
  <trkpt lat="50.422366" lon="-3.708430">
    <ele>169</ele>
    <time>2026-08-27T17:39:00Z</time>
    <speed>1.23</speed>
  </trkpt>
  <trkpt lat="50.422329" lon="-3.708612">
    <ele>166</ele>
    <time>2026-08-27T17:39:11Z</time>
    <speed>0.91999996</speed>
  </trkpt>
  <trkpt lat="50.422317" lon="-3.708807">
    <ele>159</ele>
    <time>2026-08-27T17:39:22Z</time>
    <speed>0.77</speed>
  </trkpt>
  <trkpt lat="50.422289" lon="-3.708983">
    <ele>164</ele>
    <time>2026-08-27T17:39:33Z</time>
    <speed>1.1899999</speed>
  </trkpt>
  <trkpt lat="50.422237" lon="-3.709155">
    <ele>162</ele>
    <time>2026-08-27T17:39:44Z</time>
    <speed>1.01</speed>
  </trkpt>
  <trkpt lat="50.422194" lon="-3.709352">
    <ele>159</ele>
    <time>2026-08-27T17:39:55Z</time>
    <speed>0.39</speed>
  </trkpt>
  <trkpt lat="50.422170" lon="-3.709544">
    <ele>153</ele>
    <time>2026-08-27T17:40:06Z</time>
    <speed>1.15</speed>
  </trkpt>
  <trkpt lat="50.422123" lon="-3.709708">
    <ele>153</ele>
    <time>2026-08-27T17:40:17Z</time>
    <speed>0.81</speed>
  </trkpt>
  <trkpt lat="50.422059" lon="-3.709890">
    <ele>154</ele>
    <time>2026-08-27T17:40:28Z</time>
    <speed>1.3399999</speed>
  </trkpt>
  <trkpt lat="50.422010" lon="-3.710027">
    <ele>155</ele>
    <time>2026-08-27T17:40:39Z</time>
    <speed>0.32</speed>
  </trkpt>
  <trkpt lat="50.421958" lon="-3.710189">
    <ele>154</ele>
    <time>2026-08-27T17:40:50Z</time>
    <speed>1.24</speed>
  </trkpt>
  <trkpt lat="50.421911" lon="-3.710355">
    <ele>148</ele>
    <time>2026-08-27T17:41:01Z</time>
    <speed>0.87</speed>
  </trkpt>
  <trkpt lat="50.421861" lon="-3.710526">
    <ele>152</ele>
    <time>2026-08-27T17:41:12Z</time>
    <speed>1.01</speed>
  </trkpt>
  <trkpt lat="50.421824" lon="-3.710707">
    <ele>152</ele>
    <time>2026-08-27T17:41:23Z</time>
    <speed>1.61</speed>
  </trkpt>
  <trkpt lat="50.421865" lon="-3.710896">
    <ele>149</ele>
    <time>2026-08-27T17:41:34Z</time>
    <speed>0.93</speed>
  </trkpt>
  <trkpt lat="50.421835" lon="-3.711062">
    <ele>145</ele>
    <time>2026-08-27T17:41:45Z</time>
    <speed>0.71</speed>
  </trkpt>
  <trkpt lat="50.421825" lon="-3.711222">
    <ele>148</ele>
    <time>2026-08-27T17:41:56Z</time>
    <speed>0.89</speed>
  </trkpt>
  <trkpt lat="50.421779" lon="-3.711386">
    <ele>146</ele>
    <time>2026-08-27T17:42:07Z</time>
    <speed>1.14</speed>
  </trkpt>
  <trkpt lat="50.421736" lon="-3.711611">
    <ele>146</ele>
    <time>2026-08-27T17:42:18Z</time>
    <speed>1.16</speed>
  </trkpt>
  <trkpt lat="50.421676" lon="-3.711810">
    <ele>143</ele>
    <time>2026-08-27T17:42:29Z</time>
    <speed>0.91999996</speed>
  </trkpt>
  <trkpt lat="50.421628" lon="-3.712009">
    <ele>142</ele>
    <time>2026-08-27T17:42:40Z</time>
    <speed>1.1</speed>
  </trkpt>
  <trkpt lat="50.421625" lon="-3.712151">
    <ele>140</ele>
    <time>2026-08-27T17:42:51Z</time>
    <speed>1.39</speed>
  </trkpt>
  <trkpt lat="50.421608" lon="-3.712329">
    <ele>140</ele>
    <time>2026-08-27T17:43:02Z</time>
    <speed>0.89</speed>
  </trkpt>
  <trkpt lat="50.421643" lon="-3.712555">
    <ele>139</ele>
    <time>2026-08-27T17:43:13Z</time>
    <speed>0.93</speed>
  </trkpt>
  <trkpt lat="50.421692" lon="-3.712752">
    <ele>143</ele>
    <time>2026-08-27T17:43:24Z</time>
    <speed>0.84999996</speed>
  </trkpt>
  <trkpt lat="50.421724" lon="-3.712955">
    <ele>144</ele>
    <time>2026-08-27T17:43:35Z</time>
    <speed>1.2099999</speed>
  </trkpt>
  <trkpt lat="50.421741" lon="-3.713210">
    <ele>141</ele>
    <time>2026-08-27T17:43:46Z</time>
    <speed>0.84999996</speed>
  </trkpt>
  <trkpt lat="50.421735" lon="-3.713435">
    <ele>144</ele>
    <time>2026-08-27T17:43:57Z</time>
    <speed>0.96999997</speed>
  </trkpt>
  <trkpt lat="50.421743" lon="-3.713656">
    <ele>132</ele>
    <time>2026-08-27T17:44:08Z</time>
    <speed>0.93</speed>
  </trkpt>
  <trkpt lat="50.421708" lon="-3.713811">
    <ele>144</ele>
    <time>2026-08-27T17:44:19Z</time>
    <speed>0.96</speed>
  </trkpt>
  <trkpt lat="50.421640" lon="-3.713963">
    <ele>142</ele>
    <time>2026-08-27T17:44:30Z</time>
    <speed>0.44</speed>
  </trkpt>
  <trkpt lat="50.421563" lon="-3.714053">
    <ele>137</ele>
    <time>2026-08-27T17:44:41Z</time>
    <speed>0.48999998</speed>
  </trkpt>
  <trkpt lat="50.421454" lon="-3.714192">
    <ele>143</ele>
    <time>2026-08-27T17:44:52Z</time>
    <speed>1.4399999</speed>
  </trkpt>
  <trkpt lat="50.421366" lon="-3.714317">
    <ele>147</ele>
    <time>2026-08-27T17:45:03Z</time>
    <speed>0.25</speed>
  </trkpt>
  <trkpt lat="50.421244" lon="-3.714442">
    <ele>146</ele>
    <time>2026-08-27T17:45:14Z</time>
    <speed>1.12</speed>
  </trkpt>
  <trkpt lat="50.421159" lon="-3.714584">
    <ele>150</ele>
    <time>2026-08-27T17:45:25Z</time>
    <speed>1.22</speed>
  </trkpt>
  <trkpt lat="50.421056" lon="-3.714692">
    <ele>143</ele>
    <time>2026-08-27T17:45:36Z</time>
    <speed>0.96999997</speed>
  </trkpt>
  <trkpt lat="50.420921" lon="-3.714782">
    <ele>147</ele>
    <time>2026-08-27T17:45:47Z</time>
    <speed>1.0</speed>
  </trkpt>
  <trkpt lat="50.420829" lon="-3.714873">
    <ele>146</ele>
    <time>2026-08-27T17:45:58Z</time>
    <speed>1.52</speed>
  </trkpt>
  <trkpt lat="50.420698" lon="-3.714987">
    <ele>149</ele>
    <time>2026-08-27T17:46:09Z</time>
    <speed>0.89</speed>
  </trkpt>
  <trkpt lat="50.420594" lon="-3.715080">
    <ele>147</ele>
    <time>2026-08-27T17:46:20Z</time>
    <speed>1.22</speed>
  </trkpt>
  <trkpt lat="50.420497" lon="-3.715153">
    <ele>154</ele>
    <time>2026-08-27T17:46:31Z</time>
    <speed>1.13</speed>
  </trkpt>
  <trkpt lat="50.420417" lon="-3.715268">
    <ele>156</ele>
    <time>2026-08-27T17:46:42Z</time>
    <speed>0.77</speed>
  </trkpt>
  <trkpt lat="50.420339" lon="-3.715368">
    <ele>144</ele>
    <time>2026-08-27T17:47:22Z</time>
    <speed>1.3399999</speed>
  </trkpt>
  <trkpt lat="50.420290" lon="-3.715506">
    <ele>154</ele>
    <time>2026-08-27T17:47:33Z</time>
    <speed>0.83</speed>
  </trkpt>
  <trkpt lat="50.420250" lon="-3.715643">
    <ele>156</ele>
    <time>2026-08-27T17:47:44Z</time>
    <speed>0.81</speed>
  </trkpt>
  <trkpt lat="50.420206" lon="-3.715818">
    <ele>153</ele>
    <time>2026-08-27T17:47:55Z</time>
    <speed>0.77</speed>
  </trkpt>
  <trkpt lat="50.420142" lon="-3.715973">
    <ele>154</ele>
    <time>2026-08-27T17:48:06Z</time>
    <speed>0.72999996</speed>
  </trkpt>
  <trkpt lat="50.420089" lon="-3.716141">
    <ele>161</ele>
    <time>2026-08-27T17:48:17Z</time>
    <speed>1.04</speed>
  </trkpt>
  <trkpt lat="50.420020" lon="-3.716296">
    <ele>153</ele>
    <time>2026-08-27T17:48:28Z</time>
    <speed>0.82</speed>
  </trkpt>
  <trkpt lat="50.419967" lon="-3.716480">
    <ele>163</ele>
    <time>2026-08-27T17:48:39Z</time>
    <speed>1.38</speed>
  </trkpt>
  <trkpt lat="50.419894" lon="-3.716670">
    <ele>157</ele>
    <time>2026-08-27T17:48:50Z</time>
    <speed>1.22</speed>
  </trkpt>
  <trkpt lat="50.419832" lon="-3.716812">
    <ele>157</ele>
    <time>2026-08-27T17:49:01Z</time>
    <speed>0.88</speed>
  </trkpt>
  <trkpt lat="50.419783" lon="-3.716939">
    <ele>164</ele>
    <time>2026-08-27T17:49:13Z</time>
    <speed>1.11</speed>
  </trkpt>
  <trkpt lat="50.419678" lon="-3.717124">
    <ele>160</ele>
    <time>2026-08-27T17:49:24Z</time>
    <speed>0.96999997</speed>
  </trkpt>
  <trkpt lat="50.419607" lon="-3.717324">
    <ele>159</ele>
    <time>2026-08-27T17:49:35Z</time>
    <speed>1.29</speed>
  </trkpt>
  <trkpt lat="50.419545" lon="-3.717484">
    <ele>165</ele>
    <time>2026-08-27T17:49:46Z</time>
    <speed>1.24</speed>
  </trkpt>
  <trkpt lat="50.419506" lon="-3.717658">
    <ele>155</ele>
    <time>2026-08-27T17:49:57Z</time>
    <speed>1.3199999</speed>
  </trkpt>
  <trkpt lat="50.419452" lon="-3.717829">
    <ele>166</ele>
    <time>2026-08-27T17:50:08Z</time>
    <speed>0.77</speed>
  </trkpt>
  <trkpt lat="50.419408" lon="-3.717992">
    <ele>163</ele>
    <time>2026-08-27T17:50:19Z</time>
    <speed>1.26</speed>
  </trkpt>
  <trkpt lat="50.419349" lon="-3.718171">
    <ele>168</ele>
    <time>2026-08-27T17:50:30Z</time>
    <speed>1.05</speed>
  </trkpt>
  <trkpt lat="50.419320" lon="-3.718364">
    <ele>162</ele>
    <time>2026-08-27T17:50:41Z</time>
    <speed>1.02</speed>
  </trkpt>
  <trkpt lat="50.419314" lon="-3.718552">
    <ele>151</ele>
    <time>2026-08-27T17:50:52Z</time>
    <speed>1.12</speed>
  </trkpt>
  <trkpt lat="50.419269" lon="-3.718714">
    <ele>159</ele>
    <time>2026-08-27T17:51:03Z</time>
    <speed>0.78</speed>
  </trkpt>
  <trkpt lat="50.419210" lon="-3.718880">
    <ele>168</ele>
    <time>2026-08-27T17:51:14Z</time>
    <speed>0.78</speed>
  </trkpt>
  <trkpt lat="50.419131" lon="-3.719052">
    <ele>157</ele>
    <time>2026-08-27T17:51:25Z</time>
    <speed>0.66999996</speed>
  </trkpt>
  <trkpt lat="50.419099" lon="-3.719210">
    <ele>152</ele>
    <time>2026-08-27T17:51:36Z</time>
    <speed>1.16</speed>
  </trkpt>
  <trkpt lat="50.419097" lon="-3.719396">
    <ele>151</ele>
    <time>2026-08-27T17:51:47Z</time>
    <speed>0.81</speed>
  </trkpt>
  <trkpt lat="50.419093" lon="-3.719555">
    <ele>149</ele>
    <time>2026-08-27T17:51:58Z</time>
    <speed>0.48999998</speed>
  </trkpt>
  <trkpt lat="50.419081" lon="-3.719699">
    <ele>148</ele>
    <time>2026-08-27T17:52:09Z</time>
    <speed>0.84999996</speed>
  </trkpt>
  <trkpt lat="50.419027" lon="-3.719815">
    <ele>146</ele>
    <time>2026-08-27T17:52:20Z</time>
    <speed>1.51</speed>
  </trkpt>
  <trkpt lat="50.418934" lon="-3.719927">
    <ele>144</ele>
    <time>2026-08-27T17:52:31Z</time>
    <speed>0.84999996</speed>
  </trkpt>
  <trkpt lat="50.418832" lon="-3.719973">
    <ele>142</ele>
    <time>2026-08-27T17:52:42Z</time>
    <speed>0.98999995</speed>
  </trkpt>
  <trkpt lat="50.418724" lon="-3.719936">
    <ele>137</ele>
    <time>2026-08-27T17:52:53Z</time>
    <speed>1.25</speed>
  </trkpt>
  <trkpt lat="50.418617" lon="-3.719958">
    <ele>137</ele>
    <time>2026-08-27T17:53:04Z</time>
    <speed>0.98999995</speed>
  </trkpt>
  <trkpt lat="50.418531" lon="-3.720080">
    <ele>139</ele>
    <time>2026-08-27T17:53:15Z</time>
    <speed>1.3399999</speed>
  </trkpt>
  <trkpt lat="50.418473" lon="-3.720279">
    <ele>140</ele>
    <time>2026-08-27T17:53:26Z</time>
    <speed>1.5999999</speed>
  </trkpt>
  <trkpt lat="50.418420" lon="-3.720425">
    <ele>139</ele>
    <time>2026-08-27T17:53:37Z</time>
    <speed>1.0799999</speed>
  </trkpt>
  <trkpt lat="50.418333" lon="-3.720500">
    <ele>142</ele>
    <time>2026-08-27T17:53:48Z</time>
    <speed>0.96999997</speed>
  </trkpt>
  <trkpt lat="50.418223" lon="-3.720547">
    <ele>142</ele>
    <time>2026-08-27T17:53:59Z</time>
    <speed>0.78999996</speed>
  </trkpt>
  <trkpt lat="50.418133" lon="-3.720637">
    <ele>135</ele>
    <time>2026-08-27T17:54:10Z</time>
    <speed>0.64</speed>
  </trkpt>
  <trkpt lat="50.418057" lon="-3.720766">
    <ele>145</ele>
    <time>2026-08-27T17:54:21Z</time>
    <speed>0.59</speed>
  </trkpt>
  <trkpt lat="50.417948" lon="-3.720848">
    <ele>142</ele>
    <time>2026-08-27T17:54:32Z</time>
    <speed>1.01</speed>
  </trkpt>
  <trkpt lat="50.417868" lon="-3.720970">
    <ele>145</ele>
    <time>2026-08-27T17:54:43Z</time>
    <speed>1.41</speed>
  </trkpt>
  <trkpt lat="50.417816" lon="-3.721167">
    <ele>147</ele>
    <time>2026-08-27T17:54:54Z</time>
    <speed>1.0699999</speed>
  </trkpt>
  <trkpt lat="50.417780" lon="-3.721314">
    <ele>147</ele>
    <time>2026-08-27T17:55:05Z</time>
    <speed>0.74</speed>
  </trkpt>
  <trkpt lat="50.417715" lon="-3.721420">
    <ele>149</ele>
    <time>2026-08-27T17:55:35Z</time>
    <speed>0.48</speed>
  </trkpt>
  <trkpt lat="50.417745" lon="-3.721557">
    <ele>147</ele>
    <time>2026-08-27T17:58:21Z</time>
    <speed>1.9</speed>
  </trkpt>
  <trkpt lat="50.417761" lon="-3.721707">
    <ele>151</ele>
    <time>2026-08-27T17:58:49Z</time>
    <speed>1.1899999</speed>
  </trkpt>
  <trkpt lat="50.417862" lon="-3.721763">
    <ele>136</ele>
    <time>2026-08-27T17:59:00Z</time>
    <speed>1.66</speed>
  </trkpt>
  <trkpt lat="50.418021" lon="-3.721746">
    <ele>151</ele>
    <time>2026-08-27T17:59:11Z</time>
    <speed>1.43</speed>
  </trkpt>
  <trkpt lat="50.418159" lon="-3.721787">
    <ele>148</ele>
    <time>2026-08-27T17:59:22Z</time>
    <speed>0.93</speed>
  </trkpt>
  <trkpt lat="50.418273" lon="-3.721824">
    <ele>154</ele>
    <time>2026-08-27T17:59:33Z</time>
    <speed>0.76</speed>
  </trkpt>
  <trkpt lat="50.418395" lon="-3.721836">
    <ele>153</ele>
    <time>2026-08-27T17:59:44Z</time>
    <speed>1.17</speed>
  </trkpt>
  <trkpt lat="50.418497" lon="-3.721873">
    <ele>154</ele>
    <time>2026-08-27T17:59:55Z</time>
    <speed>0.95</speed>
  </trkpt>
  <trkpt lat="50.418610" lon="-3.721932">
    <ele>155</ele>
    <time>2026-08-27T18:00:06Z</time>
    <speed>1.3</speed>
  </trkpt>
  <trkpt lat="50.418724" lon="-3.721945">
    <ele>155</ele>
    <time>2026-08-27T18:00:17Z</time>
    <speed>0.5</speed>
  </trkpt>
  <trkpt lat="50.418822" lon="-3.721991">
    <ele>157</ele>
    <time>2026-08-27T18:00:28Z</time>
    <speed>0.89</speed>
  </trkpt>
  <trkpt lat="50.418952" lon="-3.721948">
    <ele>158</ele>
    <time>2026-08-27T18:00:39Z</time>
    <speed>1.5899999</speed>
  </trkpt>
  <trkpt lat="50.419061" lon="-3.721994">
    <ele>159</ele>
    <time>2026-08-27T18:00:50Z</time>
    <speed>0.42999998</speed>
  </trkpt>
  <trkpt lat="50.419157" lon="-3.721987">
    <ele>160</ele>
    <time>2026-08-27T18:01:07Z</time>
    <speed>1.61</speed>
  </trkpt>
  <trkpt lat="50.419269" lon="-3.722066">
    <ele>161</ele>
    <time>2026-08-27T18:01:18Z</time>
    <speed>1.41</speed>
  </trkpt>
  <trkpt lat="50.419353" lon="-3.722161">
    <ele>163</ele>
    <time>2026-08-27T18:01:29Z</time>
    <speed>0.71</speed>
  </trkpt>
  <trkpt lat="50.419444" lon="-3.722201">
    <ele>160</ele>
    <time>2026-08-27T18:01:43Z</time>
    <speed>1.28</speed>
  </trkpt>
  <trkpt lat="50.419563" lon="-3.722221">
    <ele>167</ele>
    <time>2026-08-27T18:01:54Z</time>
    <speed>1.0</speed>
  </trkpt>
  <trkpt lat="50.419688" lon="-3.722231">
    <ele>167</ele>
    <time>2026-08-27T18:02:05Z</time>
    <speed>1.0799999</speed>
  </trkpt>
  <trkpt lat="50.419777" lon="-3.722288">
    <ele>171</ele>
    <time>2026-08-27T18:02:19Z</time>
    <speed>1.18</speed>
  </trkpt>
  <trkpt lat="50.419853" lon="-3.722377">
    <ele>166</ele>
    <time>2026-08-27T18:02:37Z</time>
    <speed>1.88</speed>
  </trkpt>
  <trkpt lat="50.419956" lon="-3.722415">
    <ele>172</ele>
    <time>2026-08-27T18:02:50Z</time>
    <speed>0.96</speed>
  </trkpt>
  <trkpt lat="50.420038" lon="-3.722484">
    <ele>175</ele>
    <time>2026-08-27T18:03:03Z</time>
    <speed>0.55</speed>
  </trkpt>
  <trkpt lat="50.420142" lon="-3.722453">
    <ele>176</ele>
    <time>2026-08-27T18:03:14Z</time>
    <speed>1.23</speed>
  </trkpt>
  <trkpt lat="50.420212" lon="-3.722557">
    <ele>178</ele>
    <time>2026-08-27T18:03:26Z</time>
    <speed>0.61</speed>
  </trkpt>
  <trkpt lat="50.420315" lon="-3.722636">
    <ele>180</ele>
    <time>2026-08-27T18:03:37Z</time>
    <speed>1.15</speed>
  </trkpt>
  <trkpt lat="50.420423" lon="-3.722667">
    <ele>181</ele>
    <time>2026-08-27T18:03:48Z</time>
    <speed>1.27</speed>
  </trkpt>
  <trkpt lat="50.420512" lon="-3.722724">
    <ele>183</ele>
    <time>2026-08-27T18:03:59Z</time>
    <speed>1.38</speed>
  </trkpt>
  <trkpt lat="50.420603" lon="-3.722822">
    <ele>183</ele>
    <time>2026-08-27T18:04:10Z</time>
    <speed>1.05</speed>
  </trkpt>
  <trkpt lat="50.420741" lon="-3.722823">
    <ele>189</ele>
    <time>2026-08-27T18:04:21Z</time>
    <speed>1.56</speed>
  </trkpt>
  <trkpt lat="50.420823" lon="-3.722915">
    <ele>185</ele>
    <time>2026-08-27T18:04:32Z</time>
    <speed>1.1</speed>
  </trkpt>
  <trkpt lat="50.420911" lon="-3.722875">
    <ele>185</ele>
    <time>2026-08-27T18:04:46Z</time>
    <speed>1.15</speed>
  </trkpt>
  <trkpt lat="50.420989" lon="-3.722945">
    <ele>188</ele>
    <time>2026-08-27T18:05:03Z</time>
    <speed>0.06</speed>
  </trkpt>
  <trkpt lat="50.421075" lon="-3.722992">
    <ele>188</ele>
    <time>2026-08-27T18:05:20Z</time>
    <speed>0.089999996</speed>
  </trkpt>
  <trkpt lat="50.421149" lon="-3.723088">
    <ele>190</ele>
    <time>2026-08-27T18:06:19Z</time>
    <speed>1.4</speed>
  </trkpt>
  <trkpt lat="50.421246" lon="-3.723156">
    <ele>190</ele>
    <time>2026-08-27T18:06:30Z</time>
    <speed>0.95</speed>
  </trkpt>
  <trkpt lat="50.421333" lon="-3.723234">
    <ele>191</ele>
    <time>2026-08-27T18:06:42Z</time>
    <speed>0.90999997</speed>
  </trkpt>
  <trkpt lat="50.421420" lon="-3.723321">
    <ele>192</ele>
    <time>2026-08-27T18:06:53Z</time>
    <speed>0.82</speed>
  </trkpt>
  <trkpt lat="50.421509" lon="-3.723392">
    <ele>195</ele>
    <time>2026-08-27T18:07:05Z</time>
    <speed>1.3299999</speed>
  </trkpt>
  <trkpt lat="50.421601" lon="-3.723442">
    <ele>194</ele>
    <time>2026-08-27T18:07:17Z</time>
    <speed>1.0799999</speed>
  </trkpt>
  <trkpt lat="50.421702" lon="-3.723519">
    <ele>196</ele>
    <time>2026-08-27T18:07:28Z</time>
    <speed>0.84</speed>
  </trkpt>
  <trkpt lat="50.421789" lon="-3.723573">
    <ele>198</ele>
    <time>2026-08-27T18:07:40Z</time>
    <speed>0.72999996</speed>
  </trkpt>
  <trkpt lat="50.421866" lon="-3.723654">
    <ele>198</ele>
    <time>2026-08-27T18:07:51Z</time>
    <speed>0.96999997</speed>
  </trkpt>
  <trkpt lat="50.421953" lon="-3.723692">
    <ele>198</ele>
    <time>2026-08-27T18:08:02Z</time>
    <speed>0.96</speed>
  </trkpt>
  <trkpt lat="50.422024" lon="-3.723784">
    <ele>199</ele>
    <time>2026-08-27T18:08:14Z</time>
    <speed>0.08</speed>
  </trkpt>
  <trkpt lat="50.422096" lon="-3.723869">
    <ele>200</ele>
    <time>2026-08-27T18:08:32Z</time>
    <speed>0.71999997</speed>
  </trkpt>
  <trkpt lat="50.422189" lon="-3.723919">
    <ele>201</ele>
    <time>2026-08-27T18:08:43Z</time>
    <speed>1.06</speed>
  </trkpt>
  <trkpt lat="50.422272" lon="-3.724049">
    <ele>202</ele>
    <time>2026-08-27T18:08:54Z</time>
    <speed>1.01</speed>
  </trkpt>
  <trkpt lat="50.422377" lon="-3.724180">
    <ele>202</ele>
    <time>2026-08-27T18:09:05Z</time>
    <speed>1.39</speed>
  </trkpt>
  <trkpt lat="50.422453" lon="-3.724271">
    <ele>204</ele>
    <time>2026-08-27T18:09:18Z</time>
    <speed>0.69</speed>
  </trkpt>
  <trkpt lat="50.422545" lon="-3.724397">
    <ele>204</ele>
    <time>2026-08-27T18:09:29Z</time>
    <speed>1.1899999</speed>
  </trkpt>
  <trkpt lat="50.422604" lon="-3.724512">
    <ele>199</ele>
    <time>2026-08-27T18:09:59Z</time>
    <speed>1.17</speed>
  </trkpt>
  <trkpt lat="50.422668" lon="-3.724675">
    <ele>206</ele>
    <time>2026-08-27T18:10:10Z</time>
    <speed>1.16</speed>
  </trkpt>
  <trkpt lat="50.422714" lon="-3.724819">
    <ele>206</ele>
    <time>2026-08-27T18:10:21Z</time>
    <speed>0.84999996</speed>
  </trkpt>
  <trkpt lat="50.422777" lon="-3.724983">
    <ele>206</ele>
    <time>2026-08-27T18:10:32Z</time>
    <speed>1.38</speed>
  </trkpt>
  <trkpt lat="50.422820" lon="-3.725151">
    <ele>206</ele>
    <time>2026-08-27T18:10:43Z</time>
    <speed>1.01</speed>
  </trkpt>
  <trkpt lat="50.422881" lon="-3.725302">
    <ele>202</ele>
    <time>2026-08-27T18:10:54Z</time>
    <speed>0.82</speed>
  </trkpt>
  <trkpt lat="50.422937" lon="-3.725485">
    <ele>205</ele>
    <time>2026-08-27T18:11:05Z</time>
    <speed>1.4399999</speed>
  </trkpt>
  <trkpt lat="50.423016" lon="-3.725638">
    <ele>201</ele>
    <time>2026-08-27T18:11:16Z</time>
    <speed>0.94</speed>
  </trkpt>
  <trkpt lat="50.423075" lon="-3.725765">
    <ele>204</ele>
    <time>2026-08-27T18:11:27Z</time>
    <speed>1.1999999</speed>
  </trkpt>
  <trkpt lat="50.423117" lon="-3.725924">
    <ele>208</ele>
    <time>2026-08-27T18:11:38Z</time>
    <speed>0.83</speed>
  </trkpt>
  <trkpt lat="50.423144" lon="-3.726063">
    <ele>206</ele>
    <time>2026-08-27T18:12:14Z</time>
    <speed>1.04</speed>
  </trkpt>
  <trkpt lat="50.423172" lon="-3.726197">
    <ele>202</ele>
    <time>2026-08-27T18:12:25Z</time>
    <speed>1.03</speed>
  </trkpt>
  <trkpt lat="50.423199" lon="-3.726381">
    <ele>200</ele>
    <time>2026-08-27T18:12:36Z</time>
    <speed>0.98999995</speed>
  </trkpt>
  <trkpt lat="50.423223" lon="-3.726559">
    <ele>200</ele>
    <time>2026-08-27T18:12:47Z</time>
    <speed>1.1999999</speed>
  </trkpt>
  <trkpt lat="50.423281" lon="-3.726715">
    <ele>202</ele>
    <time>2026-08-27T18:12:58Z</time>
    <speed>0.38</speed>
  </trkpt>
  <trkpt lat="50.423314" lon="-3.726926">
    <ele>199</ele>
    <time>2026-08-27T18:13:09Z</time>
    <speed>1.3199999</speed>
  </trkpt>
  <trkpt lat="50.423338" lon="-3.727111">
    <ele>197</ele>
    <time>2026-08-27T18:13:20Z</time>
    <speed>1.09</speed>
  </trkpt>
  <trkpt lat="50.423342" lon="-3.727291">
    <ele>197</ele>
    <time>2026-08-27T18:13:31Z</time>
    <speed>0.88</speed>
  </trkpt>
  <trkpt lat="50.423424" lon="-3.727350">
    <ele>197</ele>
    <time>2026-08-27T18:13:55Z</time>
    <speed>0.62</speed>
  </trkpt>
  <trkpt lat="50.423532" lon="-3.727327">
    <ele>198</ele>
    <time>2026-08-27T18:14:06Z</time>
    <speed>0.7</speed>
  </trkpt>
  <trkpt lat="50.423631" lon="-3.727316">
    <ele>197</ele>
    <time>2026-08-27T18:14:19Z</time>
    <speed>1.42</speed>
  </trkpt>
  <trkpt lat="50.423677" lon="-3.727191">
    <ele>199</ele>
    <time>2026-08-27T18:14:30Z</time>
    <speed>0.96999997</speed>
  </trkpt>
  <trkpt lat="50.423718" lon="-3.727035">
    <ele>199</ele>
    <time>2026-08-27T18:14:41Z</time>
    <speed>0.88</speed>
  </trkpt>
  <trkpt lat="50.423778" lon="-3.726858">
    <ele>197</ele>
    <time>2026-08-27T18:14:52Z</time>
    <speed>0.82</speed>
  </trkpt>
  <trkpt lat="50.423838" lon="-3.726704">
    <ele>196</ele>
    <time>2026-08-27T18:15:03Z</time>
    <speed>1.13</speed>
  </trkpt>
  <trkpt lat="50.423893" lon="-3.726523">
    <ele>198</ele>
    <time>2026-08-27T18:15:14Z</time>
    <speed>1.29</speed>
  </trkpt>
  <trkpt lat="50.423951" lon="-3.726354">
    <ele>197</ele>
    <time>2026-08-27T18:15:25Z</time>
    <speed>0.88</speed>
  </trkpt>
  <trkpt lat="50.423975" lon="-3.726215">
    <ele>196</ele>
    <time>2026-08-27T18:15:36Z</time>
    <speed>1.48</speed>
  </trkpt>
  <trkpt lat="50.424030" lon="-3.726055">
    <ele>196</ele>
    <time>2026-08-27T18:15:47Z</time>
    <speed>0.65</speed>
  </trkpt>
  <trkpt lat="50.424093" lon="-3.725900">
    <ele>195</ele>
    <time>2026-08-27T18:15:58Z</time>
    <speed>0.94</speed>
  </trkpt>
  <trkpt lat="50.424146" lon="-3.725744">
    <ele>194</ele>
    <time>2026-08-27T18:16:09Z</time>
    <speed>0.94</speed>
  </trkpt>
  <trkpt lat="50.424202" lon="-3.725586">
    <ele>192</ele>
    <time>2026-08-27T18:16:20Z</time>
    <speed>0.97999996</speed>
  </trkpt>
  <trkpt lat="50.424241" lon="-3.725444">
    <ele>192</ele>
    <time>2026-08-27T18:16:31Z</time>
    <speed>0.96</speed>
  </trkpt>
  <trkpt lat="50.424311" lon="-3.725352">
    <ele>194</ele>
    <time>2026-08-27T18:16:43Z</time>
    <speed>1.11</speed>
  </trkpt>
  <trkpt lat="50.424399" lon="-3.725300">
    <ele>194</ele>
    <time>2026-08-27T18:16:56Z</time>
    <speed>0.64</speed>
  </trkpt>
  <trkpt lat="50.424498" lon="-3.725275">
    <ele>194</ele>
    <time>2026-08-27T18:17:07Z</time>
    <speed>0.39999998</speed>
  </trkpt>
  <trkpt lat="50.424604" lon="-3.725185">
    <ele>195</ele>
    <time>2026-08-27T18:17:18Z</time>
    <speed>0.53999996</speed>
  </trkpt>
  <trkpt lat="50.424611" lon="-3.725043">
    <ele>194</ele>
    <time>2026-08-27T18:18:00Z</time>
    <speed>0.16</speed>
  </trkpt>
  <trkpt lat="50.424693" lon="-3.724975">
    <ele>194</ele>
    <time>2026-08-27T18:18:50Z</time>
    <speed>1.18</speed>
  </trkpt>
  <trkpt lat="50.424737" lon="-3.724828">
    <ele>194</ele>
    <time>2026-08-27T18:19:01Z</time>
    <speed>0.91999996</speed>
  </trkpt>
  <trkpt lat="50.424797" lon="-3.724711">
    <ele>193</ele>
    <time>2026-08-27T18:19:12Z</time>
    <speed>0.72999996</speed>
  </trkpt>
  <trkpt lat="50.424841" lon="-3.724562">
    <ele>192</ele>
    <time>2026-08-27T18:19:23Z</time>
    <speed>1.18</speed>
  </trkpt>
  <trkpt lat="50.424907" lon="-3.724422">
    <ele>191</ele>
    <time>2026-08-27T18:19:34Z</time>
    <speed>0.91999996</speed>
  </trkpt>
  <trkpt lat="50.424976" lon="-3.724255">
    <ele>190</ele>
    <time>2026-08-27T18:19:45Z</time>
    <speed>0.97999996</speed>
  </trkpt>
  <trkpt lat="50.425037" lon="-3.724112">
    <ele>191</ele>
    <time>2026-08-27T18:19:56Z</time>
    <speed>0.90999997</speed>
  </trkpt>
  <trkpt lat="50.425076" lon="-3.723979">
    <ele>190</ele>
    <time>2026-08-27T18:20:07Z</time>
    <speed>1.0699999</speed>
  </trkpt>
  <trkpt lat="50.425132" lon="-3.723818">
    <ele>190</ele>
    <time>2026-08-27T18:20:18Z</time>
    <speed>1.1</speed>
  </trkpt>
  <trkpt lat="50.425184" lon="-3.723651">
    <ele>189</ele>
    <time>2026-08-27T18:20:29Z</time>
    <speed>0.89</speed>
  </trkpt>
  <trkpt lat="50.425242" lon="-3.723497">
    <ele>188</ele>
    <time>2026-08-27T18:20:40Z</time>
    <speed>0.95</speed>
  </trkpt>
  <trkpt lat="50.425301" lon="-3.723323">
    <ele>189</ele>
    <time>2026-08-27T18:20:51Z</time>
    <speed>1.1</speed>
  </trkpt>
  <trkpt lat="50.425341" lon="-3.723151">
    <ele>185</ele>
    <time>2026-08-27T18:21:02Z</time>
    <speed>0.96999997</speed>
  </trkpt>
  <trkpt lat="50.425415" lon="-3.722993">
    <ele>188</ele>
    <time>2026-08-27T18:21:13Z</time>
    <speed>1.0</speed>
  </trkpt>
  <trkpt lat="50.425467" lon="-3.722844">
    <ele>187</ele>
    <time>2026-08-27T18:21:24Z</time>
    <speed>0.65</speed>
  </trkpt>
  <trkpt lat="50.425493" lon="-3.722682">
    <ele>187</ele>
    <time>2026-08-27T18:21:35Z</time>
    <speed>0.82</speed>
  </trkpt>
  <trkpt lat="50.425537" lon="-3.722545">
    <ele>188</ele>
    <time>2026-08-27T18:21:47Z</time>
    <speed>0.95</speed>
  </trkpt>
  <trkpt lat="50.425587" lon="-3.722390">
    <ele>183</ele>
    <time>2026-08-27T18:21:58Z</time>
    <speed>0.98999995</speed>
  </trkpt>
  <trkpt lat="50.425649" lon="-3.722272">
    <ele>187</ele>
    <time>2026-08-27T18:22:09Z</time>
    <speed>0.88</speed>
  </trkpt>
  <trkpt lat="50.425735" lon="-3.722235">
    <ele>188</ele>
    <time>2026-08-27T18:22:21Z</time>
    <speed>0.32</speed>
  </trkpt>
  <trkpt lat="50.425844" lon="-3.722224">
    <ele>189</ele>
    <time>2026-08-27T18:22:32Z</time>
    <speed>1.28</speed>
  </trkpt>
  <trkpt lat="50.425957" lon="-3.722224">
    <ele>188</ele>
    <time>2026-08-27T18:22:43Z</time>
    <speed>0.68</speed>
  </trkpt>
  <trkpt lat="50.426068" lon="-3.722203">
    <ele>188</ele>
    <time>2026-08-27T18:22:54Z</time>
    <speed>1.02</speed>
  </trkpt>
  <trkpt lat="50.426149" lon="-3.722142">
    <ele>185</ele>
    <time>2026-08-27T18:24:16Z</time>
    <speed>1.27</speed>
  </trkpt>
  <trkpt lat="50.426197" lon="-3.721989">
    <ele>188</ele>
    <time>2026-08-27T18:24:27Z</time>
    <speed>1.2099999</speed>
  </trkpt>
  <trkpt lat="50.426248" lon="-3.721806">
    <ele>187</ele>
    <time>2026-08-27T18:24:38Z</time>
    <speed>0.57</speed>
  </trkpt>
  <trkpt lat="50.426308" lon="-3.721638">
    <ele>186</ele>
    <time>2026-08-27T18:24:49Z</time>
    <speed>0.76</speed>
  </trkpt>
  <trkpt lat="50.426350" lon="-3.721474">
    <ele>185</ele>
    <time>2026-08-27T18:25:00Z</time>
    <speed>1.31</speed>
  </trkpt>
  <trkpt lat="50.426393" lon="-3.721280">
    <ele>184</ele>
    <time>2026-08-27T18:25:11Z</time>
    <speed>0.98999995</speed>
  </trkpt>
  <trkpt lat="50.426454" lon="-3.721089">
    <ele>184</ele>
    <time>2026-08-27T18:25:22Z</time>
    <speed>1.0699999</speed>
  </trkpt>
  <trkpt lat="50.426520" lon="-3.720920">
    <ele>183</ele>
    <time>2026-08-27T18:25:33Z</time>
    <speed>1.05</speed>
  </trkpt>
  <trkpt lat="50.426582" lon="-3.720727">
    <ele>182</ele>
    <time>2026-08-27T18:25:44Z</time>
    <speed>0.82</speed>
  </trkpt>
  <trkpt lat="50.426637" lon="-3.720583">
    <ele>180</ele>
    <time>2026-08-27T18:25:55Z</time>
    <speed>0.83</speed>
  </trkpt>
  <trkpt lat="50.426699" lon="-3.720426">
    <ele>180</ele>
    <time>2026-08-27T18:26:06Z</time>
    <speed>0.95</speed>
  </trkpt>
  <trkpt lat="50.426766" lon="-3.720264">
    <ele>180</ele>
    <time>2026-08-27T18:26:17Z</time>
    <speed>0.84999996</speed>
  </trkpt>
  <trkpt lat="50.426795" lon="-3.720069">
    <ele>180</ele>
    <time>2026-08-27T18:26:28Z</time>
    <speed>1.31</speed>
  </trkpt>
  <trkpt lat="50.426867" lon="-3.719910">
    <ele>178</ele>
    <time>2026-08-27T18:26:39Z</time>
    <speed>1.23</speed>
  </trkpt>
  <trkpt lat="50.426948" lon="-3.719737">
    <ele>178</ele>
    <time>2026-08-27T18:26:50Z</time>
    <speed>1.3399999</speed>
  </trkpt>
  <trkpt lat="50.426994" lon="-3.719579">
    <ele>176</ele>
    <time>2026-08-27T18:27:01Z</time>
    <speed>0.45999998</speed>
  </trkpt>
  <trkpt lat="50.427017" lon="-3.719436">
    <ele>177</ele>
    <time>2026-08-27T18:27:25Z</time>
    <speed>0.049999997</speed>
  </trkpt>
  <trkpt lat="50.427097" lon="-3.719368">
    <ele>173</ele>
    <time>2026-08-27T18:28:04Z</time>
    <speed>1.16</speed>
  </trkpt>
  <trkpt lat="50.427186" lon="-3.719391">
    <ele>173</ele>
    <time>2026-08-27T18:28:19Z</time>
    <speed>0.03</speed>
  </trkpt>
  <trkpt lat="50.427220" lon="-3.719256">
    <ele>177</ele>
    <time>2026-08-27T18:28:30Z</time>
    <speed>0.78</speed>
  </trkpt>
  <trkpt lat="50.427281" lon="-3.719152">
    <ele>172</ele>
    <time>2026-08-27T18:28:58Z</time>
    <speed>0.85999995</speed>
  </trkpt>
  <trkpt lat="50.427344" lon="-3.719038">
    <ele>170</ele>
    <time>2026-08-27T18:29:12Z</time>
    <speed>0.55</speed>
  </trkpt>
  <trkpt lat="50.427426" lon="-3.718979">
    <ele>169</ele>
    <time>2026-08-27T18:29:28Z</time>
    <speed>0.62</speed>
  </trkpt>
  <trkpt lat="50.427515" lon="-3.718912">
    <ele>167</ele>
    <time>2026-08-27T18:29:39Z</time>
    <speed>0.94</speed>
  </trkpt>
  <trkpt lat="50.427606" lon="-3.718895">
    <ele>166</ele>
    <time>2026-08-27T18:29:53Z</time>
    <speed>1.38</speed>
  </trkpt>
  <trkpt lat="50.427697" lon="-3.718831">
    <ele>165</ele>
    <time>2026-08-27T18:30:13Z</time>
    <speed>0.93</speed>
  </trkpt>
  <trkpt lat="50.427798" lon="-3.718809">
    <ele>162</ele>
    <time>2026-08-27T18:30:24Z</time>
    <speed>0.94</speed>
  </trkpt>
  <trkpt lat="50.427930" lon="-3.718780">
    <ele>162</ele>
    <time>2026-08-27T18:30:35Z</time>
    <speed>0.94</speed>
  </trkpt>
  <trkpt lat="50.428051" lon="-3.718804">
    <ele>159</ele>
    <time>2026-08-27T18:30:46Z</time>
    <speed>0.94</speed>
  </trkpt>
  <trkpt lat="50.428139" lon="-3.718853">
    <ele>159</ele>
    <time>2026-08-27T18:30:57Z</time>
    <speed>1.02</speed>
  </trkpt>
  <trkpt lat="50.428243" lon="-3.718924">
    <ele>158</ele>
    <time>2026-08-27T18:31:08Z</time>
    <speed>1.53</speed>
  </trkpt>
  <trkpt lat="50.428326" lon="-3.719011">
    <ele>153</ele>
    <time>2026-08-27T18:31:19Z</time>
    <speed>1.53</speed>
  </trkpt>
  <trkpt lat="50.428426" lon="-3.719092">
    <ele>155</ele>
    <time>2026-08-27T18:31:30Z</time>
    <speed>1.05</speed>
  </trkpt>
  <trkpt lat="50.428514" lon="-3.719170">
    <ele>153</ele>
    <time>2026-08-27T18:31:41Z</time>
    <speed>1.29</speed>
  </trkpt>
  <trkpt lat="50.428600" lon="-3.719245">
    <ele>152</ele>
    <time>2026-08-27T18:31:52Z</time>
    <speed>0.71999997</speed>
  </trkpt>
  <trkpt lat="50.428678" lon="-3.719347">
    <ele>150</ele>
    <time>2026-08-27T18:32:06Z</time>
    <speed>1.8</speed>
  </trkpt>
  <trkpt lat="50.428779" lon="-3.719430">
    <ele>149</ele>
    <time>2026-08-27T18:32:17Z</time>
    <speed>0.64</speed>
  </trkpt>
  <trkpt lat="50.428881" lon="-3.719477">
    <ele>146</ele>
    <time>2026-08-27T18:32:28Z</time>
    <speed>0.12</speed>
  </trkpt>
  <trkpt lat="50.428968" lon="-3.719526">
    <ele>144</ele>
    <time>2026-08-27T18:32:39Z</time>
    <speed>1.35</speed>
  </trkpt>
  <trkpt lat="50.429097" lon="-3.719583">
    <ele>145</ele>
    <time>2026-08-27T18:32:50Z</time>
    <speed>0.81</speed>
  </trkpt>
  <trkpt lat="50.429197" lon="-3.719601">
    <ele>143</ele>
    <time>2026-08-27T18:33:03Z</time>
    <speed>0.59999996</speed>
  </trkpt>
  <trkpt lat="50.429296" lon="-3.719564">
    <ele>142</ele>
    <time>2026-08-27T18:33:14Z</time>
    <speed>0.48</speed>
  </trkpt>
  <trkpt lat="50.429426" lon="-3.719567">
    <ele>140</ele>
    <time>2026-08-27T18:33:25Z</time>
    <speed>0.59</speed>
  </trkpt>
  <trkpt lat="50.429541" lon="-3.719552">
    <ele>140</ele>
    <time>2026-08-27T18:33:36Z</time>
    <speed>0.85999995</speed>
  </trkpt>
  <trkpt lat="50.429665" lon="-3.719520">
    <ele>139</ele>
    <time>2026-08-27T18:33:47Z</time>
    <speed>0.9</speed>
  </trkpt>
  <trkpt lat="50.429785" lon="-3.719457">
    <ele>139</ele>
    <time>2026-08-27T18:33:58Z</time>
    <speed>1.38</speed>
  </trkpt>
  <trkpt lat="50.429919" lon="-3.719379">
    <ele>137</ele>
    <time>2026-08-27T18:34:09Z</time>
    <speed>1.05</speed>
  </trkpt>
  <trkpt lat="50.430039" lon="-3.719241">
    <ele>137</ele>
    <time>2026-08-27T18:34:20Z</time>
    <speed>1.3</speed>
  </trkpt>
  <trkpt lat="50.430143" lon="-3.719149">
    <ele>136</ele>
    <time>2026-08-27T18:34:31Z</time>
    <speed>0.89</speed>
  </trkpt>
  <trkpt lat="50.430259" lon="-3.718952">
    <ele>135</ele>
    <time>2026-08-27T18:34:42Z</time>
    <speed>1.0</speed>
  </trkpt>
  <trkpt lat="50.430239" lon="-3.719093">
    <ele>133</ele>
    <time>2026-08-27T18:35:00Z</time>
    <speed>1.5</speed>
  </trkpt>
  <trkpt lat="50.430157" lon="-3.719243">
    <ele>133</ele>
    <time>2026-08-27T18:35:11Z</time>
    <speed>0.74</speed>
  </trkpt>
  <trkpt lat="50.430079" lon="-3.719346">
    <ele>134</ele>
    <time>2026-08-27T18:35:22Z</time>
    <speed>0.65</speed>
  </trkpt>
  <trkpt lat="50.429998" lon="-3.719444">
    <ele>134</ele>
    <time>2026-08-27T18:35:33Z</time>
    <speed>0.26999998</speed>
  </trkpt>
  <trkpt lat="50.429898" lon="-3.719557">
    <ele>134</ele>
    <time>2026-08-27T18:35:44Z</time>
    <speed>1.25</speed>
  </trkpt>
  <trkpt lat="50.429786" lon="-3.719679">
    <ele>133</ele>
    <time>2026-08-27T18:35:55Z</time>
    <speed>1.09</speed>
  </trkpt>
  <trkpt lat="50.429662" lon="-3.719776">
    <ele>134</ele>
    <time>2026-08-27T18:36:06Z</time>
    <speed>0.55</speed>
  </trkpt>
  <trkpt lat="50.429558" lon="-3.719791">
    <ele>133</ele>
    <time>2026-08-27T18:36:17Z</time>
    <speed>0.45</speed>
  </trkpt>
  <trkpt lat="50.429438" lon="-3.719877">
    <ele>131</ele>
    <time>2026-08-27T18:36:28Z</time>
    <speed>1.28</speed>
  </trkpt>
  <trkpt lat="50.429254" lon="-3.719993">
    <ele>132</ele>
    <time>2026-08-27T18:36:39Z</time>
    <speed>1.09</speed>
  </trkpt>
  <trkpt lat="50.429193" lon="-3.720204">
    <ele>130</ele>
    <time>2026-08-27T18:36:50Z</time>
    <speed>1.0699999</speed>
  </trkpt>
  <trkpt lat="50.429193" lon="-3.720437">
    <ele>127</ele>
    <time>2026-08-27T18:37:01Z</time>
    <speed>1.09</speed>
  </trkpt>
  <trkpt lat="50.429210" lon="-3.720630">
    <ele>125</ele>
    <time>2026-08-27T18:37:12Z</time>
    <speed>0.87</speed>
  </trkpt>
  </trkseg>
</trk>
</gpx>
