<?xml version="1.0" encoding="UTF-8" ?>
<gpx
 version="1.0"
 creator="Maverick - http://www.maverickgps.com"
 xmlns:xsi="http://www.w3.org/2001/XMLSchema-instance"
 xmlns="http://www.topografix.com/GPX/1/0"
 xsi:schemaLocation="http://www.topografix.com/GPX/1/0 http://www.topografix.com/GPX/1/0/gpx.xsd">
<time>2026-07-23T17:09:08Z</time>
<trk>
 <name>2026-07-23 @ 18-09-08</name>
 <trkseg>
  <trkpt lat="50.594384" lon="-3.882481">
    <ele>265</ele>
    <time>2026-07-23T17:09:07Z</time>
    <speed>0.099999994</speed>
  </trkpt>
  <trkpt lat="50.594476" lon="-3.882495">
    <ele>263</ele>
    <time>2026-07-23T17:10:39Z</time>
    <speed>0.79999995</speed>
  </trkpt>
  <trkpt lat="50.594552" lon="-3.882419">
    <ele>262</ele>
    <time>2026-07-23T17:10:51Z</time>
    <speed>1.03</speed>
  </trkpt>
  <trkpt lat="50.594618" lon="-3.882312">
    <ele>264</ele>
    <time>2026-07-23T17:11:04Z</time>
    <speed>0.87</speed>
  </trkpt>
  <trkpt lat="50.594644" lon="-3.882135">
    <ele>265</ele>
    <time>2026-07-23T17:11:15Z</time>
    <speed>0.74</speed>
  </trkpt>
  <trkpt lat="50.594662" lon="-3.881942">
    <ele>265</ele>
    <time>2026-07-23T17:11:26Z</time>
    <speed>1.2099999</speed>
  </trkpt>
  <trkpt lat="50.594641" lon="-3.881801">
    <ele>265</ele>
    <time>2026-07-23T17:11:39Z</time>
    <speed>0.35</speed>
  </trkpt>
  <trkpt lat="50.594671" lon="-3.881616">
    <ele>267</ele>
    <time>2026-07-23T17:11:50Z</time>
    <speed>1.28</speed>
  </trkpt>
  <trkpt lat="50.594669" lon="-3.881463">
    <ele>266</ele>
    <time>2026-07-23T17:12:01Z</time>
    <speed>0.90999997</speed>
  </trkpt>
  <trkpt lat="50.594689" lon="-3.881318">
    <ele>263</ele>
    <time>2026-07-23T17:12:15Z</time>
    <speed>0.83</speed>
  </trkpt>
  <trkpt lat="50.594707" lon="-3.881166">
    <ele>269</ele>
    <time>2026-07-23T17:12:26Z</time>
    <speed>0.52</speed>
  </trkpt>
  <trkpt lat="50.594697" lon="-3.880991">
    <ele>269</ele>
    <time>2026-07-23T17:12:37Z</time>
    <speed>0.53999996</speed>
  </trkpt>
  <trkpt lat="50.594733" lon="-3.880825">
    <ele>272</ele>
    <time>2026-07-23T17:12:48Z</time>
    <speed>0.48</speed>
  </trkpt>
  <trkpt lat="50.594736" lon="-3.880649">
    <ele>272</ele>
    <time>2026-07-23T17:12:59Z</time>
    <speed>0.95</speed>
  </trkpt>
  <trkpt lat="50.594746" lon="-3.880464">
    <ele>275</ele>
    <time>2026-07-23T17:13:10Z</time>
    <speed>0.29</speed>
  </trkpt>
  <trkpt lat="50.594761" lon="-3.880310">
    <ele>273</ele>
    <time>2026-07-23T17:13:23Z</time>
    <speed>1.28</speed>
  </trkpt>
  <trkpt lat="50.594793" lon="-3.880141">
    <ele>275</ele>
    <time>2026-07-23T17:13:34Z</time>
    <speed>1.06</speed>
  </trkpt>
  <trkpt lat="50.594783" lon="-3.879957">
    <ele>275</ele>
    <time>2026-07-23T17:13:45Z</time>
    <speed>0.74</speed>
  </trkpt>
  <trkpt lat="50.594812" lon="-3.879750">
    <ele>275</ele>
    <time>2026-07-23T17:13:56Z</time>
    <speed>0.64</speed>
  </trkpt>
  <trkpt lat="50.594811" lon="-3.879567">
    <ele>277</ele>
    <time>2026-07-23T17:14:07Z</time>
    <speed>0.74</speed>
  </trkpt>
  <trkpt lat="50.594816" lon="-3.879405">
    <ele>276</ele>
    <time>2026-07-23T17:14:18Z</time>
    <speed>1.15</speed>
  </trkpt>
  <trkpt lat="50.594849" lon="-3.879176">
    <ele>277</ele>
    <time>2026-07-23T17:14:29Z</time>
    <speed>0.81</speed>
  </trkpt>
  <trkpt lat="50.594873" lon="-3.878952">
    <ele>280</ele>
    <time>2026-07-23T17:14:40Z</time>
    <speed>1.87</speed>
  </trkpt>
  <trkpt lat="50.594883" lon="-3.878762">
    <ele>280</ele>
    <time>2026-07-23T17:14:51Z</time>
    <speed>0.88</speed>
  </trkpt>
  <trkpt lat="50.594914" lon="-3.878554">
    <ele>281</ele>
    <time>2026-07-23T17:15:02Z</time>
    <speed>1.5899999</speed>
  </trkpt>
  <trkpt lat="50.594902" lon="-3.878388">
    <ele>277</ele>
    <time>2026-07-23T17:15:13Z</time>
    <speed>0.64</speed>
  </trkpt>
  <trkpt lat="50.594912" lon="-3.878198">
    <ele>283</ele>
    <time>2026-07-23T17:15:24Z</time>
    <speed>0.83</speed>
  </trkpt>
  <trkpt lat="50.594980" lon="-3.877937">
    <ele>282</ele>
    <time>2026-07-23T17:15:35Z</time>
    <speed>1.18</speed>
  </trkpt>
  <trkpt lat="50.595057" lon="-3.877720">
    <ele>283</ele>
    <time>2026-07-23T17:15:46Z</time>
    <speed>1.3399999</speed>
  </trkpt>
  <trkpt lat="50.595056" lon="-3.877538">
    <ele>284</ele>
    <time>2026-07-23T17:15:57Z</time>
    <speed>1.04</speed>
  </trkpt>
  <trkpt lat="50.595070" lon="-3.877387">
    <ele>283</ele>
    <time>2026-07-23T17:16:19Z</time>
    <speed>0.78</speed>
  </trkpt>
  <trkpt lat="50.595127" lon="-3.877203">
    <ele>283</ele>
    <time>2026-07-23T17:16:30Z</time>
    <speed>1.3199999</speed>
  </trkpt>
  <trkpt lat="50.595145" lon="-3.877029">
    <ele>279</ele>
    <time>2026-07-23T17:16:41Z</time>
    <speed>0.47</speed>
  </trkpt>
  <trkpt lat="50.595155" lon="-3.876846">
    <ele>284</ele>
    <time>2026-07-23T17:16:52Z</time>
    <speed>0.91999996</speed>
  </trkpt>
  <trkpt lat="50.595174" lon="-3.876633">
    <ele>285</ele>
    <time>2026-07-23T17:17:03Z</time>
    <speed>1.51</speed>
  </trkpt>
  <trkpt lat="50.595201" lon="-3.876466">
    <ele>284</ele>
    <time>2026-07-23T17:17:14Z</time>
    <speed>0.93</speed>
  </trkpt>
  <trkpt lat="50.595264" lon="-3.876187">
    <ele>280</ele>
    <time>2026-07-23T17:17:25Z</time>
    <speed>1.1899999</speed>
  </trkpt>
  <trkpt lat="50.595262" lon="-3.876020">
    <ele>287</ele>
    <time>2026-07-23T17:17:36Z</time>
    <speed>0.78</speed>
  </trkpt>
  <trkpt lat="50.595269" lon="-3.875814">
    <ele>288</ele>
    <time>2026-07-23T17:17:47Z</time>
    <speed>1.11</speed>
  </trkpt>
  <trkpt lat="50.595318" lon="-3.875610">
    <ele>290</ele>
    <time>2026-07-23T17:17:58Z</time>
    <speed>0.41</speed>
  </trkpt>
  <trkpt lat="50.595350" lon="-3.875377">
    <ele>284</ele>
    <time>2026-07-23T17:18:09Z</time>
    <speed>1.68</speed>
  </trkpt>
  <trkpt lat="50.595339" lon="-3.875181">
    <ele>288</ele>
    <time>2026-07-23T17:18:20Z</time>
    <speed>1.27</speed>
  </trkpt>
  <trkpt lat="50.595356" lon="-3.874987">
    <ele>290</ele>
    <time>2026-07-23T17:18:31Z</time>
    <speed>0.84999996</speed>
  </trkpt>
  <trkpt lat="50.595317" lon="-3.874726">
    <ele>290</ele>
    <time>2026-07-23T17:18:42Z</time>
    <speed>1.16</speed>
  </trkpt>
  <trkpt lat="50.595328" lon="-3.874538">
    <ele>290</ele>
    <time>2026-07-23T17:18:53Z</time>
    <speed>1.15</speed>
  </trkpt>
  <trkpt lat="50.595367" lon="-3.874336">
    <ele>292</ele>
    <time>2026-07-23T17:19:04Z</time>
    <speed>1.11</speed>
  </trkpt>
  <trkpt lat="50.595393" lon="-3.874149">
    <ele>287</ele>
    <time>2026-07-23T17:19:15Z</time>
    <speed>0.69</speed>
  </trkpt>
  <trkpt lat="50.595415" lon="-3.873930">
    <ele>291</ele>
    <time>2026-07-23T17:19:26Z</time>
    <speed>0.26999998</speed>
  </trkpt>
  <trkpt lat="50.595471" lon="-3.873727">
    <ele>293</ele>
    <time>2026-07-23T17:19:37Z</time>
    <speed>1.54</speed>
  </trkpt>
  <trkpt lat="50.595496" lon="-3.873489">
    <ele>291</ele>
    <time>2026-07-23T17:19:48Z</time>
    <speed>0.87</speed>
  </trkpt>
  <trkpt lat="50.595526" lon="-3.873258">
    <ele>292</ele>
    <time>2026-07-23T17:19:59Z</time>
    <speed>1.01</speed>
  </trkpt>
  <trkpt lat="50.595558" lon="-3.873055">
    <ele>292</ele>
    <time>2026-07-23T17:20:10Z</time>
    <speed>1.4</speed>
  </trkpt>
  <trkpt lat="50.595526" lon="-3.872873">
    <ele>288</ele>
    <time>2026-07-23T17:20:21Z</time>
    <speed>0.91999996</speed>
  </trkpt>
  <trkpt lat="50.595521" lon="-3.872724">
    <ele>287</ele>
    <time>2026-07-23T17:20:32Z</time>
    <speed>1.3199999</speed>
  </trkpt>
  <trkpt lat="50.595552" lon="-3.872475">
    <ele>286</ele>
    <time>2026-07-23T17:20:43Z</time>
    <speed>1.74</speed>
  </trkpt>
  <trkpt lat="50.595547" lon="-3.872303">
    <ele>284</ele>
    <time>2026-07-23T17:20:54Z</time>
    <speed>0.97999996</speed>
  </trkpt>
  <trkpt lat="50.595544" lon="-3.872076">
    <ele>285</ele>
    <time>2026-07-23T17:21:05Z</time>
    <speed>0.93</speed>
  </trkpt>
  <trkpt lat="50.595511" lon="-3.871897">
    <ele>281</ele>
    <time>2026-07-23T17:21:16Z</time>
    <speed>0.93</speed>
  </trkpt>
  <trkpt lat="50.595522" lon="-3.871704">
    <ele>281</ele>
    <time>2026-07-23T17:21:27Z</time>
    <speed>1.37</speed>
  </trkpt>
  <trkpt lat="50.595528" lon="-3.871457">
    <ele>278</ele>
    <time>2026-07-23T17:21:38Z</time>
    <speed>2.22</speed>
  </trkpt>
  <trkpt lat="50.595467" lon="-3.871307">
    <ele>282</ele>
    <time>2026-07-23T17:21:49Z</time>
    <speed>1.22</speed>
  </trkpt>
  <trkpt lat="50.595381" lon="-3.871122">
    <ele>277</ele>
    <time>2026-07-23T17:22:00Z</time>
    <speed>1.06</speed>
  </trkpt>
  <trkpt lat="50.595369" lon="-3.870957">
    <ele>272</ele>
    <time>2026-07-23T17:22:11Z</time>
    <speed>0.61</speed>
  </trkpt>
  <trkpt lat="50.595342" lon="-3.870730">
    <ele>277</ele>
    <time>2026-07-23T17:22:22Z</time>
    <speed>1.31</speed>
  </trkpt>
  <trkpt lat="50.595326" lon="-3.870492">
    <ele>273</ele>
    <time>2026-07-23T17:22:33Z</time>
    <speed>1.48</speed>
  </trkpt>
  <trkpt lat="50.595281" lon="-3.870293">
    <ele>272</ele>
    <time>2026-07-23T17:22:44Z</time>
    <speed>1.67</speed>
  </trkpt>
  <trkpt lat="50.595232" lon="-3.870069">
    <ele>270</ele>
    <time>2026-07-23T17:22:55Z</time>
    <speed>1.8299999</speed>
  </trkpt>
  <trkpt lat="50.595249" lon="-3.869847">
    <ele>268</ele>
    <time>2026-07-23T17:23:06Z</time>
    <speed>0.59</speed>
  </trkpt>
  <trkpt lat="50.595300" lon="-3.869708">
    <ele>270</ele>
    <time>2026-07-23T17:23:18Z</time>
    <speed>1.61</speed>
  </trkpt>
  <trkpt lat="50.595333" lon="-3.869563">
    <ele>270</ele>
    <time>2026-07-23T17:23:29Z</time>
    <speed>0.53</speed>
  </trkpt>
  <trkpt lat="50.595375" lon="-3.869433">
    <ele>270</ele>
    <time>2026-07-23T17:24:04Z</time>
    <speed>0.78</speed>
  </trkpt>
  <trkpt lat="50.595395" lon="-3.869272">
    <ele>269</ele>
    <time>2026-07-23T17:24:15Z</time>
    <speed>0.98999995</speed>
  </trkpt>
  <trkpt lat="50.595430" lon="-3.869096">
    <ele>270</ele>
    <time>2026-07-23T17:24:26Z</time>
    <speed>0.72999996</speed>
  </trkpt>
  <trkpt lat="50.595442" lon="-3.868941">
    <ele>262</ele>
    <time>2026-07-23T17:24:38Z</time>
    <speed>1.03</speed>
  </trkpt>
  <trkpt lat="50.595471" lon="-3.868729">
    <ele>269</ele>
    <time>2026-07-23T17:24:49Z</time>
    <speed>1.2099999</speed>
  </trkpt>
  <trkpt lat="50.595494" lon="-3.868542">
    <ele>268</ele>
    <time>2026-07-23T17:25:00Z</time>
    <speed>0.65999997</speed>
  </trkpt>
  <trkpt lat="50.595545" lon="-3.868324">
    <ele>268</ele>
    <time>2026-07-23T17:25:11Z</time>
    <speed>1.16</speed>
  </trkpt>
  <trkpt lat="50.595579" lon="-3.868090">
    <ele>268</ele>
    <time>2026-07-23T17:25:22Z</time>
    <speed>1.12</speed>
  </trkpt>
  <trkpt lat="50.595639" lon="-3.867912">
    <ele>270</ele>
    <time>2026-07-23T17:25:33Z</time>
    <speed>0.89</speed>
  </trkpt>
  <trkpt lat="50.595711" lon="-3.867734">
    <ele>269</ele>
    <time>2026-07-23T17:25:44Z</time>
    <speed>1.8499999</speed>
  </trkpt>
  <trkpt lat="50.595719" lon="-3.867564">
    <ele>267</ele>
    <time>2026-07-23T17:25:55Z</time>
    <speed>0.66999996</speed>
  </trkpt>
  <trkpt lat="50.595710" lon="-3.867408">
    <ele>267</ele>
    <time>2026-07-23T17:26:08Z</time>
    <speed>0.94</speed>
  </trkpt>
  <trkpt lat="50.595715" lon="-3.867130">
    <ele>268</ele>
    <time>2026-07-23T17:26:19Z</time>
    <speed>1.0699999</speed>
  </trkpt>
  <trkpt lat="50.595724" lon="-3.866908">
    <ele>266</ele>
    <time>2026-07-23T17:26:30Z</time>
    <speed>1.28</speed>
  </trkpt>
  <trkpt lat="50.595708" lon="-3.866714">
    <ele>268</ele>
    <time>2026-07-23T17:26:41Z</time>
    <speed>0.68</speed>
  </trkpt>
  <trkpt lat="50.595676" lon="-3.866495">
    <ele>268</ele>
    <time>2026-07-23T17:26:52Z</time>
    <speed>1.05</speed>
  </trkpt>
  <trkpt lat="50.595636" lon="-3.866320">
    <ele>269</ele>
    <time>2026-07-23T17:27:03Z</time>
    <speed>0.64</speed>
  </trkpt>
  <trkpt lat="50.595651" lon="-3.866177">
    <ele>268</ele>
    <time>2026-07-23T17:27:24Z</time>
    <speed>0.19</speed>
  </trkpt>
  <trkpt lat="50.595646" lon="-3.866030">
    <ele>266</ele>
    <time>2026-07-23T17:27:55Z</time>
    <speed>0.79999995</speed>
  </trkpt>
  <trkpt lat="50.595666" lon="-3.865814">
    <ele>267</ele>
    <time>2026-07-23T17:28:06Z</time>
    <speed>0.89</speed>
  </trkpt>
  <trkpt lat="50.595714" lon="-3.865655">
    <ele>265</ele>
    <time>2026-07-23T17:28:17Z</time>
    <speed>0.74</speed>
  </trkpt>
  <trkpt lat="50.595740" lon="-3.865514">
    <ele>267</ele>
    <time>2026-07-23T17:28:28Z</time>
    <speed>1.18</speed>
  </trkpt>
  <trkpt lat="50.595738" lon="-3.865311">
    <ele>262</ele>
    <time>2026-07-23T17:28:39Z</time>
    <speed>1.3299999</speed>
  </trkpt>
  <trkpt lat="50.595766" lon="-3.865090">
    <ele>270</ele>
    <time>2026-07-23T17:28:50Z</time>
    <speed>1.23</speed>
  </trkpt>
  <trkpt lat="50.595798" lon="-3.864843">
    <ele>269</ele>
    <time>2026-07-23T17:29:01Z</time>
    <speed>0.48999998</speed>
  </trkpt>
  <trkpt lat="50.595850" lon="-3.864614">
    <ele>271</ele>
    <time>2026-07-23T17:29:12Z</time>
    <speed>1.12</speed>
  </trkpt>
  <trkpt lat="50.595880" lon="-3.864417">
    <ele>269</ele>
    <time>2026-07-23T17:29:23Z</time>
    <speed>0.91999996</speed>
  </trkpt>
  <trkpt lat="50.595794" lon="-3.864227">
    <ele>269</ele>
    <time>2026-07-23T17:29:34Z</time>
    <speed>1.28</speed>
  </trkpt>
  <trkpt lat="50.595780" lon="-3.863999">
    <ele>266</ele>
    <time>2026-07-23T17:29:45Z</time>
    <speed>1.35</speed>
  </trkpt>
  <trkpt lat="50.595744" lon="-3.863782">
    <ele>265</ele>
    <time>2026-07-23T17:29:56Z</time>
    <speed>1.26</speed>
  </trkpt>
  <trkpt lat="50.595745" lon="-3.863566">
    <ele>261</ele>
    <time>2026-07-23T17:30:07Z</time>
    <speed>1.29</speed>
  </trkpt>
  <trkpt lat="50.595733" lon="-3.863372">
    <ele>260</ele>
    <time>2026-07-23T17:30:18Z</time>
    <speed>1.28</speed>
  </trkpt>
  <trkpt lat="50.595724" lon="-3.863174">
    <ele>260</ele>
    <time>2026-07-23T17:30:29Z</time>
    <speed>0.65</speed>
  </trkpt>
  <trkpt lat="50.595694" lon="-3.862989">
    <ele>255</ele>
    <time>2026-07-23T17:30:40Z</time>
    <speed>0.82</speed>
  </trkpt>
  <trkpt lat="50.595686" lon="-3.862723">
    <ele>258</ele>
    <time>2026-07-23T17:30:51Z</time>
    <speed>1.3299999</speed>
  </trkpt>
  <trkpt lat="50.595717" lon="-3.862500">
    <ele>260</ele>
    <time>2026-07-23T17:31:02Z</time>
    <speed>1.02</speed>
  </trkpt>
  <trkpt lat="50.595775" lon="-3.862281">
    <ele>255</ele>
    <time>2026-07-23T17:31:13Z</time>
    <speed>1.12</speed>
  </trkpt>
  <trkpt lat="50.595838" lon="-3.862084">
    <ele>250</ele>
    <time>2026-07-23T17:31:24Z</time>
    <speed>1.02</speed>
  </trkpt>
  <trkpt lat="50.595885" lon="-3.861937">
    <ele>252</ele>
    <time>2026-07-23T17:31:35Z</time>
    <speed>1.0699999</speed>
  </trkpt>
  <trkpt lat="50.595945" lon="-3.861779">
    <ele>248</ele>
    <time>2026-07-23T17:31:46Z</time>
    <speed>0.78</speed>
  </trkpt>
  <trkpt lat="50.596007" lon="-3.861601">
    <ele>249</ele>
    <time>2026-07-23T17:31:57Z</time>
    <speed>0.90999997</speed>
  </trkpt>
  <trkpt lat="50.596048" lon="-3.861469">
    <ele>248</ele>
    <time>2026-07-23T17:32:09Z</time>
    <speed>1.4599999</speed>
  </trkpt>
  <trkpt lat="50.596132" lon="-3.861281">
    <ele>245</ele>
    <time>2026-07-23T17:32:20Z</time>
    <speed>1.17</speed>
  </trkpt>
  <trkpt lat="50.596185" lon="-3.861097">
    <ele>246</ele>
    <time>2026-07-23T17:32:31Z</time>
    <speed>0.59</speed>
  </trkpt>
  <trkpt lat="50.596261" lon="-3.861010">
    <ele>240</ele>
    <time>2026-07-23T17:32:47Z</time>
    <speed>1.15</speed>
  </trkpt>
  <trkpt lat="50.596331" lon="-3.860898">
    <ele>244</ele>
    <time>2026-07-23T17:33:00Z</time>
    <speed>1.05</speed>
  </trkpt>
  <trkpt lat="50.596365" lon="-3.860760">
    <ele>240</ele>
    <time>2026-07-23T17:33:11Z</time>
    <speed>0.5</speed>
  </trkpt>
  <trkpt lat="50.596390" lon="-3.860623">
    <ele>244</ele>
    <time>2026-07-23T17:33:57Z</time>
    <speed>0.65</speed>
  </trkpt>
  <trkpt lat="50.596388" lon="-3.860479">
    <ele>238</ele>
    <time>2026-07-23T17:34:08Z</time>
    <speed>1.13</speed>
  </trkpt>
  <trkpt lat="50.596417" lon="-3.860268">
    <ele>241</ele>
    <time>2026-07-23T17:34:19Z</time>
    <speed>0.63</speed>
  </trkpt>
  <trkpt lat="50.596441" lon="-3.860128">
    <ele>233</ele>
    <time>2026-07-23T17:34:30Z</time>
    <speed>1.03</speed>
  </trkpt>
  <trkpt lat="50.596494" lon="-3.859984">
    <ele>239</ele>
    <time>2026-07-23T17:34:41Z</time>
    <speed>0.96</speed>
  </trkpt>
  <trkpt lat="50.596586" lon="-3.859826">
    <ele>235</ele>
    <time>2026-07-23T17:34:52Z</time>
    <speed>1.28</speed>
  </trkpt>
  <trkpt lat="50.596707" lon="-3.859745">
    <ele>243</ele>
    <time>2026-07-23T17:35:03Z</time>
    <speed>0.75</speed>
  </trkpt>
  <trkpt lat="50.596819" lon="-3.859690">
    <ele>244</ele>
    <time>2026-07-23T17:35:14Z</time>
    <speed>1.28</speed>
  </trkpt>
  <trkpt lat="50.596914" lon="-3.859644">
    <ele>243</ele>
    <time>2026-07-23T17:35:25Z</time>
    <speed>1.56</speed>
  </trkpt>
  <trkpt lat="50.597023" lon="-3.859623">
    <ele>244</ele>
    <time>2026-07-23T17:35:36Z</time>
    <speed>0.85999995</speed>
  </trkpt>
  <trkpt lat="50.597140" lon="-3.859604">
    <ele>250</ele>
    <time>2026-07-23T17:35:47Z</time>
    <speed>0.97999996</speed>
  </trkpt>
  <trkpt lat="50.597274" lon="-3.859568">
    <ele>249</ele>
    <time>2026-07-23T17:35:58Z</time>
    <speed>0.81</speed>
  </trkpt>
  <trkpt lat="50.597389" lon="-3.859529">
    <ele>250</ele>
    <time>2026-07-23T17:36:09Z</time>
    <speed>1.4</speed>
  </trkpt>
  <trkpt lat="50.597520" lon="-3.859506">
    <ele>243</ele>
    <time>2026-07-23T17:36:20Z</time>
    <speed>1.4</speed>
  </trkpt>
  <trkpt lat="50.597653" lon="-3.859474">
    <ele>252</ele>
    <time>2026-07-23T17:36:31Z</time>
    <speed>1.3</speed>
  </trkpt>
  <trkpt lat="50.597784" lon="-3.859447">
    <ele>247</ele>
    <time>2026-07-23T17:36:42Z</time>
    <speed>1.9799999</speed>
  </trkpt>
  <trkpt lat="50.597918" lon="-3.859413">
    <ele>255</ele>
    <time>2026-07-23T17:36:53Z</time>
    <speed>1.06</speed>
  </trkpt>
  <trkpt lat="50.598042" lon="-3.859374">
    <ele>248</ele>
    <time>2026-07-23T17:37:04Z</time>
    <speed>1.49</speed>
  </trkpt>
  <trkpt lat="50.598159" lon="-3.859341">
    <ele>256</ele>
    <time>2026-07-23T17:37:15Z</time>
    <speed>1.12</speed>
  </trkpt>
  <trkpt lat="50.598287" lon="-3.859304">
    <ele>256</ele>
    <time>2026-07-23T17:37:26Z</time>
    <speed>1.48</speed>
  </trkpt>
  <trkpt lat="50.598415" lon="-3.859267">
    <ele>251</ele>
    <time>2026-07-23T17:37:37Z</time>
    <speed>1.5799999</speed>
  </trkpt>
  <trkpt lat="50.598560" lon="-3.859207">
    <ele>258</ele>
    <time>2026-07-23T17:37:48Z</time>
    <speed>1.4499999</speed>
  </trkpt>
  <trkpt lat="50.598689" lon="-3.859154">
    <ele>260</ele>
    <time>2026-07-23T17:37:59Z</time>
    <speed>1.49</speed>
  </trkpt>
  <trkpt lat="50.598808" lon="-3.859114">
    <ele>261</ele>
    <time>2026-07-23T17:38:10Z</time>
    <speed>1.17</speed>
  </trkpt>
  <trkpt lat="50.598939" lon="-3.859093">
    <ele>251</ele>
    <time>2026-07-23T17:38:21Z</time>
    <speed>1.48</speed>
  </trkpt>
  <trkpt lat="50.599074" lon="-3.859036">
    <ele>259</ele>
    <time>2026-07-23T17:38:32Z</time>
    <speed>1.55</speed>
  </trkpt>
  <trkpt lat="50.599186" lon="-3.858961">
    <ele>259</ele>
    <time>2026-07-23T17:38:43Z</time>
    <speed>1.05</speed>
  </trkpt>
  <trkpt lat="50.599313" lon="-3.858820">
    <ele>258</ele>
    <time>2026-07-23T17:38:54Z</time>
    <speed>1.75</speed>
  </trkpt>
  <trkpt lat="50.599392" lon="-3.858664">
    <ele>256</ele>
    <time>2026-07-23T17:39:05Z</time>
    <speed>1.35</speed>
  </trkpt>
  <trkpt lat="50.599427" lon="-3.858493">
    <ele>256</ele>
    <time>2026-07-23T17:39:16Z</time>
    <speed>0.56</speed>
  </trkpt>
  <trkpt lat="50.599439" lon="-3.858350">
    <ele>256</ele>
    <time>2026-07-23T17:39:29Z</time>
    <speed>1.27</speed>
  </trkpt>
  <trkpt lat="50.599406" lon="-3.858167">
    <ele>252</ele>
    <time>2026-07-23T17:39:40Z</time>
    <speed>1.09</speed>
  </trkpt>
  <trkpt lat="50.599354" lon="-3.857978">
    <ele>247</ele>
    <time>2026-07-23T17:39:51Z</time>
    <speed>1.5899999</speed>
  </trkpt>
  <trkpt lat="50.599307" lon="-3.857778">
    <ele>250</ele>
    <time>2026-07-23T17:40:02Z</time>
    <speed>1.24</speed>
  </trkpt>
  <trkpt lat="50.599260" lon="-3.857571">
    <ele>250</ele>
    <time>2026-07-23T17:40:13Z</time>
    <speed>1.0799999</speed>
  </trkpt>
  <trkpt lat="50.599195" lon="-3.857371">
    <ele>251</ele>
    <time>2026-07-23T17:40:24Z</time>
    <speed>1.35</speed>
  </trkpt>
  <trkpt lat="50.599134" lon="-3.857178">
    <ele>247</ele>
    <time>2026-07-23T17:40:35Z</time>
    <speed>1.37</speed>
  </trkpt>
  <trkpt lat="50.599052" lon="-3.857020">
    <ele>249</ele>
    <time>2026-07-23T17:40:46Z</time>
    <speed>1.3</speed>
  </trkpt>
  <trkpt lat="50.598971" lon="-3.856872">
    <ele>249</ele>
    <time>2026-07-23T17:40:57Z</time>
    <speed>1.1</speed>
  </trkpt>
  <trkpt lat="50.598900" lon="-3.856718">
    <ele>248</ele>
    <time>2026-07-23T17:41:08Z</time>
    <speed>0.93</speed>
  </trkpt>
  <trkpt lat="50.598833" lon="-3.856590">
    <ele>246</ele>
    <time>2026-07-23T17:41:19Z</time>
    <speed>0.74</speed>
  </trkpt>
  <trkpt lat="50.598783" lon="-3.856436">
    <ele>241</ele>
    <time>2026-07-23T17:41:30Z</time>
    <speed>1.1999999</speed>
  </trkpt>
  <trkpt lat="50.598708" lon="-3.856306">
    <ele>243</ele>
    <time>2026-07-23T17:41:41Z</time>
    <speed>1.62</speed>
  </trkpt>
  <trkpt lat="50.598621" lon="-3.856176">
    <ele>242</ele>
    <time>2026-07-23T17:41:52Z</time>
    <speed>1.3199999</speed>
  </trkpt>
  <trkpt lat="50.598509" lon="-3.856028">
    <ele>243</ele>
    <time>2026-07-23T17:42:03Z</time>
    <speed>0.97999996</speed>
  </trkpt>
  <trkpt lat="50.598410" lon="-3.855925">
    <ele>239</ele>
    <time>2026-07-23T17:42:14Z</time>
    <speed>0.91999996</speed>
  </trkpt>
  <trkpt lat="50.598290" lon="-3.855817">
    <ele>233</ele>
    <time>2026-07-23T17:42:25Z</time>
    <speed>0.93</speed>
  </trkpt>
  <trkpt lat="50.598201" lon="-3.855702">
    <ele>238</ele>
    <time>2026-07-23T17:42:36Z</time>
    <speed>1.42</speed>
  </trkpt>
  <trkpt lat="50.598152" lon="-3.855476">
    <ele>240</ele>
    <time>2026-07-23T17:42:47Z</time>
    <speed>1.6899999</speed>
  </trkpt>
  <trkpt lat="50.598087" lon="-3.855286">
    <ele>238</ele>
    <time>2026-07-23T17:42:58Z</time>
    <speed>1.53</speed>
  </trkpt>
  <trkpt lat="50.597967" lon="-3.855179">
    <ele>238</ele>
    <time>2026-07-23T17:43:09Z</time>
    <speed>1.5</speed>
  </trkpt>
  <trkpt lat="50.597874" lon="-3.855023">
    <ele>236</ele>
    <time>2026-07-23T17:43:20Z</time>
    <speed>1.4</speed>
  </trkpt>
  <trkpt lat="50.597857" lon="-3.854802">
    <ele>237</ele>
    <time>2026-07-23T17:43:31Z</time>
    <speed>1.3199999</speed>
  </trkpt>
  <trkpt lat="50.597792" lon="-3.854675">
    <ele>232</ele>
    <time>2026-07-23T17:43:42Z</time>
    <speed>1.25</speed>
  </trkpt>
  <trkpt lat="50.597741" lon="-3.854542">
    <ele>240</ele>
    <time>2026-07-23T17:43:53Z</time>
    <speed>0.9</speed>
  </trkpt>
  <trkpt lat="50.597730" lon="-3.854399">
    <ele>239</ele>
    <time>2026-07-23T17:44:04Z</time>
    <speed>0.34</speed>
  </trkpt>
  <trkpt lat="50.597663" lon="-3.854303">
    <ele>238</ele>
    <time>2026-07-23T17:45:48Z</time>
    <speed>0.07</speed>
  </trkpt>
  <trkpt lat="50.597631" lon="-3.854167">
    <ele>235</ele>
    <time>2026-07-23T17:47:16Z</time>
    <speed>0.94</speed>
  </trkpt>
  <trkpt lat="50.597603" lon="-3.854028">
    <ele>242</ele>
    <time>2026-07-23T17:47:28Z</time>
    <speed>0.72999996</speed>
  </trkpt>
  <trkpt lat="50.597594" lon="-3.853884">
    <ele>243</ele>
    <time>2026-07-23T17:47:39Z</time>
    <speed>0.74</speed>
  </trkpt>
  <trkpt lat="50.597566" lon="-3.853735">
    <ele>238</ele>
    <time>2026-07-23T17:47:50Z</time>
    <speed>1.3299999</speed>
  </trkpt>
  <trkpt lat="50.597534" lon="-3.853555">
    <ele>244</ele>
    <time>2026-07-23T17:48:01Z</time>
    <speed>1.35</speed>
  </trkpt>
  <trkpt lat="50.597521" lon="-3.853383">
    <ele>245</ele>
    <time>2026-07-23T17:48:12Z</time>
    <speed>0.58</speed>
  </trkpt>
  <trkpt lat="50.597515" lon="-3.853195">
    <ele>241</ele>
    <time>2026-07-23T17:48:23Z</time>
    <speed>1.11</speed>
  </trkpt>
  <trkpt lat="50.597526" lon="-3.853011">
    <ele>249</ele>
    <time>2026-07-23T17:48:34Z</time>
    <speed>1.02</speed>
  </trkpt>
  <trkpt lat="50.597514" lon="-3.852831">
    <ele>247</ele>
    <time>2026-07-23T17:48:45Z</time>
    <speed>0.91999996</speed>
  </trkpt>
  <trkpt lat="50.597522" lon="-3.852640">
    <ele>240</ele>
    <time>2026-07-23T17:48:56Z</time>
    <speed>0.97999996</speed>
  </trkpt>
  <trkpt lat="50.597558" lon="-3.852469">
    <ele>253</ele>
    <time>2026-07-23T17:49:07Z</time>
    <speed>1.35</speed>
  </trkpt>
  <trkpt lat="50.597568" lon="-3.852286">
    <ele>254</ele>
    <time>2026-07-23T17:49:18Z</time>
    <speed>1.24</speed>
  </trkpt>
  <trkpt lat="50.597581" lon="-3.852115">
    <ele>251</ele>
    <time>2026-07-23T17:49:29Z</time>
    <speed>1.09</speed>
  </trkpt>
  <trkpt lat="50.597599" lon="-3.851929">
    <ele>253</ele>
    <time>2026-07-23T17:49:40Z</time>
    <speed>1.43</speed>
  </trkpt>
  <trkpt lat="50.597633" lon="-3.851746">
    <ele>254</ele>
    <time>2026-07-23T17:49:51Z</time>
    <speed>1.49</speed>
  </trkpt>
  <trkpt lat="50.597661" lon="-3.851562">
    <ele>255</ele>
    <time>2026-07-23T17:50:02Z</time>
    <speed>1.15</speed>
  </trkpt>
  <trkpt lat="50.597663" lon="-3.851373">
    <ele>256</ele>
    <time>2026-07-23T17:50:13Z</time>
    <speed>1.25</speed>
  </trkpt>
  <trkpt lat="50.597707" lon="-3.851201">
    <ele>260</ele>
    <time>2026-07-23T17:50:24Z</time>
    <speed>1.36</speed>
  </trkpt>
  <trkpt lat="50.597784" lon="-3.851014">
    <ele>259</ele>
    <time>2026-07-23T17:50:35Z</time>
    <speed>1.4699999</speed>
  </trkpt>
  <trkpt lat="50.597860" lon="-3.850871">
    <ele>259</ele>
    <time>2026-07-23T17:50:46Z</time>
    <speed>1.0799999</speed>
  </trkpt>
  <trkpt lat="50.597930" lon="-3.850750">
    <ele>262</ele>
    <time>2026-07-23T17:50:57Z</time>
    <speed>1.0</speed>
  </trkpt>
  <trkpt lat="50.598003" lon="-3.850609">
    <ele>262</ele>
    <time>2026-07-23T17:51:08Z</time>
    <speed>1.16</speed>
  </trkpt>
  <trkpt lat="50.598064" lon="-3.850477">
    <ele>262</ele>
    <time>2026-07-23T17:51:19Z</time>
    <speed>1.02</speed>
  </trkpt>
  <trkpt lat="50.598125" lon="-3.850333">
    <ele>262</ele>
    <time>2026-07-23T17:51:30Z</time>
    <speed>1.17</speed>
  </trkpt>
  <trkpt lat="50.598189" lon="-3.850163">
    <ele>266</ele>
    <time>2026-07-23T17:51:41Z</time>
    <speed>1.05</speed>
  </trkpt>
  <trkpt lat="50.598253" lon="-3.850004">
    <ele>267</ele>
    <time>2026-07-23T17:51:52Z</time>
    <speed>1.43</speed>
  </trkpt>
  <trkpt lat="50.598290" lon="-3.849832">
    <ele>264</ele>
    <time>2026-07-23T17:52:03Z</time>
    <speed>0.87</speed>
  </trkpt>
  <trkpt lat="50.598352" lon="-3.849668">
    <ele>265</ele>
    <time>2026-07-23T17:52:14Z</time>
    <speed>1.2099999</speed>
  </trkpt>
  <trkpt lat="50.598410" lon="-3.849485">
    <ele>264</ele>
    <time>2026-07-23T17:52:25Z</time>
    <speed>1.39</speed>
  </trkpt>
  <trkpt lat="50.598509" lon="-3.849351">
    <ele>262</ele>
    <time>2026-07-23T17:52:36Z</time>
    <speed>1.51</speed>
  </trkpt>
  <trkpt lat="50.598636" lon="-3.849275">
    <ele>254</ele>
    <time>2026-07-23T17:52:47Z</time>
    <speed>1.11</speed>
  </trkpt>
  <trkpt lat="50.598747" lon="-3.849265">
    <ele>262</ele>
    <time>2026-07-23T17:52:58Z</time>
    <speed>1.03</speed>
  </trkpt>
  <trkpt lat="50.598828" lon="-3.849186">
    <ele>261</ele>
    <time>2026-07-23T17:53:09Z</time>
    <speed>0.82</speed>
  </trkpt>
  <trkpt lat="50.598927" lon="-3.849113">
    <ele>254</ele>
    <time>2026-07-23T17:53:20Z</time>
    <speed>1.01</speed>
  </trkpt>
  <trkpt lat="50.599044" lon="-3.849019">
    <ele>259</ele>
    <time>2026-07-23T17:53:31Z</time>
    <speed>1.4</speed>
  </trkpt>
  <trkpt lat="50.599108" lon="-3.848914">
    <ele>255</ele>
    <time>2026-07-23T17:53:42Z</time>
    <speed>0.98999995</speed>
  </trkpt>
  <trkpt lat="50.599226" lon="-3.848814">
    <ele>258</ele>
    <time>2026-07-23T17:53:53Z</time>
    <speed>1.52</speed>
  </trkpt>
  <trkpt lat="50.599326" lon="-3.848680">
    <ele>259</ele>
    <time>2026-07-23T17:54:04Z</time>
    <speed>1.4499999</speed>
  </trkpt>
  <trkpt lat="50.599441" lon="-3.848569">
    <ele>253</ele>
    <time>2026-07-23T17:54:15Z</time>
    <speed>1.5</speed>
  </trkpt>
  <trkpt lat="50.599535" lon="-3.848428">
    <ele>258</ele>
    <time>2026-07-23T17:54:26Z</time>
    <speed>1.1899999</speed>
  </trkpt>
  <trkpt lat="50.599660" lon="-3.848317">
    <ele>257</ele>
    <time>2026-07-23T17:54:37Z</time>
    <speed>1.4699999</speed>
  </trkpt>
  <trkpt lat="50.599768" lon="-3.848215">
    <ele>257</ele>
    <time>2026-07-23T17:54:48Z</time>
    <speed>1.0</speed>
  </trkpt>
  <trkpt lat="50.599856" lon="-3.848121">
    <ele>254</ele>
    <time>2026-07-23T17:54:59Z</time>
    <speed>0.81</speed>
  </trkpt>
  <trkpt lat="50.599931" lon="-3.848024">
    <ele>256</ele>
    <time>2026-07-23T17:55:11Z</time>
    <speed>1.3299999</speed>
  </trkpt>
  <trkpt lat="50.600019" lon="-3.847900">
    <ele>255</ele>
    <time>2026-07-23T17:55:22Z</time>
    <speed>1.22</speed>
  </trkpt>
  <trkpt lat="50.600087" lon="-3.847753">
    <ele>253</ele>
    <time>2026-07-23T17:55:33Z</time>
    <speed>0.83</speed>
  </trkpt>
  <trkpt lat="50.600216" lon="-3.847696">
    <ele>251</ele>
    <time>2026-07-23T17:55:44Z</time>
    <speed>1.3</speed>
  </trkpt>
  <trkpt lat="50.600357" lon="-3.847652">
    <ele>254</ele>
    <time>2026-07-23T17:55:55Z</time>
    <speed>1.43</speed>
  </trkpt>
  <trkpt lat="50.600449" lon="-3.847608">
    <ele>255</ele>
    <time>2026-07-23T17:56:08Z</time>
    <speed>0.9</speed>
  </trkpt>
  <trkpt lat="50.600556" lon="-3.847596">
    <ele>256</ele>
    <time>2026-07-23T17:56:19Z</time>
    <speed>1.24</speed>
  </trkpt>
  <trkpt lat="50.600460" lon="-3.847621">
    <ele>258</ele>
    <time>2026-07-23T17:56:56Z</time>
    <speed>0.77</speed>
  </trkpt>
  <trkpt lat="50.600547" lon="-3.847662">
    <ele>253</ele>
    <time>2026-07-23T17:57:41Z</time>
    <speed>0.07</speed>
  </trkpt>
  <trkpt lat="50.600632" lon="-3.847607">
    <ele>250</ele>
    <time>2026-07-23T17:57:58Z</time>
    <speed>0.11</speed>
  </trkpt>
  <trkpt lat="50.600686" lon="-3.847488">
    <ele>253</ele>
    <time>2026-07-23T17:59:44Z</time>
    <speed>1.18</speed>
  </trkpt>
  <trkpt lat="50.600814" lon="-3.847430">
    <ele>254</ele>
    <time>2026-07-23T17:59:55Z</time>
    <speed>1.38</speed>
  </trkpt>
  <trkpt lat="50.600929" lon="-3.847373">
    <ele>255</ele>
    <time>2026-07-23T18:00:06Z</time>
    <speed>1.65</speed>
  </trkpt>
  <trkpt lat="50.601031" lon="-3.847304">
    <ele>257</ele>
    <time>2026-07-23T18:00:17Z</time>
    <speed>1.24</speed>
  </trkpt>
  <trkpt lat="50.601172" lon="-3.847235">
    <ele>254</ele>
    <time>2026-07-23T18:00:28Z</time>
    <speed>1.38</speed>
  </trkpt>
  <trkpt lat="50.601282" lon="-3.847150">
    <ele>253</ele>
    <time>2026-07-23T18:00:39Z</time>
    <speed>1.29</speed>
  </trkpt>
  <trkpt lat="50.601377" lon="-3.847112">
    <ele>256</ele>
    <time>2026-07-23T18:00:50Z</time>
    <speed>1.3199999</speed>
  </trkpt>
  <trkpt lat="50.601489" lon="-3.847068">
    <ele>251</ele>
    <time>2026-07-23T18:01:01Z</time>
    <speed>1.41</speed>
  </trkpt>
  <trkpt lat="50.601583" lon="-3.847045">
    <ele>260</ele>
    <time>2026-07-23T18:01:12Z</time>
    <speed>0.71</speed>
  </trkpt>
  <trkpt lat="50.601734" lon="-3.847026">
    <ele>256</ele>
    <time>2026-07-23T18:01:23Z</time>
    <speed>0.94</speed>
  </trkpt>
  <trkpt lat="50.601848" lon="-3.846994">
    <ele>259</ele>
    <time>2026-07-23T18:01:34Z</time>
    <speed>1.51</speed>
  </trkpt>
  <trkpt lat="50.601970" lon="-3.846945">
    <ele>257</ele>
    <time>2026-07-23T18:01:45Z</time>
    <speed>0.48</speed>
  </trkpt>
  <trkpt lat="50.602084" lon="-3.846980">
    <ele>259</ele>
    <time>2026-07-23T18:01:56Z</time>
    <speed>1.13</speed>
  </trkpt>
  <trkpt lat="50.602176" lon="-3.846961">
    <ele>262</ele>
    <time>2026-07-23T18:02:07Z</time>
    <speed>1.56</speed>
  </trkpt>
  <trkpt lat="50.602275" lon="-3.846935">
    <ele>260</ele>
    <time>2026-07-23T18:02:18Z</time>
    <speed>1.11</speed>
  </trkpt>
  <trkpt lat="50.602367" lon="-3.846892">
    <ele>258</ele>
    <time>2026-07-23T18:02:29Z</time>
    <speed>1.1899999</speed>
  </trkpt>
  <trkpt lat="50.602495" lon="-3.846853">
    <ele>260</ele>
    <time>2026-07-23T18:02:40Z</time>
    <speed>1.51</speed>
  </trkpt>
  <trkpt lat="50.602611" lon="-3.846749">
    <ele>260</ele>
    <time>2026-07-23T18:02:51Z</time>
    <speed>1.4699999</speed>
  </trkpt>
  <trkpt lat="50.602750" lon="-3.846686">
    <ele>261</ele>
    <time>2026-07-23T18:03:02Z</time>
    <speed>1.55</speed>
  </trkpt>
  <trkpt lat="50.602872" lon="-3.846615">
    <ele>261</ele>
    <time>2026-07-23T18:03:13Z</time>
    <speed>1.14</speed>
  </trkpt>
  <trkpt lat="50.602997" lon="-3.846553">
    <ele>265</ele>
    <time>2026-07-23T18:03:24Z</time>
    <speed>1.36</speed>
  </trkpt>
  <trkpt lat="50.603109" lon="-3.846480">
    <ele>265</ele>
    <time>2026-07-23T18:03:35Z</time>
    <speed>1.29</speed>
  </trkpt>
  <trkpt lat="50.603247" lon="-3.846376">
    <ele>259</ele>
    <time>2026-07-23T18:03:46Z</time>
    <speed>1.41</speed>
  </trkpt>
  <trkpt lat="50.603367" lon="-3.846284">
    <ele>255</ele>
    <time>2026-07-23T18:03:57Z</time>
    <speed>1.04</speed>
  </trkpt>
  <trkpt lat="50.603453" lon="-3.846234">
    <ele>266</ele>
    <time>2026-07-23T18:04:16Z</time>
    <speed>1.37</speed>
  </trkpt>
  <trkpt lat="50.603591" lon="-3.846201">
    <ele>265</ele>
    <time>2026-07-23T18:04:27Z</time>
    <speed>1.3199999</speed>
  </trkpt>
  <trkpt lat="50.603733" lon="-3.846160">
    <ele>253</ele>
    <time>2026-07-23T18:04:38Z</time>
    <speed>1.49</speed>
  </trkpt>
  <trkpt lat="50.603858" lon="-3.846142">
    <ele>266</ele>
    <time>2026-07-23T18:04:49Z</time>
    <speed>1.31</speed>
  </trkpt>
  <trkpt lat="50.603989" lon="-3.846140">
    <ele>258</ele>
    <time>2026-07-23T18:05:00Z</time>
    <speed>1.43</speed>
  </trkpt>
  <trkpt lat="50.604113" lon="-3.846176">
    <ele>266</ele>
    <time>2026-07-23T18:05:11Z</time>
    <speed>1.2099999</speed>
  </trkpt>
  <trkpt lat="50.604249" lon="-3.846209">
    <ele>266</ele>
    <time>2026-07-23T18:05:22Z</time>
    <speed>1.54</speed>
  </trkpt>
  <trkpt lat="50.604381" lon="-3.846228">
    <ele>271</ele>
    <time>2026-07-23T18:05:33Z</time>
    <speed>1.16</speed>
  </trkpt>
  <trkpt lat="50.604506" lon="-3.846282">
    <ele>271</ele>
    <time>2026-07-23T18:05:44Z</time>
    <speed>1.27</speed>
  </trkpt>
  <trkpt lat="50.604646" lon="-3.846329">
    <ele>272</ele>
    <time>2026-07-23T18:05:55Z</time>
    <speed>1.1899999</speed>
  </trkpt>
  <trkpt lat="50.604764" lon="-3.846397">
    <ele>271</ele>
    <time>2026-07-23T18:06:06Z</time>
    <speed>1.22</speed>
  </trkpt>
  <trkpt lat="50.604904" lon="-3.846445">
    <ele>273</ele>
    <time>2026-07-23T18:06:17Z</time>
    <speed>1.17</speed>
  </trkpt>
  <trkpt lat="50.605047" lon="-3.846491">
    <ele>275</ele>
    <time>2026-07-23T18:06:28Z</time>
    <speed>1.43</speed>
  </trkpt>
  <trkpt lat="50.605187" lon="-3.846537">
    <ele>273</ele>
    <time>2026-07-23T18:06:39Z</time>
    <speed>1.31</speed>
  </trkpt>
  <trkpt lat="50.605331" lon="-3.846572">
    <ele>275</ele>
    <time>2026-07-23T18:06:50Z</time>
    <speed>1.62</speed>
  </trkpt>
  <trkpt lat="50.605472" lon="-3.846559">
    <ele>268</ele>
    <time>2026-07-23T18:07:01Z</time>
    <speed>1.2099999</speed>
  </trkpt>
  <trkpt lat="50.605609" lon="-3.846598">
    <ele>271</ele>
    <time>2026-07-23T18:07:12Z</time>
    <speed>1.42</speed>
  </trkpt>
  <trkpt lat="50.605748" lon="-3.846648">
    <ele>265</ele>
    <time>2026-07-23T18:07:23Z</time>
    <speed>1.03</speed>
  </trkpt>
  <trkpt lat="50.605897" lon="-3.846693">
    <ele>279</ele>
    <time>2026-07-23T18:07:34Z</time>
    <speed>1.4599999</speed>
  </trkpt>
  <trkpt lat="50.606027" lon="-3.846741">
    <ele>277</ele>
    <time>2026-07-23T18:07:45Z</time>
    <speed>1.25</speed>
  </trkpt>
  <trkpt lat="50.606095" lon="-3.846835">
    <ele>275</ele>
    <time>2026-07-23T18:08:08Z</time>
    <speed>0.32999998</speed>
  </trkpt>
  <trkpt lat="50.606185" lon="-3.846879">
    <ele>274</ele>
    <time>2026-07-23T18:09:28Z</time>
    <speed>1.1</speed>
  </trkpt>
  <trkpt lat="50.606290" lon="-3.846884">
    <ele>271</ele>
    <time>2026-07-23T18:09:39Z</time>
    <speed>1.1</speed>
  </trkpt>
  <trkpt lat="50.606378" lon="-3.846922">
    <ele>277</ele>
    <time>2026-07-23T18:09:50Z</time>
    <speed>1.14</speed>
  </trkpt>
  <trkpt lat="50.606477" lon="-3.846956">
    <ele>275</ele>
    <time>2026-07-23T18:10:01Z</time>
    <speed>1.16</speed>
  </trkpt>
  <trkpt lat="50.606601" lon="-3.847012">
    <ele>277</ele>
    <time>2026-07-23T18:10:12Z</time>
    <speed>1.3399999</speed>
  </trkpt>
  <trkpt lat="50.606697" lon="-3.847064">
    <ele>277</ele>
    <time>2026-07-23T18:10:23Z</time>
    <speed>0.84999996</speed>
  </trkpt>
  <trkpt lat="50.606828" lon="-3.847127">
    <ele>277</ele>
    <time>2026-07-23T18:10:34Z</time>
    <speed>1.43</speed>
  </trkpt>
  <trkpt lat="50.606958" lon="-3.847152">
    <ele>278</ele>
    <time>2026-07-23T18:10:45Z</time>
    <speed>1.4399999</speed>
  </trkpt>
  <trkpt lat="50.607097" lon="-3.847180">
    <ele>278</ele>
    <time>2026-07-23T18:10:56Z</time>
    <speed>1.62</speed>
  </trkpt>
  <trkpt lat="50.607231" lon="-3.847184">
    <ele>276</ele>
    <time>2026-07-23T18:11:07Z</time>
    <speed>1.56</speed>
  </trkpt>
  <trkpt lat="50.607379" lon="-3.847168">
    <ele>280</ele>
    <time>2026-07-23T18:11:18Z</time>
    <speed>1.56</speed>
  </trkpt>
  <trkpt lat="50.607524" lon="-3.847153">
    <ele>282</ele>
    <time>2026-07-23T18:11:29Z</time>
    <speed>1.31</speed>
  </trkpt>
  <trkpt lat="50.607663" lon="-3.847178">
    <ele>280</ele>
    <time>2026-07-23T18:11:40Z</time>
    <speed>1.53</speed>
  </trkpt>
  <trkpt lat="50.607805" lon="-3.847183">
    <ele>275</ele>
    <time>2026-07-23T18:11:51Z</time>
    <speed>1.9</speed>
  </trkpt>
  <trkpt lat="50.607954" lon="-3.847200">
    <ele>284</ele>
    <time>2026-07-23T18:12:02Z</time>
    <speed>1.55</speed>
  </trkpt>
  <trkpt lat="50.608107" lon="-3.847195">
    <ele>282</ele>
    <time>2026-07-23T18:12:13Z</time>
    <speed>1.48</speed>
  </trkpt>
  <trkpt lat="50.608249" lon="-3.847157">
    <ele>283</ele>
    <time>2026-07-23T18:12:24Z</time>
    <speed>1.39</speed>
  </trkpt>
  <trkpt lat="50.608416" lon="-3.847148">
    <ele>282</ele>
    <time>2026-07-23T18:12:35Z</time>
    <speed>1.68</speed>
  </trkpt>
  <trkpt lat="50.608561" lon="-3.847154">
    <ele>283</ele>
    <time>2026-07-23T18:12:46Z</time>
    <speed>1.5999999</speed>
  </trkpt>
  <trkpt lat="50.608718" lon="-3.847157">
    <ele>284</ele>
    <time>2026-07-23T18:12:57Z</time>
    <speed>1.65</speed>
  </trkpt>
  <trkpt lat="50.608863" lon="-3.847209">
    <ele>285</ele>
    <time>2026-07-23T18:13:08Z</time>
    <speed>1.22</speed>
  </trkpt>
  <trkpt lat="50.608990" lon="-3.847248">
    <ele>283</ele>
    <time>2026-07-23T18:13:19Z</time>
    <speed>1.4399999</speed>
  </trkpt>
  <trkpt lat="50.609158" lon="-3.847279">
    <ele>278</ele>
    <time>2026-07-23T18:13:30Z</time>
    <speed>1.28</speed>
  </trkpt>
  <trkpt lat="50.609310" lon="-3.847299">
    <ele>287</ele>
    <time>2026-07-23T18:13:41Z</time>
    <speed>1.37</speed>
  </trkpt>
  <trkpt lat="50.609454" lon="-3.847349">
    <ele>285</ele>
    <time>2026-07-23T18:13:52Z</time>
    <speed>1.41</speed>
  </trkpt>
  <trkpt lat="50.609562" lon="-3.847374">
    <ele>284</ele>
    <time>2026-07-23T18:14:03Z</time>
    <speed>0.19999999</speed>
  </trkpt>
  <trkpt lat="50.609652" lon="-3.847432">
    <ele>288</ele>
    <time>2026-07-23T18:14:17Z</time>
    <speed>1.25</speed>
  </trkpt>
  <trkpt lat="50.609777" lon="-3.847436">
    <ele>286</ele>
    <time>2026-07-23T18:14:28Z</time>
    <speed>1.23</speed>
  </trkpt>
  <trkpt lat="50.609911" lon="-3.847466">
    <ele>285</ele>
    <time>2026-07-23T18:14:39Z</time>
    <speed>1.41</speed>
  </trkpt>
  <trkpt lat="50.610043" lon="-3.847520">
    <ele>288</ele>
    <time>2026-07-23T18:14:50Z</time>
    <speed>1.31</speed>
  </trkpt>
  <trkpt lat="50.610137" lon="-3.847505">
    <ele>288</ele>
    <time>2026-07-23T18:15:01Z</time>
    <speed>1.52</speed>
  </trkpt>
  <trkpt lat="50.610276" lon="-3.847510">
    <ele>288</ele>
    <time>2026-07-23T18:15:12Z</time>
    <speed>1.37</speed>
  </trkpt>
  <trkpt lat="50.610424" lon="-3.847523">
    <ele>289</ele>
    <time>2026-07-23T18:15:23Z</time>
    <speed>1.28</speed>
  </trkpt>
  <trkpt lat="50.610555" lon="-3.847556">
    <ele>288</ele>
    <time>2026-07-23T18:15:34Z</time>
    <speed>1.23</speed>
  </trkpt>
  <trkpt lat="50.610684" lon="-3.847570">
    <ele>286</ele>
    <time>2026-07-23T18:15:45Z</time>
    <speed>1.53</speed>
  </trkpt>
  <trkpt lat="50.610835" lon="-3.847574">
    <ele>286</ele>
    <time>2026-07-23T18:15:56Z</time>
    <speed>1.23</speed>
  </trkpt>
  <trkpt lat="50.610962" lon="-3.847593">
    <ele>283</ele>
    <time>2026-07-23T18:16:07Z</time>
    <speed>0.82</speed>
  </trkpt>
  <trkpt lat="50.611102" lon="-3.847563">
    <ele>287</ele>
    <time>2026-07-23T18:16:18Z</time>
    <speed>1.26</speed>
  </trkpt>
  <trkpt lat="50.611240" lon="-3.847536">
    <ele>285</ele>
    <time>2026-07-23T18:16:29Z</time>
    <speed>1.3399999</speed>
  </trkpt>
  <trkpt lat="50.611375" lon="-3.847477">
    <ele>286</ele>
    <time>2026-07-23T18:16:40Z</time>
    <speed>1.41</speed>
  </trkpt>
  <trkpt lat="50.611510" lon="-3.847463">
    <ele>274</ele>
    <time>2026-07-23T18:16:51Z</time>
    <speed>1.6999999</speed>
  </trkpt>
  <trkpt lat="50.611650" lon="-3.847473">
    <ele>285</ele>
    <time>2026-07-23T18:17:02Z</time>
    <speed>1.37</speed>
  </trkpt>
  <trkpt lat="50.611776" lon="-3.847433">
    <ele>288</ele>
    <time>2026-07-23T18:17:13Z</time>
    <speed>1.55</speed>
  </trkpt>
  <trkpt lat="50.611875" lon="-3.847332">
    <ele>283</ele>
    <time>2026-07-23T18:17:24Z</time>
    <speed>1.14</speed>
  </trkpt>
  <trkpt lat="50.612001" lon="-3.847260">
    <ele>287</ele>
    <time>2026-07-23T18:17:35Z</time>
    <speed>1.35</speed>
  </trkpt>
  <trkpt lat="50.612154" lon="-3.847313">
    <ele>287</ele>
    <time>2026-07-23T18:17:46Z</time>
    <speed>1.48</speed>
  </trkpt>
  <trkpt lat="50.612303" lon="-3.847349">
    <ele>289</ele>
    <time>2026-07-23T18:17:57Z</time>
    <speed>1.43</speed>
  </trkpt>
  <trkpt lat="50.612434" lon="-3.847402">
    <ele>289</ele>
    <time>2026-07-23T18:18:08Z</time>
    <speed>1.1899999</speed>
  </trkpt>
  <trkpt lat="50.612575" lon="-3.847493">
    <ele>290</ele>
    <time>2026-07-23T18:18:19Z</time>
    <speed>1.5</speed>
  </trkpt>
  <trkpt lat="50.612702" lon="-3.847592">
    <ele>290</ele>
    <time>2026-07-23T18:18:30Z</time>
    <speed>1.62</speed>
  </trkpt>
  <trkpt lat="50.612823" lon="-3.847684">
    <ele>287</ele>
    <time>2026-07-23T18:18:41Z</time>
    <speed>1.63</speed>
  </trkpt>
  <trkpt lat="50.612944" lon="-3.847742">
    <ele>284</ele>
    <time>2026-07-23T18:18:52Z</time>
    <speed>1.67</speed>
  </trkpt>
  <trkpt lat="50.613090" lon="-3.847777">
    <ele>294</ele>
    <time>2026-07-23T18:19:03Z</time>
    <speed>1.4</speed>
  </trkpt>
  <trkpt lat="50.613238" lon="-3.847808">
    <ele>292</ele>
    <time>2026-07-23T18:19:14Z</time>
    <speed>0.51</speed>
  </trkpt>
  <trkpt lat="50.613372" lon="-3.847860">
    <ele>294</ele>
    <time>2026-07-23T18:19:25Z</time>
    <speed>1.38</speed>
  </trkpt>
  <trkpt lat="50.613494" lon="-3.847933">
    <ele>298</ele>
    <time>2026-07-23T18:19:36Z</time>
    <speed>1.22</speed>
  </trkpt>
  <trkpt lat="50.613608" lon="-3.848055">
    <ele>297</ele>
    <time>2026-07-23T18:19:47Z</time>
    <speed>1.16</speed>
  </trkpt>
  <trkpt lat="50.613700" lon="-3.848060">
    <ele>297</ele>
    <time>2026-07-23T18:21:06Z</time>
    <speed>0.19</speed>
  </trkpt>
  <trkpt lat="50.613806" lon="-3.848034">
    <ele>294</ele>
    <time>2026-07-23T18:21:17Z</time>
    <speed>1.15</speed>
  </trkpt>
  <trkpt lat="50.613915" lon="-3.848004">
    <ele>297</ele>
    <time>2026-07-23T18:21:28Z</time>
    <speed>0.96999997</speed>
  </trkpt>
  <trkpt lat="50.614006" lon="-3.847990">
    <ele>300</ele>
    <time>2026-07-23T18:21:46Z</time>
    <speed>1.04</speed>
  </trkpt>
  <trkpt lat="50.614103" lon="-3.848012">
    <ele>297</ele>
    <time>2026-07-23T18:21:58Z</time>
    <speed>1.1999999</speed>
  </trkpt>
  <trkpt lat="50.614220" lon="-3.847993">
    <ele>303</ele>
    <time>2026-07-23T18:22:09Z</time>
    <speed>1.06</speed>
  </trkpt>
  <trkpt lat="50.614347" lon="-3.847986">
    <ele>301</ele>
    <time>2026-07-23T18:22:20Z</time>
    <speed>1.15</speed>
  </trkpt>
  <trkpt lat="50.614435" lon="-3.847949">
    <ele>306</ele>
    <time>2026-07-23T18:22:35Z</time>
    <speed>0.93</speed>
  </trkpt>
  <trkpt lat="50.614520" lon="-3.847900">
    <ele>310</ele>
    <time>2026-07-23T18:22:48Z</time>
    <speed>1.02</speed>
  </trkpt>
  <trkpt lat="50.614582" lon="-3.847797">
    <ele>309</ele>
    <time>2026-07-23T18:23:07Z</time>
    <speed>0.84999996</speed>
  </trkpt>
  <trkpt lat="50.614676" lon="-3.847783">
    <ele>311</ele>
    <time>2026-07-23T18:23:18Z</time>
    <speed>0.81</speed>
  </trkpt>
  <trkpt lat="50.614780" lon="-3.847776">
    <ele>311</ele>
    <time>2026-07-23T18:23:29Z</time>
    <speed>0.91999996</speed>
  </trkpt>
  <trkpt lat="50.614862" lon="-3.847874">
    <ele>312</ele>
    <time>2026-07-23T18:23:40Z</time>
    <speed>0.72999996</speed>
  </trkpt>
  <trkpt lat="50.614952" lon="-3.847916">
    <ele>311</ele>
    <time>2026-07-23T18:23:51Z</time>
    <speed>1.52</speed>
  </trkpt>
  <trkpt lat="50.615049" lon="-3.847918">
    <ele>313</ele>
    <time>2026-07-23T18:24:05Z</time>
    <speed>1.22</speed>
  </trkpt>
  <trkpt lat="50.615153" lon="-3.847919">
    <ele>319</ele>
    <time>2026-07-23T18:24:16Z</time>
    <speed>1.05</speed>
  </trkpt>
  <trkpt lat="50.615271" lon="-3.848024">
    <ele>315</ele>
    <time>2026-07-23T18:24:27Z</time>
    <speed>1.05</speed>
  </trkpt>
  <trkpt lat="50.615349" lon="-3.848177">
    <ele>315</ele>
    <time>2026-07-23T18:24:38Z</time>
    <speed>1.16</speed>
  </trkpt>
  <trkpt lat="50.615386" lon="-3.848314">
    <ele>318</ele>
    <time>2026-07-23T18:24:51Z</time>
    <speed>0.83</speed>
  </trkpt>
  <trkpt lat="50.615426" lon="-3.848475">
    <ele>317</ele>
    <time>2026-07-23T18:25:02Z</time>
    <speed>1.16</speed>
  </trkpt>
  <trkpt lat="50.615412" lon="-3.848672">
    <ele>316</ele>
    <time>2026-07-23T18:25:13Z</time>
    <speed>1.35</speed>
  </trkpt>
  <trkpt lat="50.615382" lon="-3.848848">
    <ele>315</ele>
    <time>2026-07-23T18:25:24Z</time>
    <speed>0.32</speed>
  </trkpt>
  <trkpt lat="50.615386" lon="-3.849003">
    <ele>316</ele>
    <time>2026-07-23T18:25:36Z</time>
    <speed>1.4499999</speed>
  </trkpt>
  <trkpt lat="50.615384" lon="-3.849206">
    <ele>320</ele>
    <time>2026-07-23T18:25:47Z</time>
    <speed>1.05</speed>
  </trkpt>
  <trkpt lat="50.615460" lon="-3.849295">
    <ele>310</ele>
    <time>2026-07-23T18:25:58Z</time>
    <speed>0.84</speed>
  </trkpt>
  <trkpt lat="50.615479" lon="-3.849462">
    <ele>321</ele>
    <time>2026-07-23T18:26:09Z</time>
    <speed>1.0699999</speed>
  </trkpt>
  <trkpt lat="50.615509" lon="-3.849641">
    <ele>315</ele>
    <time>2026-07-23T18:26:20Z</time>
    <speed>1.12</speed>
  </trkpt>
  <trkpt lat="50.615492" lon="-3.849850">
    <ele>325</ele>
    <time>2026-07-23T18:26:31Z</time>
    <speed>1.54</speed>
  </trkpt>
  <trkpt lat="50.615444" lon="-3.850047">
    <ele>325</ele>
    <time>2026-07-23T18:26:42Z</time>
    <speed>0.9</speed>
  </trkpt>
  <trkpt lat="50.615368" lon="-3.850206">
    <ele>325</ele>
    <time>2026-07-23T18:26:53Z</time>
    <speed>1.15</speed>
  </trkpt>
  <trkpt lat="50.615322" lon="-3.850336">
    <ele>327</ele>
    <time>2026-07-23T18:27:04Z</time>
    <speed>0.84</speed>
  </trkpt>
  <trkpt lat="50.615331" lon="-3.850498">
    <ele>329</ele>
    <time>2026-07-23T18:27:15Z</time>
    <speed>1.0699999</speed>
  </trkpt>
  <trkpt lat="50.615315" lon="-3.850679">
    <ele>330</ele>
    <time>2026-07-23T18:27:26Z</time>
    <speed>0.58</speed>
  </trkpt>
  <trkpt lat="50.615351" lon="-3.850819">
    <ele>331</ele>
    <time>2026-07-23T18:27:37Z</time>
    <speed>0.90999997</speed>
  </trkpt>
  <trkpt lat="50.615261" lon="-3.850962">
    <ele>324</ele>
    <time>2026-07-23T18:27:48Z</time>
    <speed>1.22</speed>
  </trkpt>
  <trkpt lat="50.615165" lon="-3.851138">
    <ele>329</ele>
    <time>2026-07-23T18:27:59Z</time>
    <speed>1.14</speed>
  </trkpt>
  <trkpt lat="50.615142" lon="-3.851306">
    <ele>334</ele>
    <time>2026-07-23T18:28:10Z</time>
    <speed>1.28</speed>
  </trkpt>
  <trkpt lat="50.615112" lon="-3.851490">
    <ele>332</ele>
    <time>2026-07-23T18:28:21Z</time>
    <speed>1.22</speed>
  </trkpt>
  <trkpt lat="50.615011" lon="-3.851613">
    <ele>337</ele>
    <time>2026-07-23T18:28:32Z</time>
    <speed>1.29</speed>
  </trkpt>
  <trkpt lat="50.614925" lon="-3.851744">
    <ele>332</ele>
    <time>2026-07-23T18:28:43Z</time>
    <speed>1.03</speed>
  </trkpt>
  <trkpt lat="50.614854" lon="-3.851868">
    <ele>333</ele>
    <time>2026-07-23T18:28:54Z</time>
    <speed>1.0699999</speed>
  </trkpt>
  <trkpt lat="50.614778" lon="-3.851965">
    <ele>332</ele>
    <time>2026-07-23T18:29:16Z</time>
    <speed>1.01</speed>
  </trkpt>
  <trkpt lat="50.614714" lon="-3.852072">
    <ele>333</ele>
    <time>2026-07-23T18:29:35Z</time>
    <speed>0.76</speed>
  </trkpt>
  <trkpt lat="50.614626" lon="-3.852123">
    <ele>334</ele>
    <time>2026-07-23T18:29:47Z</time>
    <speed>0.53999996</speed>
  </trkpt>
  <trkpt lat="50.614562" lon="-3.852263">
    <ele>333</ele>
    <time>2026-07-23T18:29:58Z</time>
    <speed>1.16</speed>
  </trkpt>
  <trkpt lat="50.614482" lon="-3.852357">
    <ele>336</ele>
    <time>2026-07-23T18:30:10Z</time>
    <speed>1.38</speed>
  </trkpt>
  <trkpt lat="50.614387" lon="-3.852469">
    <ele>333</ele>
    <time>2026-07-23T18:30:21Z</time>
    <speed>1.5</speed>
  </trkpt>
  <trkpt lat="50.614290" lon="-3.852567">
    <ele>339</ele>
    <time>2026-07-23T18:30:32Z</time>
    <speed>1.02</speed>
  </trkpt>
  <trkpt lat="50.614201" lon="-3.852688">
    <ele>330</ele>
    <time>2026-07-23T18:30:43Z</time>
    <speed>1.29</speed>
  </trkpt>
  <trkpt lat="50.614112" lon="-3.852818">
    <ele>340</ele>
    <time>2026-07-23T18:30:54Z</time>
    <speed>1.29</speed>
  </trkpt>
  <trkpt lat="50.614072" lon="-3.852958">
    <ele>342</ele>
    <time>2026-07-23T18:31:05Z</time>
    <speed>0.83</speed>
  </trkpt>
  <trkpt lat="50.614010" lon="-3.853086">
    <ele>338</ele>
    <time>2026-07-23T18:31:16Z</time>
    <speed>0.59999996</speed>
  </trkpt>
  <trkpt lat="50.613947" lon="-3.853196">
    <ele>343</ele>
    <time>2026-07-23T18:31:27Z</time>
    <speed>0.94</speed>
  </trkpt>
  <trkpt lat="50.613844" lon="-3.853289">
    <ele>338</ele>
    <time>2026-07-23T18:31:38Z</time>
    <speed>0.76</speed>
  </trkpt>
  <trkpt lat="50.613774" lon="-3.853418">
    <ele>346</ele>
    <time>2026-07-23T18:31:49Z</time>
    <speed>0.85999995</speed>
  </trkpt>
  <trkpt lat="50.613690" lon="-3.853508">
    <ele>345</ele>
    <time>2026-07-23T18:32:00Z</time>
    <speed>0.74</speed>
  </trkpt>
  <trkpt lat="50.613593" lon="-3.853548">
    <ele>347</ele>
    <time>2026-07-23T18:32:11Z</time>
    <speed>0.75</speed>
  </trkpt>
  <trkpt lat="50.613489" lon="-3.853552">
    <ele>346</ele>
    <time>2026-07-23T18:32:22Z</time>
    <speed>1.04</speed>
  </trkpt>
  <trkpt lat="50.613364" lon="-3.853569">
    <ele>343</ele>
    <time>2026-07-23T18:32:33Z</time>
    <speed>1.76</speed>
  </trkpt>
  <trkpt lat="50.613269" lon="-3.853539">
    <ele>345</ele>
    <time>2026-07-23T18:32:44Z</time>
    <speed>1.1999999</speed>
  </trkpt>
  <trkpt lat="50.613148" lon="-3.853470">
    <ele>346</ele>
    <time>2026-07-23T18:32:55Z</time>
    <speed>1.15</speed>
  </trkpt>
  <trkpt lat="50.613030" lon="-3.853444">
    <ele>349</ele>
    <time>2026-07-23T18:33:06Z</time>
    <speed>1.13</speed>
  </trkpt>
  <trkpt lat="50.612894" lon="-3.853501">
    <ele>348</ele>
    <time>2026-07-23T18:33:17Z</time>
    <speed>1.15</speed>
  </trkpt>
  <trkpt lat="50.612798" lon="-3.853542">
    <ele>342</ele>
    <time>2026-07-23T18:33:28Z</time>
    <speed>0.96</speed>
  </trkpt>
  <trkpt lat="50.612683" lon="-3.853517">
    <ele>347</ele>
    <time>2026-07-23T18:33:39Z</time>
    <speed>1.06</speed>
  </trkpt>
  <trkpt lat="50.612579" lon="-3.853489">
    <ele>347</ele>
    <time>2026-07-23T18:33:50Z</time>
    <speed>1.09</speed>
  </trkpt>
  <trkpt lat="50.612503" lon="-3.853401">
    <ele>350</ele>
    <time>2026-07-23T18:34:28Z</time>
    <speed>0.9</speed>
  </trkpt>
  <trkpt lat="50.612426" lon="-3.853304">
    <ele>342</ele>
    <time>2026-07-23T18:34:39Z</time>
    <speed>1.52</speed>
  </trkpt>
  <trkpt lat="50.612352" lon="-3.853214">
    <ele>353</ele>
    <time>2026-07-23T18:34:50Z</time>
    <speed>0.48999998</speed>
  </trkpt>
  <trkpt lat="50.612262" lon="-3.853253">
    <ele>351</ele>
    <time>2026-07-23T18:35:01Z</time>
    <speed>0.26999998</speed>
  </trkpt>
  <trkpt lat="50.612352" lon="-3.853300">
    <ele>354</ele>
    <time>2026-07-23T18:53:41Z</time>
    <speed>1.3299999</speed>
  </trkpt>
  <trkpt lat="50.612450" lon="-3.853297">
    <ele>342</ele>
    <time>2026-07-23T18:53:54Z</time>
    <speed>0.56</speed>
  </trkpt>
  <trkpt lat="50.612556" lon="-3.853421">
    <ele>351</ele>
    <time>2026-07-23T18:54:05Z</time>
    <speed>0.78999996</speed>
  </trkpt>
  <trkpt lat="50.612652" lon="-3.853462">
    <ele>349</ele>
    <time>2026-07-23T18:54:16Z</time>
    <speed>0.96999997</speed>
  </trkpt>
  <trkpt lat="50.612752" lon="-3.853482">
    <ele>348</ele>
    <time>2026-07-23T18:54:27Z</time>
    <speed>1.17</speed>
  </trkpt>
  <trkpt lat="50.612869" lon="-3.853468">
    <ele>342</ele>
    <time>2026-07-23T18:54:38Z</time>
    <speed>1.18</speed>
  </trkpt>
  <trkpt lat="50.612958" lon="-3.853391">
    <ele>347</ele>
    <time>2026-07-23T18:54:49Z</time>
    <speed>1.38</speed>
  </trkpt>
  <trkpt lat="50.613077" lon="-3.853394">
    <ele>344</ele>
    <time>2026-07-23T18:55:00Z</time>
    <speed>1.48</speed>
  </trkpt>
  <trkpt lat="50.613192" lon="-3.853403">
    <ele>342</ele>
    <time>2026-07-23T18:55:11Z</time>
    <speed>1.0799999</speed>
  </trkpt>
  <trkpt lat="50.613284" lon="-3.853462">
    <ele>346</ele>
    <time>2026-07-23T18:55:22Z</time>
    <speed>1.09</speed>
  </trkpt>
  <trkpt lat="50.613380" lon="-3.853488">
    <ele>347</ele>
    <time>2026-07-23T18:55:33Z</time>
    <speed>1.81</speed>
  </trkpt>
  <trkpt lat="50.613499" lon="-3.853507">
    <ele>345</ele>
    <time>2026-07-23T18:55:44Z</time>
    <speed>0.82</speed>
  </trkpt>
  <trkpt lat="50.613591" lon="-3.853637">
    <ele>347</ele>
    <time>2026-07-23T18:55:55Z</time>
    <speed>1.5899999</speed>
  </trkpt>
  <trkpt lat="50.613671" lon="-3.853814">
    <ele>346</ele>
    <time>2026-07-23T18:56:06Z</time>
    <speed>1.23</speed>
  </trkpt>
  <trkpt lat="50.613744" lon="-3.853903">
    <ele>337</ele>
    <time>2026-07-23T18:56:18Z</time>
    <speed>1.0799999</speed>
  </trkpt>
  <trkpt lat="50.613816" lon="-3.853992">
    <ele>349</ele>
    <time>2026-07-23T18:56:29Z</time>
    <speed>1.16</speed>
  </trkpt>
  <trkpt lat="50.613887" lon="-3.854139">
    <ele>348</ele>
    <time>2026-07-23T18:56:40Z</time>
    <speed>1.15</speed>
  </trkpt>
  <trkpt lat="50.613945" lon="-3.854297">
    <ele>352</ele>
    <time>2026-07-23T18:56:51Z</time>
    <speed>0.9</speed>
  </trkpt>
  <trkpt lat="50.614027" lon="-3.854359">
    <ele>347</ele>
    <time>2026-07-23T18:57:03Z</time>
    <speed>1.4</speed>
  </trkpt>
  <trkpt lat="50.614032" lon="-3.854541">
    <ele>351</ele>
    <time>2026-07-23T18:57:14Z</time>
    <speed>1.13</speed>
  </trkpt>
  <trkpt lat="50.613943" lon="-3.854648">
    <ele>353</ele>
    <time>2026-07-23T18:57:25Z</time>
    <speed>1.37</speed>
  </trkpt>
  <trkpt lat="50.613853" lon="-3.854831">
    <ele>355</ele>
    <time>2026-07-23T18:57:36Z</time>
    <speed>1.1999999</speed>
  </trkpt>
  <trkpt lat="50.613780" lon="-3.854977">
    <ele>352</ele>
    <time>2026-07-23T18:57:47Z</time>
    <speed>1.42</speed>
  </trkpt>
  <trkpt lat="50.613667" lon="-3.855109">
    <ele>353</ele>
    <time>2026-07-23T18:57:58Z</time>
    <speed>1.4699999</speed>
  </trkpt>
  <trkpt lat="50.613584" lon="-3.855220">
    <ele>355</ele>
    <time>2026-07-23T18:58:09Z</time>
    <speed>1.27</speed>
  </trkpt>
  <trkpt lat="50.613492" lon="-3.855375">
    <ele>350</ele>
    <time>2026-07-23T18:58:20Z</time>
    <speed>1.23</speed>
  </trkpt>
  <trkpt lat="50.613405" lon="-3.855517">
    <ele>349</ele>
    <time>2026-07-23T18:58:31Z</time>
    <speed>1.38</speed>
  </trkpt>
  <trkpt lat="50.613298" lon="-3.855645">
    <ele>346</ele>
    <time>2026-07-23T18:58:42Z</time>
    <speed>1.86</speed>
  </trkpt>
  <trkpt lat="50.613199" lon="-3.855773">
    <ele>356</ele>
    <time>2026-07-23T18:58:53Z</time>
    <speed>1.24</speed>
  </trkpt>
  <trkpt lat="50.613184" lon="-3.855931">
    <ele>349</ele>
    <time>2026-07-23T18:59:38Z</time>
    <speed>1.3399999</speed>
  </trkpt>
  <trkpt lat="50.613124" lon="-3.856113">
    <ele>346</ele>
    <time>2026-07-23T18:59:49Z</time>
    <speed>1.3</speed>
  </trkpt>
  <trkpt lat="50.613102" lon="-3.856298">
    <ele>351</ele>
    <time>2026-07-23T19:00:00Z</time>
    <speed>1.04</speed>
  </trkpt>
  <trkpt lat="50.613068" lon="-3.856464">
    <ele>343</ele>
    <time>2026-07-23T19:00:11Z</time>
    <speed>1.24</speed>
  </trkpt>
  <trkpt lat="50.613030" lon="-3.856650">
    <ele>348</ele>
    <time>2026-07-23T19:00:22Z</time>
    <speed>1.3199999</speed>
  </trkpt>
  <trkpt lat="50.613022" lon="-3.856822">
    <ele>336</ele>
    <time>2026-07-23T19:00:33Z</time>
    <speed>1.0699999</speed>
  </trkpt>
  <trkpt lat="50.612960" lon="-3.857003">
    <ele>343</ele>
    <time>2026-07-23T19:00:44Z</time>
    <speed>1.3299999</speed>
  </trkpt>
  <trkpt lat="50.612916" lon="-3.857174">
    <ele>337</ele>
    <time>2026-07-23T19:00:55Z</time>
    <speed>1.12</speed>
  </trkpt>
  <trkpt lat="50.612876" lon="-3.857355">
    <ele>336</ele>
    <time>2026-07-23T19:01:06Z</time>
    <speed>1.64</speed>
  </trkpt>
  <trkpt lat="50.612780" lon="-3.857479">
    <ele>333</ele>
    <time>2026-07-23T19:01:17Z</time>
    <speed>1.25</speed>
  </trkpt>
  <trkpt lat="50.612713" lon="-3.857626">
    <ele>330</ele>
    <time>2026-07-23T19:01:28Z</time>
    <speed>0.94</speed>
  </trkpt>
  <trkpt lat="50.612687" lon="-3.857777">
    <ele>325</ele>
    <time>2026-07-23T19:01:39Z</time>
    <speed>0.90999997</speed>
  </trkpt>
  <trkpt lat="50.612616" lon="-3.857875">
    <ele>326</ele>
    <time>2026-07-23T19:01:50Z</time>
    <speed>0.96999997</speed>
  </trkpt>
  <trkpt lat="50.612547" lon="-3.857976">
    <ele>325</ele>
    <time>2026-07-23T19:02:01Z</time>
    <speed>1.09</speed>
  </trkpt>
  <trkpt lat="50.612537" lon="-3.858119">
    <ele>323</ele>
    <time>2026-07-23T19:02:12Z</time>
    <speed>0.81</speed>
  </trkpt>
  <trkpt lat="50.612550" lon="-3.858272">
    <ele>321</ele>
    <time>2026-07-23T19:02:23Z</time>
    <speed>0.83</speed>
  </trkpt>
  <trkpt lat="50.612532" lon="-3.858434">
    <ele>309</ele>
    <time>2026-07-23T19:02:34Z</time>
    <speed>1.4499999</speed>
  </trkpt>
  <trkpt lat="50.612539" lon="-3.858623">
    <ele>320</ele>
    <time>2026-07-23T19:02:45Z</time>
    <speed>1.1999999</speed>
  </trkpt>
  <trkpt lat="50.612541" lon="-3.858808">
    <ele>315</ele>
    <time>2026-07-23T19:02:56Z</time>
    <speed>0.98999995</speed>
  </trkpt>
  <trkpt lat="50.612559" lon="-3.858999">
    <ele>315</ele>
    <time>2026-07-23T19:03:07Z</time>
    <speed>1.09</speed>
  </trkpt>
  <trkpt lat="50.612585" lon="-3.859204">
    <ele>314</ele>
    <time>2026-07-23T19:03:18Z</time>
    <speed>1.35</speed>
  </trkpt>
  <trkpt lat="50.612646" lon="-3.859374">
    <ele>312</ele>
    <time>2026-07-23T19:03:29Z</time>
    <speed>1.3</speed>
  </trkpt>
  <trkpt lat="50.612662" lon="-3.859573">
    <ele>312</ele>
    <time>2026-07-23T19:03:40Z</time>
    <speed>1.4399999</speed>
  </trkpt>
  <trkpt lat="50.612708" lon="-3.859708">
    <ele>310</ele>
    <time>2026-07-23T19:03:56Z</time>
    <speed>1.12</speed>
  </trkpt>
  <trkpt lat="50.612748" lon="-3.859908">
    <ele>309</ele>
    <time>2026-07-23T19:04:07Z</time>
    <speed>1.38</speed>
  </trkpt>
  <trkpt lat="50.612775" lon="-3.860076">
    <ele>306</ele>
    <time>2026-07-23T19:04:18Z</time>
    <speed>1.23</speed>
  </trkpt>
  <trkpt lat="50.612834" lon="-3.860232">
    <ele>308</ele>
    <time>2026-07-23T19:04:29Z</time>
    <speed>1.43</speed>
  </trkpt>
  <trkpt lat="50.612848" lon="-3.860409">
    <ele>305</ele>
    <time>2026-07-23T19:04:40Z</time>
    <speed>1.18</speed>
  </trkpt>
  <trkpt lat="50.612913" lon="-3.860569">
    <ele>305</ele>
    <time>2026-07-23T19:04:51Z</time>
    <speed>0.91999996</speed>
  </trkpt>
  <trkpt lat="50.612902" lon="-3.860735">
    <ele>303</ele>
    <time>2026-07-23T19:05:02Z</time>
    <speed>0.82</speed>
  </trkpt>
  <trkpt lat="50.612880" lon="-3.860912">
    <ele>302</ele>
    <time>2026-07-23T19:05:13Z</time>
    <speed>1.63</speed>
  </trkpt>
  <trkpt lat="50.612894" lon="-3.861113">
    <ele>299</ele>
    <time>2026-07-23T19:05:24Z</time>
    <speed>1.3299999</speed>
  </trkpt>
  <trkpt lat="50.612898" lon="-3.861256">
    <ele>296</ele>
    <time>2026-07-23T19:05:37Z</time>
    <speed>0.63</speed>
  </trkpt>
  <trkpt lat="50.612903" lon="-3.861415">
    <ele>299</ele>
    <time>2026-07-23T19:05:49Z</time>
    <speed>1.4699999</speed>
  </trkpt>
  <trkpt lat="50.612877" lon="-3.861553">
    <ele>296</ele>
    <time>2026-07-23T19:06:00Z</time>
    <speed>0.35</speed>
  </trkpt>
  <trkpt lat="50.612866" lon="-3.861724">
    <ele>296</ele>
    <time>2026-07-23T19:06:11Z</time>
    <speed>1.4399999</speed>
  </trkpt>
  <trkpt lat="50.612852" lon="-3.861896">
    <ele>296</ele>
    <time>2026-07-23T19:06:22Z</time>
    <speed>1.4699999</speed>
  </trkpt>
  <trkpt lat="50.612870" lon="-3.862105">
    <ele>293</ele>
    <time>2026-07-23T19:06:33Z</time>
    <speed>1.24</speed>
  </trkpt>
  <trkpt lat="50.612944" lon="-3.862263">
    <ele>293</ele>
    <time>2026-07-23T19:06:44Z</time>
    <speed>1.1999999</speed>
  </trkpt>
  <trkpt lat="50.613006" lon="-3.862444">
    <ele>292</ele>
    <time>2026-07-23T19:06:55Z</time>
    <speed>1.29</speed>
  </trkpt>
  <trkpt lat="50.613046" lon="-3.862601">
    <ele>288</ele>
    <time>2026-07-23T19:07:06Z</time>
    <speed>1.0699999</speed>
  </trkpt>
  <trkpt lat="50.613129" lon="-3.862810">
    <ele>289</ele>
    <time>2026-07-23T19:07:17Z</time>
    <speed>1.5</speed>
  </trkpt>
  <trkpt lat="50.613205" lon="-3.862942">
    <ele>287</ele>
    <time>2026-07-23T19:07:28Z</time>
    <speed>1.4399999</speed>
  </trkpt>
  <trkpt lat="50.613303" lon="-3.863085">
    <ele>295</ele>
    <time>2026-07-23T19:07:39Z</time>
    <speed>1.31</speed>
  </trkpt>
  <trkpt lat="50.613412" lon="-3.863249">
    <ele>290</ele>
    <time>2026-07-23T19:07:50Z</time>
    <speed>1.37</speed>
  </trkpt>
  <trkpt lat="50.613457" lon="-3.863412">
    <ele>291</ele>
    <time>2026-07-23T19:08:01Z</time>
    <speed>1.28</speed>
  </trkpt>
  <trkpt lat="50.613484" lon="-3.863620">
    <ele>288</ele>
    <time>2026-07-23T19:08:12Z</time>
    <speed>1.53</speed>
  </trkpt>
  <trkpt lat="50.613503" lon="-3.863797">
    <ele>291</ele>
    <time>2026-07-23T19:08:23Z</time>
    <speed>0.97999996</speed>
  </trkpt>
  <trkpt lat="50.613393" lon="-3.863806">
    <ele>288</ele>
    <time>2026-07-23T19:08:34Z</time>
    <speed>1.3299999</speed>
  </trkpt>
  <trkpt lat="50.613299" lon="-3.863650">
    <ele>288</ele>
    <time>2026-07-23T19:08:45Z</time>
    <speed>0.90999997</speed>
  </trkpt>
  <trkpt lat="50.613197" lon="-3.863507">
    <ele>286</ele>
    <time>2026-07-23T19:08:56Z</time>
    <speed>1.78</speed>
  </trkpt>
  <trkpt lat="50.613079" lon="-3.863383">
    <ele>286</ele>
    <time>2026-07-23T19:09:07Z</time>
    <speed>1.23</speed>
  </trkpt>
  <trkpt lat="50.612965" lon="-3.863361">
    <ele>285</ele>
    <time>2026-07-23T19:09:18Z</time>
    <speed>1.5</speed>
  </trkpt>
  <trkpt lat="50.612825" lon="-3.863298">
    <ele>286</ele>
    <time>2026-07-23T19:09:29Z</time>
    <speed>1.38</speed>
  </trkpt>
  <trkpt lat="50.612681" lon="-3.863328">
    <ele>285</ele>
    <time>2026-07-23T19:09:40Z</time>
    <speed>1.3299999</speed>
  </trkpt>
  <trkpt lat="50.612567" lon="-3.863355">
    <ele>286</ele>
    <time>2026-07-23T19:09:51Z</time>
    <speed>1.31</speed>
  </trkpt>
  <trkpt lat="50.612431" lon="-3.863318">
    <ele>283</ele>
    <time>2026-07-23T19:10:02Z</time>
    <speed>1.8</speed>
  </trkpt>
  <trkpt lat="50.612298" lon="-3.863237">
    <ele>285</ele>
    <time>2026-07-23T19:10:13Z</time>
    <speed>1.49</speed>
  </trkpt>
  <trkpt lat="50.612166" lon="-3.863144">
    <ele>282</ele>
    <time>2026-07-23T19:10:24Z</time>
    <speed>1.6999999</speed>
  </trkpt>
  <trkpt lat="50.612041" lon="-3.863055">
    <ele>283</ele>
    <time>2026-07-23T19:10:35Z</time>
    <speed>1.17</speed>
  </trkpt>
  <trkpt lat="50.611904" lon="-3.863056">
    <ele>281</ele>
    <time>2026-07-23T19:10:46Z</time>
    <speed>1.41</speed>
  </trkpt>
  <trkpt lat="50.611788" lon="-3.863139">
    <ele>282</ele>
    <time>2026-07-23T19:10:57Z</time>
    <speed>1.66</speed>
  </trkpt>
  <trkpt lat="50.611649" lon="-3.863150">
    <ele>280</ele>
    <time>2026-07-23T19:11:08Z</time>
    <speed>1.4699999</speed>
  </trkpt>
  <trkpt lat="50.611515" lon="-3.863097">
    <ele>276</ele>
    <time>2026-07-23T19:11:19Z</time>
    <speed>1.6999999</speed>
  </trkpt>
  <trkpt lat="50.611397" lon="-3.863059">
    <ele>278</ele>
    <time>2026-07-23T19:11:30Z</time>
    <speed>1.03</speed>
  </trkpt>
  <trkpt lat="50.611244" lon="-3.863028">
    <ele>278</ele>
    <time>2026-07-23T19:11:41Z</time>
    <speed>1.63</speed>
  </trkpt>
  <trkpt lat="50.611084" lon="-3.863006">
    <ele>279</ele>
    <time>2026-07-23T19:11:52Z</time>
    <speed>1.35</speed>
  </trkpt>
  <trkpt lat="50.610950" lon="-3.863016">
    <ele>279</ele>
    <time>2026-07-23T19:12:03Z</time>
    <speed>1.77</speed>
  </trkpt>
  <trkpt lat="50.610801" lon="-3.863007">
    <ele>273</ele>
    <time>2026-07-23T19:12:14Z</time>
    <speed>1.24</speed>
  </trkpt>
  <trkpt lat="50.610654" lon="-3.862937">
    <ele>277</ele>
    <time>2026-07-23T19:12:25Z</time>
    <speed>1.54</speed>
  </trkpt>
  <trkpt lat="50.610556" lon="-3.862863">
    <ele>277</ele>
    <time>2026-07-23T19:12:36Z</time>
    <speed>1.42</speed>
  </trkpt>
  <trkpt lat="50.610419" lon="-3.862822">
    <ele>274</ele>
    <time>2026-07-23T19:12:47Z</time>
    <speed>1.51</speed>
  </trkpt>
  <trkpt lat="50.610288" lon="-3.862778">
    <ele>277</ele>
    <time>2026-07-23T19:12:58Z</time>
    <speed>1.01</speed>
  </trkpt>
  <trkpt lat="50.610116" lon="-3.862770">
    <ele>274</ele>
    <time>2026-07-23T19:13:09Z</time>
    <speed>1.5999999</speed>
  </trkpt>
  <trkpt lat="50.610003" lon="-3.862745">
    <ele>277</ele>
    <time>2026-07-23T19:13:20Z</time>
    <speed>1.3299999</speed>
  </trkpt>
  <trkpt lat="50.609872" lon="-3.862725">
    <ele>275</ele>
    <time>2026-07-23T19:13:31Z</time>
    <speed>1.03</speed>
  </trkpt>
  <trkpt lat="50.609781" lon="-3.862664">
    <ele>274</ele>
    <time>2026-07-23T19:13:42Z</time>
    <speed>0.85999995</speed>
  </trkpt>
  <trkpt lat="50.609689" lon="-3.862652">
    <ele>269</ele>
    <time>2026-07-23T19:13:53Z</time>
    <speed>1.16</speed>
  </trkpt>
  <trkpt lat="50.609577" lon="-3.862617">
    <ele>274</ele>
    <time>2026-07-23T19:14:04Z</time>
    <speed>1.29</speed>
  </trkpt>
  <trkpt lat="50.609447" lon="-3.862581">
    <ele>273</ele>
    <time>2026-07-23T19:14:15Z</time>
    <speed>1.0699999</speed>
  </trkpt>
  <trkpt lat="50.609341" lon="-3.862551">
    <ele>275</ele>
    <time>2026-07-23T19:14:26Z</time>
    <speed>1.51</speed>
  </trkpt>
  <trkpt lat="50.609257" lon="-3.862431">
    <ele>272</ele>
    <time>2026-07-23T19:14:37Z</time>
    <speed>1.26</speed>
  </trkpt>
  <trkpt lat="50.609165" lon="-3.862387">
    <ele>273</ele>
    <time>2026-07-23T19:14:58Z</time>
    <speed>0.77</speed>
  </trkpt>
  <trkpt lat="50.609030" lon="-3.862301">
    <ele>272</ele>
    <time>2026-07-23T19:15:09Z</time>
    <speed>1.24</speed>
  </trkpt>
  <trkpt lat="50.608937" lon="-3.862277">
    <ele>271</ele>
    <time>2026-07-23T19:15:22Z</time>
    <speed>0.59</speed>
  </trkpt>
  <trkpt lat="50.608848" lon="-3.862296">
    <ele>270</ele>
    <time>2026-07-23T19:15:44Z</time>
    <speed>1.04</speed>
  </trkpt>
  <trkpt lat="50.608757" lon="-3.862337">
    <ele>272</ele>
    <time>2026-07-23T19:15:55Z</time>
    <speed>0.58</speed>
  </trkpt>
  <trkpt lat="50.608666" lon="-3.862397">
    <ele>271</ele>
    <time>2026-07-23T19:16:12Z</time>
    <speed>1.9599999</speed>
  </trkpt>
  <trkpt lat="50.608534" lon="-3.862435">
    <ele>264</ele>
    <time>2026-07-23T19:16:23Z</time>
    <speed>0.98999995</speed>
  </trkpt>
  <trkpt lat="50.608440" lon="-3.862423">
    <ele>270</ele>
    <time>2026-07-23T19:16:34Z</time>
    <speed>1.23</speed>
  </trkpt>
  <trkpt lat="50.608350" lon="-3.862406">
    <ele>270</ele>
    <time>2026-07-23T19:16:47Z</time>
    <speed>1.13</speed>
  </trkpt>
  <trkpt lat="50.608213" lon="-3.862389">
    <ele>267</ele>
    <time>2026-07-23T19:16:58Z</time>
    <speed>1.26</speed>
  </trkpt>
  <trkpt lat="50.608115" lon="-3.862356">
    <ele>271</ele>
    <time>2026-07-23T19:17:09Z</time>
    <speed>1.0</speed>
  </trkpt>
  <trkpt lat="50.608007" lon="-3.862311">
    <ele>266</ele>
    <time>2026-07-23T19:17:20Z</time>
    <speed>1.4699999</speed>
  </trkpt>
  <trkpt lat="50.607942" lon="-3.862409">
    <ele>270</ele>
    <time>2026-07-23T19:17:31Z</time>
    <speed>0.79999995</speed>
  </trkpt>
  <trkpt lat="50.607907" lon="-3.862548">
    <ele>269</ele>
    <time>2026-07-23T19:17:42Z</time>
    <speed>0.9</speed>
  </trkpt>
  <trkpt lat="50.607815" lon="-3.862684">
    <ele>271</ele>
    <time>2026-07-23T19:17:53Z</time>
    <speed>0.94</speed>
  </trkpt>
  <trkpt lat="50.607715" lon="-3.862779">
    <ele>271</ele>
    <time>2026-07-23T19:18:04Z</time>
    <speed>0.96999997</speed>
  </trkpt>
  <trkpt lat="50.607607" lon="-3.862768">
    <ele>271</ele>
    <time>2026-07-23T19:18:15Z</time>
    <speed>0.64</speed>
  </trkpt>
  <trkpt lat="50.607541" lon="-3.862882">
    <ele>273</ele>
    <time>2026-07-23T19:18:45Z</time>
    <speed>1.53</speed>
  </trkpt>
  <trkpt lat="50.607409" lon="-3.862827">
    <ele>271</ele>
    <time>2026-07-23T19:18:56Z</time>
    <speed>1.8199999</speed>
  </trkpt>
  <trkpt lat="50.607283" lon="-3.862776">
    <ele>271</ele>
    <time>2026-07-23T19:19:07Z</time>
    <speed>1.29</speed>
  </trkpt>
  <trkpt lat="50.607129" lon="-3.862785">
    <ele>264</ele>
    <time>2026-07-23T19:19:18Z</time>
    <speed>1.0699999</speed>
  </trkpt>
  <trkpt lat="50.606985" lon="-3.862790">
    <ele>272</ele>
    <time>2026-07-23T19:19:29Z</time>
    <speed>1.8</speed>
  </trkpt>
  <trkpt lat="50.606853" lon="-3.862728">
    <ele>276</ele>
    <time>2026-07-23T19:19:40Z</time>
    <speed>0.59999996</speed>
  </trkpt>
  <trkpt lat="50.606748" lon="-3.862756">
    <ele>276</ele>
    <time>2026-07-23T19:19:51Z</time>
    <speed>1.56</speed>
  </trkpt>
  <trkpt lat="50.606598" lon="-3.862707">
    <ele>275</ele>
    <time>2026-07-23T19:20:02Z</time>
    <speed>0.74</speed>
  </trkpt>
  <trkpt lat="50.606470" lon="-3.862759">
    <ele>271</ele>
    <time>2026-07-23T19:20:13Z</time>
    <speed>0.78999996</speed>
  </trkpt>
  <trkpt lat="50.606332" lon="-3.862878">
    <ele>279</ele>
    <time>2026-07-23T19:20:24Z</time>
    <speed>1.0699999</speed>
  </trkpt>
  <trkpt lat="50.606198" lon="-3.863032">
    <ele>281</ele>
    <time>2026-07-23T19:20:35Z</time>
    <speed>1.1</speed>
  </trkpt>
  <trkpt lat="50.606126" lon="-3.863198">
    <ele>280</ele>
    <time>2026-07-23T19:20:46Z</time>
    <speed>1.17</speed>
  </trkpt>
  <trkpt lat="50.606018" lon="-3.863305">
    <ele>275</ele>
    <time>2026-07-23T19:20:57Z</time>
    <speed>1.12</speed>
  </trkpt>
  <trkpt lat="50.605903" lon="-3.863439">
    <ele>280</ele>
    <time>2026-07-23T19:21:08Z</time>
    <speed>1.25</speed>
  </trkpt>
  <trkpt lat="50.605782" lon="-3.863576">
    <ele>281</ele>
    <time>2026-07-23T19:21:19Z</time>
    <speed>1.51</speed>
  </trkpt>
  <trkpt lat="50.605661" lon="-3.863716">
    <ele>281</ele>
    <time>2026-07-23T19:21:30Z</time>
    <speed>1.12</speed>
  </trkpt>
  <trkpt lat="50.605566" lon="-3.863867">
    <ele>282</ele>
    <time>2026-07-23T19:21:41Z</time>
    <speed>1.9399999</speed>
  </trkpt>
  <trkpt lat="50.605418" lon="-3.863980">
    <ele>280</ele>
    <time>2026-07-23T19:21:52Z</time>
    <speed>1.6999999</speed>
  </trkpt>
  <trkpt lat="50.605324" lon="-3.864110">
    <ele>281</ele>
    <time>2026-07-23T19:22:03Z</time>
    <speed>1.09</speed>
  </trkpt>
  <trkpt lat="50.605207" lon="-3.864213">
    <ele>276</ele>
    <time>2026-07-23T19:22:14Z</time>
    <speed>0.68</speed>
  </trkpt>
  <trkpt lat="50.605081" lon="-3.864241">
    <ele>278</ele>
    <time>2026-07-23T19:22:25Z</time>
    <speed>1.55</speed>
  </trkpt>
  <trkpt lat="50.604934" lon="-3.864296">
    <ele>281</ele>
    <time>2026-07-23T19:22:36Z</time>
    <speed>1.3299999</speed>
  </trkpt>
  <trkpt lat="50.604801" lon="-3.864334">
    <ele>280</ele>
    <time>2026-07-23T19:22:47Z</time>
    <speed>0.93</speed>
  </trkpt>
  <trkpt lat="50.604668" lon="-3.864355">
    <ele>277</ele>
    <time>2026-07-23T19:22:58Z</time>
    <speed>1.4</speed>
  </trkpt>
  <trkpt lat="50.604514" lon="-3.864302">
    <ele>278</ele>
    <time>2026-07-23T19:23:09Z</time>
    <speed>1.6899999</speed>
  </trkpt>
  <trkpt lat="50.604385" lon="-3.864261">
    <ele>278</ele>
    <time>2026-07-23T19:23:20Z</time>
    <speed>0.84999996</speed>
  </trkpt>
  <trkpt lat="50.604303" lon="-3.864343">
    <ele>279</ele>
    <time>2026-07-23T19:24:03Z</time>
    <speed>1.25</speed>
  </trkpt>
  <trkpt lat="50.604178" lon="-3.864310">
    <ele>281</ele>
    <time>2026-07-23T19:24:14Z</time>
    <speed>1.18</speed>
  </trkpt>
  <trkpt lat="50.604072" lon="-3.864327">
    <ele>282</ele>
    <time>2026-07-23T19:24:25Z</time>
    <speed>1.28</speed>
  </trkpt>
  <trkpt lat="50.603946" lon="-3.864367">
    <ele>278</ele>
    <time>2026-07-23T19:24:36Z</time>
    <speed>1.4699999</speed>
  </trkpt>
  <trkpt lat="50.603808" lon="-3.864414">
    <ele>283</ele>
    <time>2026-07-23T19:24:47Z</time>
    <speed>1.26</speed>
  </trkpt>
  <trkpt lat="50.603679" lon="-3.864433">
    <ele>283</ele>
    <time>2026-07-23T19:24:58Z</time>
    <speed>1.41</speed>
  </trkpt>
  <trkpt lat="50.603539" lon="-3.864461">
    <ele>284</ele>
    <time>2026-07-23T19:25:09Z</time>
    <speed>1.24</speed>
  </trkpt>
  <trkpt lat="50.603415" lon="-3.864524">
    <ele>284</ele>
    <time>2026-07-23T19:25:20Z</time>
    <speed>1.3399999</speed>
  </trkpt>
  <trkpt lat="50.603276" lon="-3.864549">
    <ele>279</ele>
    <time>2026-07-23T19:25:31Z</time>
    <speed>1.4</speed>
  </trkpt>
  <trkpt lat="50.603146" lon="-3.864588">
    <ele>288</ele>
    <time>2026-07-23T19:25:42Z</time>
    <speed>1.29</speed>
  </trkpt>
  <trkpt lat="50.603015" lon="-3.864642">
    <ele>286</ele>
    <time>2026-07-23T19:25:53Z</time>
    <speed>1.56</speed>
  </trkpt>
  <trkpt lat="50.602861" lon="-3.864668">
    <ele>283</ele>
    <time>2026-07-23T19:26:04Z</time>
    <speed>1.56</speed>
  </trkpt>
  <trkpt lat="50.602715" lon="-3.864686">
    <ele>287</ele>
    <time>2026-07-23T19:26:15Z</time>
    <speed>1.14</speed>
  </trkpt>
  <trkpt lat="50.602571" lon="-3.864650">
    <ele>288</ele>
    <time>2026-07-23T19:26:26Z</time>
    <speed>1.4399999</speed>
  </trkpt>
  <trkpt lat="50.602441" lon="-3.864635">
    <ele>288</ele>
    <time>2026-07-23T19:26:37Z</time>
    <speed>1.13</speed>
  </trkpt>
  <trkpt lat="50.602352" lon="-3.864697">
    <ele>291</ele>
    <time>2026-07-23T19:26:48Z</time>
    <speed>1.28</speed>
  </trkpt>
  <trkpt lat="50.602333" lon="-3.864883">
    <ele>289</ele>
    <time>2026-07-23T19:26:59Z</time>
    <speed>1.4599999</speed>
  </trkpt>
  <trkpt lat="50.602302" lon="-3.865068">
    <ele>291</ele>
    <time>2026-07-23T19:27:10Z</time>
    <speed>1.0699999</speed>
  </trkpt>
  <trkpt lat="50.602285" lon="-3.865245">
    <ele>290</ele>
    <time>2026-07-23T19:27:21Z</time>
    <speed>1.24</speed>
  </trkpt>
  <trkpt lat="50.602230" lon="-3.865366">
    <ele>291</ele>
    <time>2026-07-23T19:27:34Z</time>
    <speed>1.14</speed>
  </trkpt>
  <trkpt lat="50.602204" lon="-3.865536">
    <ele>294</ele>
    <time>2026-07-23T19:27:45Z</time>
    <speed>1.18</speed>
  </trkpt>
  <trkpt lat="50.602181" lon="-3.865702">
    <ele>288</ele>
    <time>2026-07-23T19:27:56Z</time>
    <speed>1.43</speed>
  </trkpt>
  <trkpt lat="50.602126" lon="-3.865839">
    <ele>294</ele>
    <time>2026-07-23T19:28:07Z</time>
    <speed>0.97999996</speed>
  </trkpt>
  <trkpt lat="50.602118" lon="-3.865996">
    <ele>291</ele>
    <time>2026-07-23T19:28:20Z</time>
    <speed>0.9</speed>
  </trkpt>
  <trkpt lat="50.602093" lon="-3.866145">
    <ele>293</ele>
    <time>2026-07-23T19:28:35Z</time>
    <speed>1.09</speed>
  </trkpt>
  <trkpt lat="50.602079" lon="-3.866294">
    <ele>299</ele>
    <time>2026-07-23T19:28:47Z</time>
    <speed>0.96999997</speed>
  </trkpt>
  <trkpt lat="50.602061" lon="-3.866434">
    <ele>301</ele>
    <time>2026-07-23T19:28:59Z</time>
    <speed>0.76</speed>
  </trkpt>
  <trkpt lat="50.602063" lon="-3.866590">
    <ele>294</ele>
    <time>2026-07-23T19:29:17Z</time>
    <speed>0.87</speed>
  </trkpt>
  <trkpt lat="50.602002" lon="-3.866709">
    <ele>302</ele>
    <time>2026-07-23T19:29:28Z</time>
    <speed>1.27</speed>
  </trkpt>
  <trkpt lat="50.601990" lon="-3.866857">
    <ele>299</ele>
    <time>2026-07-23T19:29:43Z</time>
    <speed>0.94</speed>
  </trkpt>
  <trkpt lat="50.601980" lon="-3.867000">
    <ele>307</ele>
    <time>2026-07-23T19:29:57Z</time>
    <speed>1.76</speed>
  </trkpt>
  <trkpt lat="50.601949" lon="-3.867134">
    <ele>302</ele>
    <time>2026-07-23T19:30:13Z</time>
    <speed>0.65999997</speed>
  </trkpt>
  <trkpt lat="50.601916" lon="-3.867276">
    <ele>308</ele>
    <time>2026-07-23T19:30:27Z</time>
    <speed>0.91999996</speed>
  </trkpt>
  <trkpt lat="50.601831" lon="-3.867341">
    <ele>309</ele>
    <time>2026-07-23T19:30:40Z</time>
    <speed>1.23</speed>
  </trkpt>
  <trkpt lat="50.601831" lon="-3.867487">
    <ele>313</ele>
    <time>2026-07-23T19:30:59Z</time>
    <speed>0.78</speed>
  </trkpt>
  <trkpt lat="50.601840" lon="-3.867674">
    <ele>310</ele>
    <time>2026-07-23T19:31:10Z</time>
    <speed>0.83</speed>
  </trkpt>
  <trkpt lat="50.601827" lon="-3.867826">
    <ele>315</ele>
    <time>2026-07-23T19:31:25Z</time>
    <speed>0.35999998</speed>
  </trkpt>
  <trkpt lat="50.601799" lon="-3.867968">
    <ele>318</ele>
    <time>2026-07-23T19:31:38Z</time>
    <speed>0.11</speed>
  </trkpt>
  <trkpt lat="50.601784" lon="-3.868111">
    <ele>318</ele>
    <time>2026-07-23T19:31:49Z</time>
    <speed>0.83</speed>
  </trkpt>
  <trkpt lat="50.601779" lon="-3.868255">
    <ele>316</ele>
    <time>2026-07-23T19:32:00Z</time>
    <speed>0.21</speed>
  </trkpt>
  <trkpt lat="50.601712" lon="-3.868375">
    <ele>316</ele>
    <time>2026-07-23T19:32:14Z</time>
    <speed>1.39</speed>
  </trkpt>
  <trkpt lat="50.601752" lon="-3.868502">
    <ele>321</ele>
    <time>2026-07-23T19:32:29Z</time>
    <speed>0.83</speed>
  </trkpt>
  <trkpt lat="50.601704" lon="-3.868643">
    <ele>320</ele>
    <time>2026-07-23T19:32:40Z</time>
    <speed>1.02</speed>
  </trkpt>
  <trkpt lat="50.601620" lon="-3.868773">
    <ele>321</ele>
    <time>2026-07-23T19:32:51Z</time>
    <speed>0.78999996</speed>
  </trkpt>
  <trkpt lat="50.601549" lon="-3.868924">
    <ele>325</ele>
    <time>2026-07-23T19:33:02Z</time>
    <speed>1.6999999</speed>
  </trkpt>
  <trkpt lat="50.601432" lon="-3.869067">
    <ele>323</ele>
    <time>2026-07-23T19:33:13Z</time>
    <speed>1.41</speed>
  </trkpt>
  <trkpt lat="50.601303" lon="-3.869252">
    <ele>324</ele>
    <time>2026-07-23T19:33:24Z</time>
    <speed>2.54</speed>
  </trkpt>
  <trkpt lat="50.601232" lon="-3.869437">
    <ele>327</ele>
    <time>2026-07-23T19:33:35Z</time>
    <speed>1.52</speed>
  </trkpt>
  <trkpt lat="50.601171" lon="-3.869611">
    <ele>322</ele>
    <time>2026-07-23T19:33:46Z</time>
    <speed>1.88</speed>
  </trkpt>
  <trkpt lat="50.601079" lon="-3.869794">
    <ele>326</ele>
    <time>2026-07-23T19:33:57Z</time>
    <speed>1.13</speed>
  </trkpt>
  <trkpt lat="50.600980" lon="-3.869983">
    <ele>324</ele>
    <time>2026-07-23T19:34:08Z</time>
    <speed>2.23</speed>
  </trkpt>
  <trkpt lat="50.600864" lon="-3.870083">
    <ele>324</ele>
    <time>2026-07-23T19:34:19Z</time>
    <speed>1.3199999</speed>
  </trkpt>
  <trkpt lat="50.600751" lon="-3.870168">
    <ele>322</ele>
    <time>2026-07-23T19:34:30Z</time>
    <speed>1.2099999</speed>
  </trkpt>
  <trkpt lat="50.600630" lon="-3.870254">
    <ele>322</ele>
    <time>2026-07-23T19:34:41Z</time>
    <speed>1.48</speed>
  </trkpt>
  <trkpt lat="50.600519" lon="-3.870342">
    <ele>320</ele>
    <time>2026-07-23T19:34:52Z</time>
    <speed>1.3199999</speed>
  </trkpt>
  <trkpt lat="50.600398" lon="-3.870390">
    <ele>321</ele>
    <time>2026-07-23T19:35:03Z</time>
    <speed>0.96</speed>
  </trkpt>
  <trkpt lat="50.600268" lon="-3.870480">
    <ele>319</ele>
    <time>2026-07-23T19:35:14Z</time>
    <speed>1.42</speed>
  </trkpt>
  <trkpt lat="50.600129" lon="-3.870540">
    <ele>320</ele>
    <time>2026-07-23T19:35:25Z</time>
    <speed>1.5799999</speed>
  </trkpt>
  <trkpt lat="50.600027" lon="-3.870692">
    <ele>316</ele>
    <time>2026-07-23T19:35:36Z</time>
    <speed>1.7099999</speed>
  </trkpt>
  <trkpt lat="50.599986" lon="-3.870918">
    <ele>317</ele>
    <time>2026-07-23T19:35:47Z</time>
    <speed>1.13</speed>
  </trkpt>
  <trkpt lat="50.600001" lon="-3.871114">
    <ele>315</ele>
    <time>2026-07-23T19:35:58Z</time>
    <speed>1.24</speed>
  </trkpt>
  <trkpt lat="50.599998" lon="-3.871333">
    <ele>318</ele>
    <time>2026-07-23T19:36:09Z</time>
    <speed>1.25</speed>
  </trkpt>
  <trkpt lat="50.600008" lon="-3.871552">
    <ele>316</ele>
    <time>2026-07-23T19:36:20Z</time>
    <speed>1.24</speed>
  </trkpt>
  <trkpt lat="50.599997" lon="-3.871768">
    <ele>317</ele>
    <time>2026-07-23T19:36:31Z</time>
    <speed>1.13</speed>
  </trkpt>
  <trkpt lat="50.600009" lon="-3.871990">
    <ele>314</ele>
    <time>2026-07-23T19:36:42Z</time>
    <speed>1.3</speed>
  </trkpt>
  <trkpt lat="50.600001" lon="-3.872224">
    <ele>312</ele>
    <time>2026-07-23T19:36:53Z</time>
    <speed>1.49</speed>
  </trkpt>
  <trkpt lat="50.599996" lon="-3.872400">
    <ele>315</ele>
    <time>2026-07-23T19:37:04Z</time>
    <speed>1.05</speed>
  </trkpt>
  <trkpt lat="50.599967" lon="-3.872545">
    <ele>312</ele>
    <time>2026-07-23T19:38:43Z</time>
    <speed>0.77</speed>
  </trkpt>
  <trkpt lat="50.599942" lon="-3.872687">
    <ele>312</ele>
    <time>2026-07-23T19:38:54Z</time>
    <speed>0.78999996</speed>
  </trkpt>
  <trkpt lat="50.599908" lon="-3.872894">
    <ele>312</ele>
    <time>2026-07-23T19:39:05Z</time>
    <speed>1.1899999</speed>
  </trkpt>
  <trkpt lat="50.599856" lon="-3.873075">
    <ele>308</ele>
    <time>2026-07-23T19:39:16Z</time>
    <speed>1.23</speed>
  </trkpt>
  <trkpt lat="50.599786" lon="-3.873274">
    <ele>307</ele>
    <time>2026-07-23T19:39:27Z</time>
    <speed>1.36</speed>
  </trkpt>
  <trkpt lat="50.599699" lon="-3.873452">
    <ele>307</ele>
    <time>2026-07-23T19:39:38Z</time>
    <speed>1.4499999</speed>
  </trkpt>
  <trkpt lat="50.599653" lon="-3.873649">
    <ele>302</ele>
    <time>2026-07-23T19:39:49Z</time>
    <speed>1.65</speed>
  </trkpt>
  <trkpt lat="50.599590" lon="-3.873827">
    <ele>303</ele>
    <time>2026-07-23T19:40:00Z</time>
    <speed>1.37</speed>
  </trkpt>
  <trkpt lat="50.599519" lon="-3.874000">
    <ele>301</ele>
    <time>2026-07-23T19:40:11Z</time>
    <speed>1.8499999</speed>
  </trkpt>
  <trkpt lat="50.599434" lon="-3.874169">
    <ele>302</ele>
    <time>2026-07-23T19:40:22Z</time>
    <speed>1.13</speed>
  </trkpt>
  <trkpt lat="50.599354" lon="-3.874323">
    <ele>294</ele>
    <time>2026-07-23T19:40:33Z</time>
    <speed>1.39</speed>
  </trkpt>
  <trkpt lat="50.599241" lon="-3.874460">
    <ele>298</ele>
    <time>2026-07-23T19:40:44Z</time>
    <speed>1.3</speed>
  </trkpt>
  <trkpt lat="50.599153" lon="-3.874598">
    <ele>297</ele>
    <time>2026-07-23T19:40:55Z</time>
    <speed>1.6899999</speed>
  </trkpt>
  <trkpt lat="50.599037" lon="-3.874758">
    <ele>295</ele>
    <time>2026-07-23T19:41:06Z</time>
    <speed>1.5699999</speed>
  </trkpt>
  <trkpt lat="50.598928" lon="-3.874919">
    <ele>294</ele>
    <time>2026-07-23T19:41:17Z</time>
    <speed>0.97999996</speed>
  </trkpt>
  <trkpt lat="50.598834" lon="-3.875062">
    <ele>295</ele>
    <time>2026-07-23T19:41:28Z</time>
    <speed>1.3</speed>
  </trkpt>
  <trkpt lat="50.598772" lon="-3.875247">
    <ele>293</ele>
    <time>2026-07-23T19:41:39Z</time>
    <speed>1.12</speed>
  </trkpt>
  <trkpt lat="50.598672" lon="-3.875369">
    <ele>293</ele>
    <time>2026-07-23T19:41:50Z</time>
    <speed>0.42</speed>
  </trkpt>
  <trkpt lat="50.598570" lon="-3.875509">
    <ele>289</ele>
    <time>2026-07-23T19:42:01Z</time>
    <speed>0.96</speed>
  </trkpt>
  <trkpt lat="50.598454" lon="-3.875656">
    <ele>290</ele>
    <time>2026-07-23T19:42:12Z</time>
    <speed>1.16</speed>
  </trkpt>
  <trkpt lat="50.598354" lon="-3.875807">
    <ele>290</ele>
    <time>2026-07-23T19:42:23Z</time>
    <speed>1.51</speed>
  </trkpt>
  <trkpt lat="50.598237" lon="-3.875926">
    <ele>288</ele>
    <time>2026-07-23T19:42:34Z</time>
    <speed>1.37</speed>
  </trkpt>
  <trkpt lat="50.598121" lon="-3.876087">
    <ele>287</ele>
    <time>2026-07-23T19:42:45Z</time>
    <speed>1.18</speed>
  </trkpt>
  <trkpt lat="50.597995" lon="-3.876196">
    <ele>280</ele>
    <time>2026-07-23T19:42:56Z</time>
    <speed>1.28</speed>
  </trkpt>
  <trkpt lat="50.597875" lon="-3.876291">
    <ele>286</ele>
    <time>2026-07-23T19:43:07Z</time>
    <speed>1.26</speed>
  </trkpt>
  <trkpt lat="50.597738" lon="-3.876324">
    <ele>286</ele>
    <time>2026-07-23T19:43:18Z</time>
    <speed>1.25</speed>
  </trkpt>
  <trkpt lat="50.597591" lon="-3.876348">
    <ele>287</ele>
    <time>2026-07-23T19:43:29Z</time>
    <speed>0.9</speed>
  </trkpt>
  <trkpt lat="50.597450" lon="-3.876390">
    <ele>288</ele>
    <time>2026-07-23T19:43:40Z</time>
    <speed>1.49</speed>
  </trkpt>
  <trkpt lat="50.597336" lon="-3.876462">
    <ele>286</ele>
    <time>2026-07-23T19:43:51Z</time>
    <speed>1.14</speed>
  </trkpt>
  <trkpt lat="50.597211" lon="-3.876511">
    <ele>288</ele>
    <time>2026-07-23T19:44:02Z</time>
    <speed>1.17</speed>
  </trkpt>
  <trkpt lat="50.597042" lon="-3.876570">
    <ele>285</ele>
    <time>2026-07-23T19:44:13Z</time>
    <speed>1.04</speed>
  </trkpt>
  <trkpt lat="50.596876" lon="-3.876561">
    <ele>289</ele>
    <time>2026-07-23T19:44:24Z</time>
    <speed>1.12</speed>
  </trkpt>
  <trkpt lat="50.596731" lon="-3.876612">
    <ele>283</ele>
    <time>2026-07-23T19:44:35Z</time>
    <speed>1.0699999</speed>
  </trkpt>
  <trkpt lat="50.596603" lon="-3.876640">
    <ele>288</ele>
    <time>2026-07-23T19:44:46Z</time>
    <speed>0.84999996</speed>
  </trkpt>
  <trkpt lat="50.596464" lon="-3.876672">
    <ele>283</ele>
    <time>2026-07-23T19:44:57Z</time>
    <speed>0.83</speed>
  </trkpt>
  <trkpt lat="50.596323" lon="-3.876728">
    <ele>281</ele>
    <time>2026-07-23T19:45:08Z</time>
    <speed>1.26</speed>
  </trkpt>
  <trkpt lat="50.596173" lon="-3.876755">
    <ele>284</ele>
    <time>2026-07-23T19:45:19Z</time>
    <speed>1.23</speed>
  </trkpt>
  <trkpt lat="50.596031" lon="-3.876820">
    <ele>283</ele>
    <time>2026-07-23T19:45:30Z</time>
    <speed>1.11</speed>
  </trkpt>
  <trkpt lat="50.595904" lon="-3.876865">
    <ele>288</ele>
    <time>2026-07-23T19:45:41Z</time>
    <speed>1.38</speed>
  </trkpt>
  <trkpt lat="50.595768" lon="-3.876951">
    <ele>288</ele>
    <time>2026-07-23T19:45:52Z</time>
    <speed>1.0799999</speed>
  </trkpt>
  <trkpt lat="50.595634" lon="-3.877031">
    <ele>285</ele>
    <time>2026-07-23T19:46:03Z</time>
    <speed>0.83</speed>
  </trkpt>
  <trkpt lat="50.595524" lon="-3.877164">
    <ele>285</ele>
    <time>2026-07-23T19:46:14Z</time>
    <speed>1.24</speed>
  </trkpt>
  <trkpt lat="50.595394" lon="-3.877255">
    <ele>285</ele>
    <time>2026-07-23T19:46:25Z</time>
    <speed>1.05</speed>
  </trkpt>
  <trkpt lat="50.595281" lon="-3.877353">
    <ele>284</ele>
    <time>2026-07-23T19:46:36Z</time>
    <speed>1.49</speed>
  </trkpt>
  <trkpt lat="50.595138" lon="-3.877444">
    <ele>284</ele>
    <time>2026-07-23T19:46:47Z</time>
    <speed>1.13</speed>
  </trkpt>
  <trkpt lat="50.595080" lon="-3.877622">
    <ele>282</ele>
    <time>2026-07-23T19:46:58Z</time>
    <speed>1.2099999</speed>
  </trkpt>
  <trkpt lat="50.595026" lon="-3.877826">
    <ele>282</ele>
    <time>2026-07-23T19:47:09Z</time>
    <speed>1.5999999</speed>
  </trkpt>
  <trkpt lat="50.594975" lon="-3.878034">
    <ele>283</ele>
    <time>2026-07-23T19:47:20Z</time>
    <speed>0.71999997</speed>
  </trkpt>
  <trkpt lat="50.594953" lon="-3.878187">
    <ele>273</ele>
    <time>2026-07-23T19:47:31Z</time>
    <speed>1.14</speed>
  </trkpt>
  <trkpt lat="50.594899" lon="-3.878412">
    <ele>284</ele>
    <time>2026-07-23T19:47:42Z</time>
    <speed>1.37</speed>
  </trkpt>
  <trkpt lat="50.594883" lon="-3.878638">
    <ele>278</ele>
    <time>2026-07-23T19:47:53Z</time>
    <speed>0.78</speed>
  </trkpt>
  <trkpt lat="50.594878" lon="-3.878829">
    <ele>279</ele>
    <time>2026-07-23T19:48:04Z</time>
    <speed>0.93</speed>
  </trkpt>
  <trkpt lat="50.594849" lon="-3.879035">
    <ele>277</ele>
    <time>2026-07-23T19:48:15Z</time>
    <speed>1.0799999</speed>
  </trkpt>
  <trkpt lat="50.594821" lon="-3.879259">
    <ele>279</ele>
    <time>2026-07-23T19:48:26Z</time>
    <speed>0.77</speed>
  </trkpt>
  <trkpt lat="50.594807" lon="-3.879495">
    <ele>273</ele>
    <time>2026-07-23T19:48:37Z</time>
    <speed>0.77</speed>
  </trkpt>
  <trkpt lat="50.594789" lon="-3.879708">
    <ele>277</ele>
    <time>2026-07-23T19:48:48Z</time>
    <speed>1.4399999</speed>
  </trkpt>
  <trkpt lat="50.594765" lon="-3.879886">
    <ele>275</ele>
    <time>2026-07-23T19:48:59Z</time>
    <speed>1.02</speed>
  </trkpt>
  <trkpt lat="50.594746" lon="-3.880120">
    <ele>276</ele>
    <time>2026-07-23T19:49:10Z</time>
    <speed>1.28</speed>
  </trkpt>
  <trkpt lat="50.594756" lon="-3.880306">
    <ele>269</ele>
    <time>2026-07-23T19:49:21Z</time>
    <speed>0.97999996</speed>
  </trkpt>
  <trkpt lat="50.594715" lon="-3.880532">
    <ele>276</ele>
    <time>2026-07-23T19:49:32Z</time>
    <speed>1.27</speed>
  </trkpt>
  <trkpt lat="50.594695" lon="-3.880755">
    <ele>269</ele>
    <time>2026-07-23T19:49:43Z</time>
    <speed>1.37</speed>
  </trkpt>
  <trkpt lat="50.594710" lon="-3.880952">
    <ele>270</ele>
    <time>2026-07-23T19:49:54Z</time>
    <speed>0.65999997</speed>
  </trkpt>
  <trkpt lat="50.594672" lon="-3.881102">
    <ele>270</ele>
    <time>2026-07-23T19:50:05Z</time>
    <speed>1.23</speed>
  </trkpt>
  <trkpt lat="50.594645" lon="-3.881258">
    <ele>266</ele>
    <time>2026-07-23T19:50:16Z</time>
    <speed>1.1899999</speed>
  </trkpt>
  <trkpt lat="50.594625" lon="-3.881461">
    <ele>263</ele>
    <time>2026-07-23T19:50:27Z</time>
    <speed>1.11</speed>
  </trkpt>
  <trkpt lat="50.594635" lon="-3.881708">
    <ele>266</ele>
    <time>2026-07-23T19:50:38Z</time>
    <speed>1.7199999</speed>
  </trkpt>
  <trkpt lat="50.594571" lon="-3.881924">
    <ele>262</ele>
    <time>2026-07-23T19:50:49Z</time>
    <speed>1.88</speed>
  </trkpt>
  <trkpt lat="50.594542" lon="-3.882156">
    <ele>264</ele>
    <time>2026-07-23T19:51:00Z</time>
    <speed>1.38</speed>
  </trkpt>
  <trkpt lat="50.594524" lon="-3.882380">
    <ele>263</ele>
    <time>2026-07-23T19:51:11Z</time>
    <speed>1.53</speed>
  </trkpt>
  <trkpt lat="50.594447" lon="-3.882545">
    <ele>264</ele>
    <time>2026-07-23T19:51:22Z</time>
    <speed>1.0799999</speed>
  </trkpt>
 </trkseg>
</trk>
</gpx>
