<?xml version="1.0" encoding="UTF-8" ?>
<gpx
 version="1.0"
 creator="Maverick - http://www.maverickgps.com"
 xmlns:xsi="http://www.w3.org/2001/XMLSchema-instance"
 xmlns="http://www.topografix.com/GPX/1/0"
 xsi:schemaLocation="http://www.topografix.com/GPX/1/0 http://www.topografix.com/GPX/1/0/gpx.xsd">
<time>2026-08-06T17:17:27Z</time>
<trk>
 <name>2026-08-06 @ 18-17-27</name>
 <trkseg>
  <trkpt lat="50.488352" lon="-4.004484">
    <ele>183</ele>
    <time>2026-08-06T17:17:26Z</time>
    <speed>0.96</speed>
  </trkpt>
  <trkpt lat="50.488373" lon="-4.004340">
    <ele>189</ele>
    <time>2026-08-06T17:17:38Z</time>
    <speed>0.97999996</speed>
  </trkpt>
  <trkpt lat="50.488369" lon="-4.004198">
    <ele>190</ele>
    <time>2026-08-06T17:17:49Z</time>
    <speed>0.94</speed>
  </trkpt>
  <trkpt lat="50.488404" lon="-4.004052">
    <ele>189</ele>
    <time>2026-08-06T17:18:00Z</time>
    <speed>0.84</speed>
  </trkpt>
  <trkpt lat="50.488435" lon="-4.003916">
    <ele>188</ele>
    <time>2026-08-06T17:18:13Z</time>
    <speed>0.84</speed>
  </trkpt>
  <trkpt lat="50.488432" lon="-4.003767">
    <ele>186</ele>
    <time>2026-08-06T17:18:26Z</time>
    <speed>0.84999996</speed>
  </trkpt>
  <trkpt lat="50.488447" lon="-4.003616">
    <ele>195</ele>
    <time>2026-08-06T17:18:38Z</time>
    <speed>0.94</speed>
  </trkpt>
  <trkpt lat="50.488491" lon="-4.003460">
    <ele>196</ele>
    <time>2026-08-06T17:18:49Z</time>
    <speed>0.71999997</speed>
  </trkpt>
  <trkpt lat="50.488516" lon="-4.003318">
    <ele>187</ele>
    <time>2026-08-06T17:19:03Z</time>
    <speed>1.02</speed>
  </trkpt>
  <trkpt lat="50.488548" lon="-4.003178">
    <ele>190</ele>
    <time>2026-08-06T17:19:14Z</time>
    <speed>1.01</speed>
  </trkpt>
  <trkpt lat="50.488559" lon="-4.003033">
    <ele>196</ele>
    <time>2026-08-06T17:19:25Z</time>
    <speed>1.12</speed>
  </trkpt>
  <trkpt lat="50.488592" lon="-4.002853">
    <ele>194</ele>
    <time>2026-08-06T17:19:36Z</time>
    <speed>1.3199999</speed>
  </trkpt>
  <trkpt lat="50.488660" lon="-4.002705">
    <ele>198</ele>
    <time>2026-08-06T17:19:47Z</time>
    <speed>1.06</speed>
  </trkpt>
  <trkpt lat="50.488713" lon="-4.002538">
    <ele>195</ele>
    <time>2026-08-06T17:19:58Z</time>
    <speed>0.94</speed>
  </trkpt>
  <trkpt lat="50.488777" lon="-4.002429">
    <ele>196</ele>
    <time>2026-08-06T17:20:09Z</time>
    <speed>1.25</speed>
  </trkpt>
  <trkpt lat="50.488840" lon="-4.002307">
    <ele>199</ele>
    <time>2026-08-06T17:20:20Z</time>
    <speed>1.02</speed>
  </trkpt>
  <trkpt lat="50.488908" lon="-4.002174">
    <ele>195</ele>
    <time>2026-08-06T17:20:31Z</time>
    <speed>0.90999997</speed>
  </trkpt>
  <trkpt lat="50.488986" lon="-4.002090">
    <ele>200</ele>
    <time>2026-08-06T17:20:42Z</time>
    <speed>1.38</speed>
  </trkpt>
  <trkpt lat="50.489062" lon="-4.001996">
    <ele>197</ele>
    <time>2026-08-06T17:20:53Z</time>
    <speed>1.04</speed>
  </trkpt>
  <trkpt lat="50.489149" lon="-4.001910">
    <ele>202</ele>
    <time>2026-08-06T17:21:06Z</time>
    <speed>1.68</speed>
  </trkpt>
  <trkpt lat="50.489243" lon="-4.001803">
    <ele>202</ele>
    <time>2026-08-06T17:21:17Z</time>
    <speed>0.95</speed>
  </trkpt>
  <trkpt lat="50.489336" lon="-4.001776">
    <ele>204</ele>
    <time>2026-08-06T17:21:34Z</time>
    <speed>0.91999996</speed>
  </trkpt>
  <trkpt lat="50.489349" lon="-4.001606">
    <ele>200</ele>
    <time>2026-08-06T17:21:45Z</time>
    <speed>1.38</speed>
  </trkpt>
  <trkpt lat="50.489359" lon="-4.001465">
    <ele>205</ele>
    <time>2026-08-06T17:21:57Z</time>
    <speed>0.84</speed>
  </trkpt>
  <trkpt lat="50.489430" lon="-4.001366">
    <ele>206</ele>
    <time>2026-08-06T17:22:13Z</time>
    <speed>1.39</speed>
  </trkpt>
  <trkpt lat="50.489549" lon="-4.001303">
    <ele>206</ele>
    <time>2026-08-06T17:22:24Z</time>
    <speed>1.24</speed>
  </trkpt>
  <trkpt lat="50.489621" lon="-4.001189">
    <ele>206</ele>
    <time>2026-08-06T17:22:35Z</time>
    <speed>0.89</speed>
  </trkpt>
  <trkpt lat="50.489680" lon="-4.001049">
    <ele>208</ele>
    <time>2026-08-06T17:22:46Z</time>
    <speed>1.18</speed>
  </trkpt>
  <trkpt lat="50.489762" lon="-4.000958">
    <ele>204</ele>
    <time>2026-08-06T17:22:57Z</time>
    <speed>1.12</speed>
  </trkpt>
  <trkpt lat="50.489809" lon="-4.000824">
    <ele>209</ele>
    <time>2026-08-06T17:23:21Z</time>
    <speed>0.82</speed>
  </trkpt>
  <trkpt lat="50.489848" lon="-4.000677">
    <ele>210</ele>
    <time>2026-08-06T17:23:34Z</time>
    <speed>0.96</speed>
  </trkpt>
  <trkpt lat="50.489855" lon="-4.000534">
    <ele>213</ele>
    <time>2026-08-06T17:23:46Z</time>
    <speed>0.83</speed>
  </trkpt>
  <trkpt lat="50.489893" lon="-4.000395">
    <ele>214</ele>
    <time>2026-08-06T17:24:01Z</time>
    <speed>0.96999997</speed>
  </trkpt>
  <trkpt lat="50.489931" lon="-4.000246">
    <ele>214</ele>
    <time>2026-08-06T17:24:12Z</time>
    <speed>0.84999996</speed>
  </trkpt>
  <trkpt lat="50.489983" lon="-4.000122">
    <ele>217</ele>
    <time>2026-08-06T17:24:24Z</time>
    <speed>0.95</speed>
  </trkpt>
  <trkpt lat="50.490016" lon="-3.999956">
    <ele>219</ele>
    <time>2026-08-06T17:24:35Z</time>
    <speed>1.22</speed>
  </trkpt>
  <trkpt lat="50.490072" lon="-3.999846">
    <ele>213</ele>
    <time>2026-08-06T17:24:46Z</time>
    <speed>1.35</speed>
  </trkpt>
  <trkpt lat="50.490138" lon="-3.999722">
    <ele>221</ele>
    <time>2026-08-06T17:25:00Z</time>
    <speed>2.08</speed>
  </trkpt>
  <trkpt lat="50.490197" lon="-3.999606">
    <ele>218</ele>
    <time>2026-08-06T17:25:12Z</time>
    <speed>0.89</speed>
  </trkpt>
  <trkpt lat="50.490239" lon="-3.999477">
    <ele>220</ele>
    <time>2026-08-06T17:25:26Z</time>
    <speed>1.04</speed>
  </trkpt>
  <trkpt lat="50.490286" lon="-3.999341">
    <ele>221</ele>
    <time>2026-08-06T17:25:58Z</time>
    <speed>1.23</speed>
  </trkpt>
  <trkpt lat="50.490327" lon="-3.999184">
    <ele>222</ele>
    <time>2026-08-06T17:26:09Z</time>
    <speed>0.98999995</speed>
  </trkpt>
  <trkpt lat="50.490355" lon="-3.999039">
    <ele>224</ele>
    <time>2026-08-06T17:26:23Z</time>
    <speed>0.77</speed>
  </trkpt>
  <trkpt lat="50.490351" lon="-3.998891">
    <ele>226</ele>
    <time>2026-08-06T17:26:38Z</time>
    <speed>0.75</speed>
  </trkpt>
  <trkpt lat="50.490390" lon="-3.998755">
    <ele>224</ele>
    <time>2026-08-06T17:26:49Z</time>
    <speed>1.15</speed>
  </trkpt>
  <trkpt lat="50.490405" lon="-3.998607">
    <ele>230</ele>
    <time>2026-08-06T17:27:04Z</time>
    <speed>0.44</speed>
  </trkpt>
  <trkpt lat="50.490445" lon="-3.998469">
    <ele>226</ele>
    <time>2026-08-06T17:27:19Z</time>
    <speed>0.88</speed>
  </trkpt>
  <trkpt lat="50.490479" lon="-3.998334">
    <ele>229</ele>
    <time>2026-08-06T17:27:31Z</time>
    <speed>0.69</speed>
  </trkpt>
  <trkpt lat="50.490512" lon="-3.998195">
    <ele>232</ele>
    <time>2026-08-06T17:27:43Z</time>
    <speed>0.93</speed>
  </trkpt>
  <trkpt lat="50.490563" lon="-3.998067">
    <ele>232</ele>
    <time>2026-08-06T17:27:59Z</time>
    <speed>0.85999995</speed>
  </trkpt>
  <trkpt lat="50.490573" lon="-3.997925">
    <ele>228</ele>
    <time>2026-08-06T17:28:18Z</time>
    <speed>0.95</speed>
  </trkpt>
  <trkpt lat="50.490600" lon="-3.997773">
    <ele>233</ele>
    <time>2026-08-06T17:28:29Z</time>
    <speed>1.2099999</speed>
  </trkpt>
  <trkpt lat="50.490646" lon="-3.997649">
    <ele>233</ele>
    <time>2026-08-06T17:28:40Z</time>
    <speed>0.82</speed>
  </trkpt>
  <trkpt lat="50.490684" lon="-3.997519">
    <ele>232</ele>
    <time>2026-08-06T17:28:54Z</time>
    <speed>1.1999999</speed>
  </trkpt>
  <trkpt lat="50.490725" lon="-3.997392">
    <ele>236</ele>
    <time>2026-08-06T17:29:11Z</time>
    <speed>0.82</speed>
  </trkpt>
  <trkpt lat="50.490769" lon="-3.997251">
    <ele>237</ele>
    <time>2026-08-06T17:29:22Z</time>
    <speed>1.1</speed>
  </trkpt>
  <trkpt lat="50.490808" lon="-3.997116">
    <ele>231</ele>
    <time>2026-08-06T17:29:35Z</time>
    <speed>1.38</speed>
  </trkpt>
  <trkpt lat="50.490848" lon="-3.996977">
    <ele>239</ele>
    <time>2026-08-06T17:29:48Z</time>
    <speed>0.97999996</speed>
  </trkpt>
  <trkpt lat="50.490892" lon="-3.996851">
    <ele>238</ele>
    <time>2026-08-06T17:30:07Z</time>
    <speed>0.79999995</speed>
  </trkpt>
  <trkpt lat="50.490921" lon="-3.996714">
    <ele>241</ele>
    <time>2026-08-06T17:30:20Z</time>
    <speed>1.28</speed>
  </trkpt>
  <trkpt lat="50.490951" lon="-3.996571">
    <ele>241</ele>
    <time>2026-08-06T17:30:32Z</time>
    <speed>0.26999998</speed>
  </trkpt>
  <trkpt lat="50.490993" lon="-3.996439">
    <ele>239</ele>
    <time>2026-08-06T17:30:50Z</time>
    <speed>1.16</speed>
  </trkpt>
  <trkpt lat="50.491005" lon="-3.996293">
    <ele>237</ele>
    <time>2026-08-06T17:31:06Z</time>
    <speed>1.18</speed>
  </trkpt>
  <trkpt lat="50.491072" lon="-3.996198">
    <ele>238</ele>
    <time>2026-08-06T17:31:17Z</time>
    <speed>1.06</speed>
  </trkpt>
  <trkpt lat="50.491130" lon="-3.996083">
    <ele>244</ele>
    <time>2026-08-06T17:31:29Z</time>
    <speed>0.59</speed>
  </trkpt>
  <trkpt lat="50.491174" lon="-3.995946">
    <ele>244</ele>
    <time>2026-08-06T17:31:46Z</time>
    <speed>0.95</speed>
  </trkpt>
  <trkpt lat="50.491197" lon="-3.995802">
    <ele>244</ele>
    <time>2026-08-06T17:31:59Z</time>
    <speed>0.72999996</speed>
  </trkpt>
  <trkpt lat="50.491242" lon="-3.995675">
    <ele>246</ele>
    <time>2026-08-06T17:32:22Z</time>
    <speed>0.97999996</speed>
  </trkpt>
  <trkpt lat="50.491278" lon="-3.995543">
    <ele>246</ele>
    <time>2026-08-06T17:32:37Z</time>
    <speed>0.84</speed>
  </trkpt>
  <trkpt lat="50.491298" lon="-3.995394">
    <ele>239</ele>
    <time>2026-08-06T17:32:52Z</time>
    <speed>1.62</speed>
  </trkpt>
  <trkpt lat="50.491299" lon="-3.995245">
    <ele>246</ele>
    <time>2026-08-06T17:33:03Z</time>
    <speed>1.04</speed>
  </trkpt>
  <trkpt lat="50.491308" lon="-3.995094">
    <ele>243</ele>
    <time>2026-08-06T17:33:14Z</time>
    <speed>1.3</speed>
  </trkpt>
  <trkpt lat="50.491317" lon="-3.994949">
    <ele>248</ele>
    <time>2026-08-06T17:33:28Z</time>
    <speed>1.04</speed>
  </trkpt>
  <trkpt lat="50.491345" lon="-3.994810">
    <ele>248</ele>
    <time>2026-08-06T17:33:43Z</time>
    <speed>0.17</speed>
  </trkpt>
  <trkpt lat="50.491435" lon="-3.994844">
    <ele>251</ele>
    <time>2026-08-06T17:34:23Z</time>
    <speed>0.77</speed>
  </trkpt>
  <trkpt lat="50.491508" lon="-3.994747">
    <ele>248</ele>
    <time>2026-08-06T17:34:36Z</time>
    <speed>1.1899999</speed>
  </trkpt>
  <trkpt lat="50.491562" lon="-3.994633">
    <ele>253</ele>
    <time>2026-08-06T17:34:54Z</time>
    <speed>0.64</speed>
  </trkpt>
  <trkpt lat="50.491577" lon="-3.994478">
    <ele>246</ele>
    <time>2026-08-06T17:35:08Z</time>
    <speed>1.63</speed>
  </trkpt>
  <trkpt lat="50.491575" lon="-3.994336">
    <ele>246</ele>
    <time>2026-08-06T17:35:20Z</time>
    <speed>1.2099999</speed>
  </trkpt>
  <trkpt lat="50.491609" lon="-3.994205">
    <ele>251</ele>
    <time>2026-08-06T17:35:31Z</time>
    <speed>0.78999996</speed>
  </trkpt>
  <trkpt lat="50.491641" lon="-3.994045">
    <ele>250</ele>
    <time>2026-08-06T17:35:42Z</time>
    <speed>1.01</speed>
  </trkpt>
  <trkpt lat="50.491653" lon="-3.993894">
    <ele>252</ele>
    <time>2026-08-06T17:35:54Z</time>
    <speed>1.01</speed>
  </trkpt>
  <trkpt lat="50.491686" lon="-3.993739">
    <ele>251</ele>
    <time>2026-08-06T17:36:05Z</time>
    <speed>1.04</speed>
  </trkpt>
  <trkpt lat="50.491721" lon="-3.993609">
    <ele>253</ele>
    <time>2026-08-06T17:36:25Z</time>
    <speed>0.71</speed>
  </trkpt>
  <trkpt lat="50.491730" lon="-3.993468">
    <ele>253</ele>
    <time>2026-08-06T17:36:43Z</time>
    <speed>0.22</speed>
  </trkpt>
  <trkpt lat="50.491755" lon="-3.993315">
    <ele>251</ele>
    <time>2026-08-06T17:37:05Z</time>
    <speed>1.6999999</speed>
  </trkpt>
  <trkpt lat="50.491783" lon="-3.993156">
    <ele>255</ele>
    <time>2026-08-06T17:37:16Z</time>
    <speed>0.96</speed>
  </trkpt>
  <trkpt lat="50.491803" lon="-3.993008">
    <ele>255</ele>
    <time>2026-08-06T17:37:27Z</time>
    <speed>1.16</speed>
  </trkpt>
  <trkpt lat="50.491857" lon="-3.992887">
    <ele>255</ele>
    <time>2026-08-06T17:37:38Z</time>
    <speed>1.1999999</speed>
  </trkpt>
  <trkpt lat="50.491893" lon="-3.992752">
    <ele>255</ele>
    <time>2026-08-06T17:37:49Z</time>
    <speed>1.09</speed>
  </trkpt>
  <trkpt lat="50.491932" lon="-3.992620">
    <ele>258</ele>
    <time>2026-08-06T17:38:00Z</time>
    <speed>1.06</speed>
  </trkpt>
  <trkpt lat="50.491962" lon="-3.992483">
    <ele>253</ele>
    <time>2026-08-06T17:38:11Z</time>
    <speed>1.5999999</speed>
  </trkpt>
  <trkpt lat="50.492027" lon="-3.992377">
    <ele>255</ele>
    <time>2026-08-06T17:38:22Z</time>
    <speed>1.55</speed>
  </trkpt>
  <trkpt lat="50.492082" lon="-3.992244">
    <ele>261</ele>
    <time>2026-08-06T17:38:33Z</time>
    <speed>0.89</speed>
  </trkpt>
  <trkpt lat="50.492142" lon="-3.992131">
    <ele>258</ele>
    <time>2026-08-06T17:38:45Z</time>
    <speed>0.58</speed>
  </trkpt>
  <trkpt lat="50.492169" lon="-3.991988">
    <ele>261</ele>
    <time>2026-08-06T17:38:56Z</time>
    <speed>1.5</speed>
  </trkpt>
  <trkpt lat="50.492220" lon="-3.991809">
    <ele>257</ele>
    <time>2026-08-06T17:39:07Z</time>
    <speed>1.93</speed>
  </trkpt>
  <trkpt lat="50.492287" lon="-3.991681">
    <ele>260</ele>
    <time>2026-08-06T17:39:18Z</time>
    <speed>0.65</speed>
  </trkpt>
  <trkpt lat="50.492272" lon="-3.991535">
    <ele>260</ele>
    <time>2026-08-06T17:43:18Z</time>
    <speed>1.14</speed>
  </trkpt>
  <trkpt lat="50.492298" lon="-3.991390">
    <ele>263</ele>
    <time>2026-08-06T17:43:30Z</time>
    <speed>0.81</speed>
  </trkpt>
  <trkpt lat="50.492311" lon="-3.991249">
    <ele>270</ele>
    <time>2026-08-06T17:43:42Z</time>
    <speed>0.95</speed>
  </trkpt>
  <trkpt lat="50.492324" lon="-3.991100">
    <ele>266</ele>
    <time>2026-08-06T17:43:53Z</time>
    <speed>1.14</speed>
  </trkpt>
  <trkpt lat="50.492321" lon="-3.990949">
    <ele>260</ele>
    <time>2026-08-06T17:44:07Z</time>
    <speed>0.75</speed>
  </trkpt>
  <trkpt lat="50.492313" lon="-3.990803">
    <ele>260</ele>
    <time>2026-08-06T17:44:24Z</time>
    <speed>1.0699999</speed>
  </trkpt>
  <trkpt lat="50.492309" lon="-3.990629">
    <ele>262</ele>
    <time>2026-08-06T17:44:35Z</time>
    <speed>1.16</speed>
  </trkpt>
  <trkpt lat="50.492288" lon="-3.990456">
    <ele>261</ele>
    <time>2026-08-06T17:44:46Z</time>
    <speed>1.29</speed>
  </trkpt>
  <trkpt lat="50.492298" lon="-3.990262">
    <ele>264</ele>
    <time>2026-08-06T17:44:57Z</time>
    <speed>0.45999998</speed>
  </trkpt>
  <trkpt lat="50.492288" lon="-3.990121">
    <ele>265</ele>
    <time>2026-08-06T17:45:11Z</time>
    <speed>1.13</speed>
  </trkpt>
  <trkpt lat="50.492288" lon="-3.989924">
    <ele>245</ele>
    <time>2026-08-06T17:45:22Z</time>
    <speed>1.12</speed>
  </trkpt>
  <trkpt lat="50.492305" lon="-3.989776">
    <ele>264</ele>
    <time>2026-08-06T17:45:53Z</time>
    <speed>0.91999996</speed>
  </trkpt>
  <trkpt lat="50.492304" lon="-3.989632">
    <ele>264</ele>
    <time>2026-08-06T17:46:06Z</time>
    <speed>1.16</speed>
  </trkpt>
  <trkpt lat="50.492340" lon="-3.989501">
    <ele>263</ele>
    <time>2026-08-06T17:46:20Z</time>
    <speed>0.099999994</speed>
  </trkpt>
  <trkpt lat="50.492393" lon="-3.989370">
    <ele>265</ele>
    <time>2026-08-06T17:46:41Z</time>
    <speed>0.83</speed>
  </trkpt>
  <trkpt lat="50.492419" lon="-3.989221">
    <ele>264</ele>
    <time>2026-08-06T17:46:52Z</time>
    <speed>0.64</speed>
  </trkpt>
  <trkpt lat="50.492437" lon="-3.989065">
    <ele>263</ele>
    <time>2026-08-06T17:47:04Z</time>
    <speed>0.52</speed>
  </trkpt>
  <trkpt lat="50.492476" lon="-3.988932">
    <ele>263</ele>
    <time>2026-08-06T17:47:19Z</time>
    <speed>0.65999997</speed>
  </trkpt>
  <trkpt lat="50.492481" lon="-3.988789">
    <ele>262</ele>
    <time>2026-08-06T17:47:32Z</time>
    <speed>1.06</speed>
  </trkpt>
  <trkpt lat="50.492542" lon="-3.988676">
    <ele>265</ele>
    <time>2026-08-06T17:47:43Z</time>
    <speed>0.85999995</speed>
  </trkpt>
  <trkpt lat="50.492588" lon="-3.988542">
    <ele>262</ele>
    <time>2026-08-06T17:47:56Z</time>
    <speed>1.13</speed>
  </trkpt>
  <trkpt lat="50.492599" lon="-3.988395">
    <ele>261</ele>
    <time>2026-08-06T17:48:09Z</time>
    <speed>1.55</speed>
  </trkpt>
  <trkpt lat="50.492629" lon="-3.988261">
    <ele>264</ele>
    <time>2026-08-06T17:48:22Z</time>
    <speed>0.94</speed>
  </trkpt>
  <trkpt lat="50.492640" lon="-3.988103">
    <ele>263</ele>
    <time>2026-08-06T17:48:33Z</time>
    <speed>1.41</speed>
  </trkpt>
  <trkpt lat="50.492703" lon="-3.987990">
    <ele>263</ele>
    <time>2026-08-06T17:48:44Z</time>
    <speed>1.18</speed>
  </trkpt>
  <trkpt lat="50.492794" lon="-3.987972">
    <ele>259</ele>
    <time>2026-08-06T17:50:26Z</time>
    <speed>0.96999997</speed>
  </trkpt>
  <trkpt lat="50.492882" lon="-3.988029">
    <ele>256</ele>
    <time>2026-08-06T17:50:38Z</time>
    <speed>0.93</speed>
  </trkpt>
  <trkpt lat="50.492969" lon="-3.988080">
    <ele>259</ele>
    <time>2026-08-06T17:50:51Z</time>
    <speed>0.74</speed>
  </trkpt>
  <trkpt lat="50.493061" lon="-3.988131">
    <ele>258</ele>
    <time>2026-08-06T17:51:04Z</time>
    <speed>1.09</speed>
  </trkpt>
  <trkpt lat="50.493163" lon="-3.988205">
    <ele>258</ele>
    <time>2026-08-06T17:51:15Z</time>
    <speed>1.28</speed>
  </trkpt>
  <trkpt lat="50.493274" lon="-3.988260">
    <ele>259</ele>
    <time>2026-08-06T17:51:26Z</time>
    <speed>1.06</speed>
  </trkpt>
  <trkpt lat="50.493379" lon="-3.988371">
    <ele>259</ele>
    <time>2026-08-06T17:51:37Z</time>
    <speed>1.14</speed>
  </trkpt>
  <trkpt lat="50.493477" lon="-3.988336">
    <ele>256</ele>
    <time>2026-08-06T17:51:48Z</time>
    <speed>1.26</speed>
  </trkpt>
  <trkpt lat="50.493589" lon="-3.988375">
    <ele>257</ele>
    <time>2026-08-06T17:51:59Z</time>
    <speed>1.17</speed>
  </trkpt>
  <trkpt lat="50.493698" lon="-3.988408">
    <ele>259</ele>
    <time>2026-08-06T17:52:10Z</time>
    <speed>1.1899999</speed>
  </trkpt>
  <trkpt lat="50.493813" lon="-3.988410">
    <ele>255</ele>
    <time>2026-08-06T17:52:21Z</time>
    <speed>0.79999995</speed>
  </trkpt>
  <trkpt lat="50.493906" lon="-3.988379">
    <ele>251</ele>
    <time>2026-08-06T17:52:33Z</time>
    <speed>1.5999999</speed>
  </trkpt>
  <trkpt lat="50.494001" lon="-3.988424">
    <ele>253</ele>
    <time>2026-08-06T17:52:44Z</time>
    <speed>1.75</speed>
  </trkpt>
  <trkpt lat="50.494094" lon="-3.988395">
    <ele>257</ele>
    <time>2026-08-06T17:53:01Z</time>
    <speed>0.98999995</speed>
  </trkpt>
  <trkpt lat="50.494180" lon="-3.988347">
    <ele>251</ele>
    <time>2026-08-06T17:53:12Z</time>
    <speed>0.13</speed>
  </trkpt>
  <trkpt lat="50.494240" lon="-3.988222">
    <ele>254</ele>
    <time>2026-08-06T17:53:31Z</time>
    <speed>0.84</speed>
  </trkpt>
  <trkpt lat="50.494350" lon="-3.988178">
    <ele>254</ele>
    <time>2026-08-06T17:53:42Z</time>
    <speed>1.1</speed>
  </trkpt>
  <trkpt lat="50.494424" lon="-3.988088">
    <ele>253</ele>
    <time>2026-08-06T17:53:56Z</time>
    <speed>1.05</speed>
  </trkpt>
  <trkpt lat="50.494508" lon="-3.987988">
    <ele>254</ele>
    <time>2026-08-06T17:54:07Z</time>
    <speed>1.63</speed>
  </trkpt>
  <trkpt lat="50.494572" lon="-3.987876">
    <ele>253</ele>
    <time>2026-08-06T17:54:22Z</time>
    <speed>0.71</speed>
  </trkpt>
  <trkpt lat="50.494654" lon="-3.987806">
    <ele>248</ele>
    <time>2026-08-06T17:54:38Z</time>
    <speed>0.78</speed>
  </trkpt>
  <trkpt lat="50.494714" lon="-3.987693">
    <ele>250</ele>
    <time>2026-08-06T17:54:52Z</time>
    <speed>1.31</speed>
  </trkpt>
  <trkpt lat="50.494779" lon="-3.987580">
    <ele>253</ele>
    <time>2026-08-06T17:55:03Z</time>
    <speed>0.71</speed>
  </trkpt>
  <trkpt lat="50.494853" lon="-3.987482">
    <ele>258</ele>
    <time>2026-08-06T17:55:19Z</time>
    <speed>0.84</speed>
  </trkpt>
  <trkpt lat="50.494946" lon="-3.987459">
    <ele>255</ele>
    <time>2026-08-06T17:55:30Z</time>
    <speed>0.94</speed>
  </trkpt>
  <trkpt lat="50.495017" lon="-3.987366">
    <ele>249</ele>
    <time>2026-08-06T17:56:06Z</time>
    <speed>1.14</speed>
  </trkpt>
  <trkpt lat="50.495101" lon="-3.987300">
    <ele>250</ele>
    <time>2026-08-06T17:56:17Z</time>
    <speed>1.53</speed>
  </trkpt>
  <trkpt lat="50.495177" lon="-3.987221">
    <ele>253</ele>
    <time>2026-08-06T17:56:31Z</time>
    <speed>0.96</speed>
  </trkpt>
  <trkpt lat="50.495243" lon="-3.987111">
    <ele>250</ele>
    <time>2026-08-06T17:56:42Z</time>
    <speed>1.12</speed>
  </trkpt>
  <trkpt lat="50.495318" lon="-3.987008">
    <ele>251</ele>
    <time>2026-08-06T17:56:53Z</time>
    <speed>1.13</speed>
  </trkpt>
  <trkpt lat="50.495408" lon="-3.986926">
    <ele>252</ele>
    <time>2026-08-06T17:57:04Z</time>
    <speed>0.76</speed>
  </trkpt>
  <trkpt lat="50.495476" lon="-3.986824">
    <ele>251</ele>
    <time>2026-08-06T17:57:15Z</time>
    <speed>1.16</speed>
  </trkpt>
  <trkpt lat="50.495555" lon="-3.986742">
    <ele>243</ele>
    <time>2026-08-06T17:57:26Z</time>
    <speed>0.98999995</speed>
  </trkpt>
  <trkpt lat="50.495632" lon="-3.986667">
    <ele>250</ele>
    <time>2026-08-06T17:57:37Z</time>
    <speed>1.27</speed>
  </trkpt>
  <trkpt lat="50.495707" lon="-3.986587">
    <ele>250</ele>
    <time>2026-08-06T17:57:49Z</time>
    <speed>0.68</speed>
  </trkpt>
  <trkpt lat="50.495790" lon="-3.986514">
    <ele>252</ele>
    <time>2026-08-06T17:58:01Z</time>
    <speed>1.37</speed>
  </trkpt>
  <trkpt lat="50.495865" lon="-3.986403">
    <ele>253</ele>
    <time>2026-08-06T17:58:12Z</time>
    <speed>1.15</speed>
  </trkpt>
  <trkpt lat="50.495950" lon="-3.986357">
    <ele>252</ele>
    <time>2026-08-06T17:58:24Z</time>
    <speed>0.66999996</speed>
  </trkpt>
  <trkpt lat="50.496043" lon="-3.986323">
    <ele>253</ele>
    <time>2026-08-06T17:58:58Z</time>
    <speed>0.51</speed>
  </trkpt>
  <trkpt lat="50.496119" lon="-3.986406">
    <ele>255</ele>
    <time>2026-08-06T17:59:12Z</time>
    <speed>0.83</speed>
  </trkpt>
  <trkpt lat="50.496145" lon="-3.986548">
    <ele>254</ele>
    <time>2026-08-06T17:59:23Z</time>
    <speed>1.5</speed>
  </trkpt>
  <trkpt lat="50.496120" lon="-3.986714">
    <ele>243</ele>
    <time>2026-08-06T17:59:34Z</time>
    <speed>1.3299999</speed>
  </trkpt>
  <trkpt lat="50.496109" lon="-3.986898">
    <ele>249</ele>
    <time>2026-08-06T17:59:45Z</time>
    <speed>1.22</speed>
  </trkpt>
  <trkpt lat="50.496102" lon="-3.987046">
    <ele>246</ele>
    <time>2026-08-06T17:59:56Z</time>
    <speed>1.02</speed>
  </trkpt>
  <trkpt lat="50.496111" lon="-3.987234">
    <ele>246</ele>
    <time>2026-08-06T18:00:07Z</time>
    <speed>1.11</speed>
  </trkpt>
  <trkpt lat="50.496062" lon="-3.987396">
    <ele>243</ele>
    <time>2026-08-06T18:00:18Z</time>
    <speed>1.4499999</speed>
  </trkpt>
  <trkpt lat="50.496031" lon="-3.987556">
    <ele>241</ele>
    <time>2026-08-06T18:00:29Z</time>
    <speed>1.12</speed>
  </trkpt>
  <trkpt lat="50.496033" lon="-3.987721">
    <ele>239</ele>
    <time>2026-08-06T18:00:40Z</time>
    <speed>0.88</speed>
  </trkpt>
  <trkpt lat="50.496017" lon="-3.987868">
    <ele>239</ele>
    <time>2026-08-06T18:00:51Z</time>
    <speed>0.64</speed>
  </trkpt>
  <trkpt lat="50.495970" lon="-3.988005">
    <ele>234</ele>
    <time>2026-08-06T18:01:03Z</time>
    <speed>1.28</speed>
  </trkpt>
  <trkpt lat="50.495924" lon="-3.988153">
    <ele>238</ele>
    <time>2026-08-06T18:01:14Z</time>
    <speed>1.3</speed>
  </trkpt>
  <trkpt lat="50.495916" lon="-3.988349">
    <ele>233</ele>
    <time>2026-08-06T18:01:25Z</time>
    <speed>1.4399999</speed>
  </trkpt>
  <trkpt lat="50.495913" lon="-3.988519">
    <ele>231</ele>
    <time>2026-08-06T18:01:36Z</time>
    <speed>1.01</speed>
  </trkpt>
  <trkpt lat="50.495922" lon="-3.988708">
    <ele>217</ele>
    <time>2026-08-06T18:01:47Z</time>
    <speed>1.4699999</speed>
  </trkpt>
  <trkpt lat="50.495980" lon="-3.988869">
    <ele>233</ele>
    <time>2026-08-06T18:01:58Z</time>
    <speed>1.4599999</speed>
  </trkpt>
  <trkpt lat="50.496038" lon="-3.988992">
    <ele>231</ele>
    <time>2026-08-06T18:02:09Z</time>
    <speed>1.1</speed>
  </trkpt>
  <trkpt lat="50.496009" lon="-3.989162">
    <ele>231</ele>
    <time>2026-08-06T18:02:20Z</time>
    <speed>1.1899999</speed>
  </trkpt>
  <trkpt lat="50.495962" lon="-3.989336">
    <ele>233</ele>
    <time>2026-08-06T18:02:31Z</time>
    <speed>1.12</speed>
  </trkpt>
  <trkpt lat="50.495917" lon="-3.989495">
    <ele>232</ele>
    <time>2026-08-06T18:02:42Z</time>
    <speed>1.05</speed>
  </trkpt>
  <trkpt lat="50.495882" lon="-3.989667">
    <ele>230</ele>
    <time>2026-08-06T18:02:53Z</time>
    <speed>0.87</speed>
  </trkpt>
  <trkpt lat="50.495807" lon="-3.989768">
    <ele>232</ele>
    <time>2026-08-06T18:03:04Z</time>
    <speed>0.58</speed>
  </trkpt>
  <trkpt lat="50.495734" lon="-3.989861">
    <ele>230</ele>
    <time>2026-08-06T18:03:18Z</time>
    <speed>0.84999996</speed>
  </trkpt>
  <trkpt lat="50.495692" lon="-3.990016">
    <ele>238</ele>
    <time>2026-08-06T18:03:29Z</time>
    <speed>1.0</speed>
  </trkpt>
  <trkpt lat="50.495688" lon="-3.990159">
    <ele>227</ele>
    <time>2026-08-06T18:03:40Z</time>
    <speed>0.25</speed>
  </trkpt>
  <trkpt lat="50.495729" lon="-3.990291">
    <ele>232</ele>
    <time>2026-08-06T18:04:32Z</time>
    <speed>1.0799999</speed>
  </trkpt>
  <trkpt lat="50.495789" lon="-3.990408">
    <ele>233</ele>
    <time>2026-08-06T18:04:44Z</time>
    <speed>0.84</speed>
  </trkpt>
  <trkpt lat="50.495847" lon="-3.990571">
    <ele>225</ele>
    <time>2026-08-06T18:04:55Z</time>
    <speed>1.14</speed>
  </trkpt>
  <trkpt lat="50.495881" lon="-3.990709">
    <ele>230</ele>
    <time>2026-08-06T18:05:06Z</time>
    <speed>0.76</speed>
  </trkpt>
  <trkpt lat="50.495932" lon="-3.990872">
    <ele>228</ele>
    <time>2026-08-06T18:05:17Z</time>
    <speed>1.1</speed>
  </trkpt>
  <trkpt lat="50.495962" lon="-3.991050">
    <ele>228</ele>
    <time>2026-08-06T18:05:28Z</time>
    <speed>0.91999996</speed>
  </trkpt>
  <trkpt lat="50.496014" lon="-3.991218">
    <ele>226</ele>
    <time>2026-08-06T18:05:39Z</time>
    <speed>1.3</speed>
  </trkpt>
  <trkpt lat="50.496050" lon="-3.991378">
    <ele>219</ele>
    <time>2026-08-06T18:05:50Z</time>
    <speed>1.39</speed>
  </trkpt>
  <trkpt lat="50.496037" lon="-3.991524">
    <ele>226</ele>
    <time>2026-08-06T18:06:01Z</time>
    <speed>0.01</speed>
  </trkpt>
  <trkpt lat="50.496069" lon="-3.991657">
    <ele>225</ele>
    <time>2026-08-06T18:06:48Z</time>
    <speed>0.78</speed>
  </trkpt>
  <trkpt lat="50.496086" lon="-3.991798">
    <ele>223</ele>
    <time>2026-08-06T18:07:01Z</time>
    <speed>1.03</speed>
  </trkpt>
  <trkpt lat="50.496119" lon="-3.991933">
    <ele>226</ele>
    <time>2026-08-06T18:07:25Z</time>
    <speed>0.52</speed>
  </trkpt>
  <trkpt lat="50.496157" lon="-3.992098">
    <ele>222</ele>
    <time>2026-08-06T18:07:36Z</time>
    <speed>1.0699999</speed>
  </trkpt>
  <trkpt lat="50.496180" lon="-3.992278">
    <ele>223</ele>
    <time>2026-08-06T18:07:47Z</time>
    <speed>0.89</speed>
  </trkpt>
  <trkpt lat="50.496213" lon="-3.992412">
    <ele>221</ele>
    <time>2026-08-06T18:07:59Z</time>
    <speed>1.0699999</speed>
  </trkpt>
  <trkpt lat="50.496222" lon="-3.992581">
    <ele>219</ele>
    <time>2026-08-06T18:08:10Z</time>
    <speed>0.85999995</speed>
  </trkpt>
  <trkpt lat="50.496228" lon="-3.992753">
    <ele>224</ele>
    <time>2026-08-06T18:08:21Z</time>
    <speed>1.0</speed>
  </trkpt>
  <trkpt lat="50.496225" lon="-3.992935">
    <ele>221</ele>
    <time>2026-08-06T18:08:32Z</time>
    <speed>1.4399999</speed>
  </trkpt>
  <trkpt lat="50.496216" lon="-3.993112">
    <ele>223</ele>
    <time>2026-08-06T18:08:43Z</time>
    <speed>1.1899999</speed>
  </trkpt>
  <trkpt lat="50.496206" lon="-3.993307">
    <ele>219</ele>
    <time>2026-08-06T18:08:54Z</time>
    <speed>1.24</speed>
  </trkpt>
  <trkpt lat="50.496206" lon="-3.993471">
    <ele>220</ele>
    <time>2026-08-06T18:09:05Z</time>
    <speed>1.0699999</speed>
  </trkpt>
  <trkpt lat="50.496209" lon="-3.993673">
    <ele>221</ele>
    <time>2026-08-06T18:09:16Z</time>
    <speed>1.36</speed>
  </trkpt>
  <trkpt lat="50.496199" lon="-3.993838">
    <ele>215</ele>
    <time>2026-08-06T18:09:27Z</time>
    <speed>2.07</speed>
  </trkpt>
  <trkpt lat="50.496183" lon="-3.994023">
    <ele>217</ele>
    <time>2026-08-06T18:09:38Z</time>
    <speed>1.12</speed>
  </trkpt>
  <trkpt lat="50.496172" lon="-3.994201">
    <ele>218</ele>
    <time>2026-08-06T18:09:49Z</time>
    <speed>1.3299999</speed>
  </trkpt>
  <trkpt lat="50.496192" lon="-3.994386">
    <ele>218</ele>
    <time>2026-08-06T18:10:00Z</time>
    <speed>1.5999999</speed>
  </trkpt>
  <trkpt lat="50.496193" lon="-3.994542">
    <ele>219</ele>
    <time>2026-08-06T18:10:11Z</time>
    <speed>1.0</speed>
  </trkpt>
  <trkpt lat="50.496229" lon="-3.994677">
    <ele>218</ele>
    <time>2026-08-06T18:10:39Z</time>
    <speed>0.79999995</speed>
  </trkpt>
  <trkpt lat="50.496295" lon="-3.994575">
    <ele>215</ele>
    <time>2026-08-06T18:19:02Z</time>
    <speed>0.91999996</speed>
  </trkpt>
  <trkpt lat="50.496382" lon="-3.994542">
    <ele>214</ele>
    <time>2026-08-06T18:19:17Z</time>
    <speed>0.78</speed>
  </trkpt>
  <trkpt lat="50.496478" lon="-3.994553">
    <ele>212</ele>
    <time>2026-08-06T18:19:29Z</time>
    <speed>0.59</speed>
  </trkpt>
  <trkpt lat="50.496571" lon="-3.994597">
    <ele>207</ele>
    <time>2026-08-06T18:19:41Z</time>
    <speed>1.11</speed>
  </trkpt>
  <trkpt lat="50.496656" lon="-3.994543">
    <ele>205</ele>
    <time>2026-08-06T18:19:54Z</time>
    <speed>0.47</speed>
  </trkpt>
  <trkpt lat="50.496752" lon="-3.994511">
    <ele>201</ele>
    <time>2026-08-06T18:20:08Z</time>
    <speed>0.87</speed>
  </trkpt>
  <trkpt lat="50.496835" lon="-3.994446">
    <ele>200</ele>
    <time>2026-08-06T18:20:24Z</time>
    <speed>1.0</speed>
  </trkpt>
  <trkpt lat="50.496918" lon="-3.994521">
    <ele>195</ele>
    <time>2026-08-06T18:20:51Z</time>
    <speed>1.03</speed>
  </trkpt>
  <trkpt lat="50.496993" lon="-3.994442">
    <ele>192</ele>
    <time>2026-08-06T18:21:23Z</time>
    <speed>0.63</speed>
  </trkpt>
  <trkpt lat="50.497083" lon="-3.994385">
    <ele>196</ele>
    <time>2026-08-06T18:21:51Z</time>
    <speed>0.74</speed>
  </trkpt>
  <trkpt lat="50.497181" lon="-3.994347">
    <ele>201</ele>
    <time>2026-08-06T18:22:10Z</time>
    <speed>0.5</speed>
  </trkpt>
  <trkpt lat="50.497272" lon="-3.994357">
    <ele>202</ele>
    <time>2026-08-06T18:22:22Z</time>
    <speed>0.53999996</speed>
  </trkpt>
  <trkpt lat="50.497364" lon="-3.994399">
    <ele>203</ele>
    <time>2026-08-06T18:22:37Z</time>
    <speed>0.48999998</speed>
  </trkpt>
  <trkpt lat="50.497458" lon="-3.994422">
    <ele>200</ele>
    <time>2026-08-06T18:22:51Z</time>
    <speed>0.96999997</speed>
  </trkpt>
  <trkpt lat="50.497556" lon="-3.994441">
    <ele>205</ele>
    <time>2026-08-06T18:23:05Z</time>
    <speed>1.25</speed>
  </trkpt>
  <trkpt lat="50.497633" lon="-3.994524">
    <ele>204</ele>
    <time>2026-08-06T18:23:16Z</time>
    <speed>0.77</speed>
  </trkpt>
  <trkpt lat="50.497677" lon="-3.994663">
    <ele>203</ele>
    <time>2026-08-06T18:23:28Z</time>
    <speed>1.1999999</speed>
  </trkpt>
  <trkpt lat="50.497727" lon="-3.994784">
    <ele>204</ele>
    <time>2026-08-06T18:23:40Z</time>
    <speed>0.7</speed>
  </trkpt>
  <trkpt lat="50.497741" lon="-3.994930">
    <ele>203</ele>
    <time>2026-08-06T18:23:51Z</time>
    <speed>0.97999996</speed>
  </trkpt>
  <trkpt lat="50.497788" lon="-3.995062">
    <ele>200</ele>
    <time>2026-08-06T18:24:02Z</time>
    <speed>0.78999996</speed>
  </trkpt>
  <trkpt lat="50.497859" lon="-3.995165">
    <ele>199</ele>
    <time>2026-08-06T18:24:15Z</time>
    <speed>0.93</speed>
  </trkpt>
  <trkpt lat="50.497937" lon="-3.995261">
    <ele>199</ele>
    <time>2026-08-06T18:24:27Z</time>
    <speed>0.42</speed>
  </trkpt>
  <trkpt lat="50.498033" lon="-3.995281">
    <ele>200</ele>
    <time>2026-08-06T18:24:42Z</time>
    <speed>0.51</speed>
  </trkpt>
  <trkpt lat="50.498118" lon="-3.995335">
    <ele>198</ele>
    <time>2026-08-06T18:25:00Z</time>
    <speed>1.37</speed>
  </trkpt>
  <trkpt lat="50.498205" lon="-3.995374">
    <ele>200</ele>
    <time>2026-08-06T18:25:12Z</time>
    <speed>0.35999998</speed>
  </trkpt>
  <trkpt lat="50.498332" lon="-3.995381">
    <ele>197</ele>
    <time>2026-08-06T18:25:23Z</time>
    <speed>1.35</speed>
  </trkpt>
  <trkpt lat="50.498421" lon="-3.995347">
    <ele>196</ele>
    <time>2026-08-06T18:25:35Z</time>
    <speed>0.72999996</speed>
  </trkpt>
  <trkpt lat="50.498490" lon="-3.995246">
    <ele>196</ele>
    <time>2026-08-06T18:25:50Z</time>
    <speed>0.42999998</speed>
  </trkpt>
  <trkpt lat="50.498544" lon="-3.995129">
    <ele>192</ele>
    <time>2026-08-06T18:26:22Z</time>
    <speed>0.77</speed>
  </trkpt>
  <trkpt lat="50.498616" lon="-3.995029">
    <ele>191</ele>
    <time>2026-08-06T18:26:54Z</time>
    <speed>0.48</speed>
  </trkpt>
  <trkpt lat="50.498714" lon="-3.994994">
    <ele>187</ele>
    <time>2026-08-06T18:27:06Z</time>
    <speed>1.09</speed>
  </trkpt>
  <trkpt lat="50.498787" lon="-3.995099">
    <ele>186</ele>
    <time>2026-08-06T18:27:21Z</time>
    <speed>1.48</speed>
  </trkpt>
  <trkpt lat="50.498874" lon="-3.995056">
    <ele>186</ele>
    <time>2026-08-06T18:27:37Z</time>
    <speed>0.9</speed>
  </trkpt>
  <trkpt lat="50.498939" lon="-3.995163">
    <ele>187</ele>
    <time>2026-08-06T18:30:44Z</time>
    <speed>0.96999997</speed>
  </trkpt>
  <trkpt lat="50.499030" lon="-3.995218">
    <ele>187</ele>
    <time>2026-08-06T18:30:56Z</time>
    <speed>1.22</speed>
  </trkpt>
  <trkpt lat="50.499111" lon="-3.995309">
    <ele>192</ele>
    <time>2026-08-06T18:31:16Z</time>
    <speed>1.27</speed>
  </trkpt>
  <trkpt lat="50.499209" lon="-3.995429">
    <ele>186</ele>
    <time>2026-08-06T18:31:27Z</time>
    <speed>1.48</speed>
  </trkpt>
  <trkpt lat="50.499290" lon="-3.995531">
    <ele>191</ele>
    <time>2026-08-06T18:31:38Z</time>
    <speed>1.12</speed>
  </trkpt>
  <trkpt lat="50.499363" lon="-3.995627">
    <ele>186</ele>
    <time>2026-08-06T18:31:50Z</time>
    <speed>1.26</speed>
  </trkpt>
  <trkpt lat="50.499452" lon="-3.995687">
    <ele>184</ele>
    <time>2026-08-06T18:32:04Z</time>
    <speed>1.01</speed>
  </trkpt>
  <trkpt lat="50.499446" lon="-3.995836">
    <ele>185</ele>
    <time>2026-08-06T18:32:15Z</time>
    <speed>0.79999995</speed>
  </trkpt>
  <trkpt lat="50.499435" lon="-3.996016">
    <ele>187</ele>
    <time>2026-08-06T18:32:26Z</time>
    <speed>1.31</speed>
  </trkpt>
  <trkpt lat="50.499510" lon="-3.996217">
    <ele>188</ele>
    <time>2026-08-06T18:32:37Z</time>
    <speed>1.15</speed>
  </trkpt>
  <trkpt lat="50.499599" lon="-3.996161">
    <ele>190</ele>
    <time>2026-08-06T18:32:49Z</time>
    <speed>0.95</speed>
  </trkpt>
  <trkpt lat="50.499628" lon="-3.996020">
    <ele>191</ele>
    <time>2026-08-06T18:33:00Z</time>
    <speed>1.3</speed>
  </trkpt>
  <trkpt lat="50.499706" lon="-3.996114">
    <ele>190</ele>
    <time>2026-08-06T18:33:17Z</time>
    <speed>1.1899999</speed>
  </trkpt>
  <trkpt lat="50.499792" lon="-3.996194">
    <ele>193</ele>
    <time>2026-08-06T18:33:28Z</time>
    <speed>0.76</speed>
  </trkpt>
  <trkpt lat="50.499864" lon="-3.996321">
    <ele>193</ele>
    <time>2026-08-06T18:33:39Z</time>
    <speed>0.75</speed>
  </trkpt>
  <trkpt lat="50.499924" lon="-3.996433">
    <ele>193</ele>
    <time>2026-08-06T18:33:52Z</time>
    <speed>0.82</speed>
  </trkpt>
  <trkpt lat="50.500019" lon="-3.996403">
    <ele>194</ele>
    <time>2026-08-06T18:34:22Z</time>
    <speed>1.17</speed>
  </trkpt>
  <trkpt lat="50.500111" lon="-3.996430">
    <ele>197</ele>
    <time>2026-08-06T18:35:02Z</time>
    <speed>0.77</speed>
  </trkpt>
  <trkpt lat="50.500171" lon="-3.996541">
    <ele>200</ele>
    <time>2026-08-06T18:35:18Z</time>
    <speed>0.31</speed>
  </trkpt>
  <trkpt lat="50.500259" lon="-3.996572">
    <ele>195</ele>
    <time>2026-08-06T18:36:05Z</time>
    <speed>1.23</speed>
  </trkpt>
  <trkpt lat="50.500347" lon="-3.996611">
    <ele>197</ele>
    <time>2026-08-06T18:36:22Z</time>
    <speed>0.53999996</speed>
  </trkpt>
  <trkpt lat="50.500425" lon="-3.996684">
    <ele>207</ele>
    <time>2026-08-06T18:36:46Z</time>
    <speed>0.11</speed>
  </trkpt>
  <trkpt lat="50.500517" lon="-3.996702">
    <ele>208</ele>
    <time>2026-08-06T18:37:00Z</time>
    <speed>0.82</speed>
  </trkpt>
  <trkpt lat="50.500604" lon="-3.996649">
    <ele>209</ele>
    <time>2026-08-06T18:37:13Z</time>
    <speed>0.74</speed>
  </trkpt>
  <trkpt lat="50.500689" lon="-3.996695">
    <ele>214</ele>
    <time>2026-08-06T18:37:29Z</time>
    <speed>0.84999996</speed>
  </trkpt>
  <trkpt lat="50.500771" lon="-3.996776">
    <ele>216</ele>
    <time>2026-08-06T18:37:42Z</time>
    <speed>0.9</speed>
  </trkpt>
  <trkpt lat="50.500852" lon="-3.996835">
    <ele>219</ele>
    <time>2026-08-06T18:37:59Z</time>
    <speed>0.14</speed>
  </trkpt>
  <trkpt lat="50.500941" lon="-3.996889">
    <ele>221</ele>
    <time>2026-08-06T18:38:15Z</time>
    <speed>1.6899999</speed>
  </trkpt>
  <trkpt lat="50.501044" lon="-3.996929">
    <ele>224</ele>
    <time>2026-08-06T18:38:26Z</time>
    <speed>0.88</speed>
  </trkpt>
  <trkpt lat="50.501087" lon="-3.997078">
    <ele>226</ele>
    <time>2026-08-06T18:48:08Z</time>
    <speed>8.099999</speed>
  </trkpt>
  <trkpt lat="50.501107" lon="-3.996925">
    <ele>223</ele>
    <time>2026-08-06T18:48:19Z</time>
    <speed>3.32</speed>
  </trkpt>
  <trkpt lat="50.501023" lon="-3.996795">
    <ele>223</ele>
    <time>2026-08-06T18:48:48Z</time>
    <speed>5.71</speed>
  </trkpt>
  <trkpt lat="50.501143" lon="-3.996962">
    <ele>232</ele>
    <time>2026-08-06T18:48:59Z</time>
    <speed>1.65</speed>
  </trkpt>
  <trkpt lat="50.501184" lon="-3.997107">
    <ele>203</ele>
    <time>2026-08-06T18:54:59Z</time>
    <speed>1.48</speed>
  </trkpt>
  <trkpt lat="50.501247" lon="-3.997211">
    <ele>220</ele>
    <time>2026-08-06T18:55:10Z</time>
    <speed>1.15</speed>
  </trkpt>
  <trkpt lat="50.501342" lon="-3.997254">
    <ele>204</ele>
    <time>2026-08-06T18:55:21Z</time>
    <speed>1.0799999</speed>
  </trkpt>
  <trkpt lat="50.501418" lon="-3.997333">
    <ele>220</ele>
    <time>2026-08-06T18:55:37Z</time>
    <speed>1.24</speed>
  </trkpt>
  <trkpt lat="50.501509" lon="-3.997405">
    <ele>217</ele>
    <time>2026-08-06T18:55:48Z</time>
    <speed>0.72999996</speed>
  </trkpt>
  <trkpt lat="50.501587" lon="-3.997492">
    <ele>217</ele>
    <time>2026-08-06T18:55:59Z</time>
    <speed>1.5</speed>
  </trkpt>
  <trkpt lat="50.501677" lon="-3.997588">
    <ele>218</ele>
    <time>2026-08-06T18:56:10Z</time>
    <speed>1.24</speed>
  </trkpt>
  <trkpt lat="50.501764" lon="-3.997657">
    <ele>217</ele>
    <time>2026-08-06T18:56:22Z</time>
    <speed>0.64</speed>
  </trkpt>
  <trkpt lat="50.501798" lon="-3.997794">
    <ele>215</ele>
    <time>2026-08-06T18:56:36Z</time>
    <speed>1.11</speed>
  </trkpt>
  <trkpt lat="50.501847" lon="-3.997920">
    <ele>215</ele>
    <time>2026-08-06T18:56:53Z</time>
    <speed>1.02</speed>
  </trkpt>
  <trkpt lat="50.501909" lon="-3.998053">
    <ele>214</ele>
    <time>2026-08-06T18:57:04Z</time>
    <speed>1.18</speed>
  </trkpt>
  <trkpt lat="50.501935" lon="-3.998202">
    <ele>213</ele>
    <time>2026-08-06T18:57:20Z</time>
    <speed>1.65</speed>
  </trkpt>
  <trkpt lat="50.502018" lon="-3.998349">
    <ele>212</ele>
    <time>2026-08-06T18:57:31Z</time>
    <speed>1.16</speed>
  </trkpt>
  <trkpt lat="50.502071" lon="-3.998479">
    <ele>209</ele>
    <time>2026-08-06T18:57:42Z</time>
    <speed>1.41</speed>
  </trkpt>
  <trkpt lat="50.502133" lon="-3.998644">
    <ele>210</ele>
    <time>2026-08-06T18:57:53Z</time>
    <speed>1.24</speed>
  </trkpt>
  <trkpt lat="50.502236" lon="-3.998764">
    <ele>210</ele>
    <time>2026-08-06T18:58:04Z</time>
    <speed>1.4599999</speed>
  </trkpt>
  <trkpt lat="50.502339" lon="-3.998898">
    <ele>210</ele>
    <time>2026-08-06T18:58:15Z</time>
    <speed>1.5</speed>
  </trkpt>
  <trkpt lat="50.502443" lon="-3.999022">
    <ele>212</ele>
    <time>2026-08-06T18:58:26Z</time>
    <speed>1.28</speed>
  </trkpt>
  <trkpt lat="50.502501" lon="-3.999225">
    <ele>209</ele>
    <time>2026-08-06T18:58:37Z</time>
    <speed>1.24</speed>
  </trkpt>
  <trkpt lat="50.502553" lon="-3.999345">
    <ele>210</ele>
    <time>2026-08-06T18:58:48Z</time>
    <speed>1.26</speed>
  </trkpt>
  <trkpt lat="50.502621" lon="-3.999534">
    <ele>216</ele>
    <time>2026-08-06T18:58:59Z</time>
    <speed>1.2099999</speed>
  </trkpt>
  <trkpt lat="50.502667" lon="-3.999700">
    <ele>205</ele>
    <time>2026-08-06T18:59:10Z</time>
    <speed>1.1</speed>
  </trkpt>
  <trkpt lat="50.502743" lon="-3.999850">
    <ele>208</ele>
    <time>2026-08-06T18:59:21Z</time>
    <speed>1.54</speed>
  </trkpt>
  <trkpt lat="50.502801" lon="-4.000034">
    <ele>208</ele>
    <time>2026-08-06T18:59:32Z</time>
    <speed>1.18</speed>
  </trkpt>
  <trkpt lat="50.502863" lon="-4.000187">
    <ele>209</ele>
    <time>2026-08-06T18:59:43Z</time>
    <speed>1.15</speed>
  </trkpt>
  <trkpt lat="50.502899" lon="-4.000380">
    <ele>209</ele>
    <time>2026-08-06T18:59:54Z</time>
    <speed>1.48</speed>
  </trkpt>
  <trkpt lat="50.502902" lon="-4.000575">
    <ele>206</ele>
    <time>2026-08-06T19:00:05Z</time>
    <speed>1.4599999</speed>
  </trkpt>
  <trkpt lat="50.502921" lon="-4.000756">
    <ele>207</ele>
    <time>2026-08-06T19:00:16Z</time>
    <speed>1.35</speed>
  </trkpt>
  <trkpt lat="50.502932" lon="-4.000968">
    <ele>207</ele>
    <time>2026-08-06T19:00:27Z</time>
    <speed>1.38</speed>
  </trkpt>
  <trkpt lat="50.502955" lon="-4.001164">
    <ele>206</ele>
    <time>2026-08-06T19:00:38Z</time>
    <speed>1.22</speed>
  </trkpt>
  <trkpt lat="50.502969" lon="-4.001387">
    <ele>205</ele>
    <time>2026-08-06T19:00:49Z</time>
    <speed>1.3199999</speed>
  </trkpt>
  <trkpt lat="50.503039" lon="-4.001574">
    <ele>204</ele>
    <time>2026-08-06T19:01:00Z</time>
    <speed>1.7099999</speed>
  </trkpt>
  <trkpt lat="50.503067" lon="-4.001777">
    <ele>201</ele>
    <time>2026-08-06T19:01:11Z</time>
    <speed>1.1899999</speed>
  </trkpt>
  <trkpt lat="50.503087" lon="-4.001975">
    <ele>203</ele>
    <time>2026-08-06T19:01:22Z</time>
    <speed>1.01</speed>
  </trkpt>
  <trkpt lat="50.503137" lon="-4.002184">
    <ele>201</ele>
    <time>2026-08-06T19:01:33Z</time>
    <speed>1.48</speed>
  </trkpt>
  <trkpt lat="50.503191" lon="-4.002386">
    <ele>205</ele>
    <time>2026-08-06T19:01:44Z</time>
    <speed>1.25</speed>
  </trkpt>
  <trkpt lat="50.503226" lon="-4.002588">
    <ele>195</ele>
    <time>2026-08-06T19:01:55Z</time>
    <speed>3.21</speed>
  </trkpt>
  <trkpt lat="50.503345" lon="-4.002671">
    <ele>196</ele>
    <time>2026-08-06T19:02:06Z</time>
    <speed>1.03</speed>
  </trkpt>
  <trkpt lat="50.503433" lon="-4.002834">
    <ele>191</ele>
    <time>2026-08-06T19:02:17Z</time>
    <speed>1.5699999</speed>
  </trkpt>
  <trkpt lat="50.503512" lon="-4.002997">
    <ele>195</ele>
    <time>2026-08-06T19:02:28Z</time>
    <speed>1.81</speed>
  </trkpt>
  <trkpt lat="50.503544" lon="-4.003206">
    <ele>195</ele>
    <time>2026-08-06T19:02:39Z</time>
    <speed>0.84999996</speed>
  </trkpt>
  <trkpt lat="50.503565" lon="-4.003397">
    <ele>192</ele>
    <time>2026-08-06T19:02:50Z</time>
    <speed>1.6899999</speed>
  </trkpt>
  <trkpt lat="50.503580" lon="-4.003618">
    <ele>190</ele>
    <time>2026-08-06T19:03:01Z</time>
    <speed>1.67</speed>
  </trkpt>
  <trkpt lat="50.503612" lon="-4.003841">
    <ele>192</ele>
    <time>2026-08-06T19:03:12Z</time>
    <speed>1.8399999</speed>
  </trkpt>
  <trkpt lat="50.503688" lon="-4.003999">
    <ele>190</ele>
    <time>2026-08-06T19:03:23Z</time>
    <speed>1.3299999</speed>
  </trkpt>
  <trkpt lat="50.503717" lon="-4.004178">
    <ele>188</ele>
    <time>2026-08-06T19:03:34Z</time>
    <speed>1.3399999</speed>
  </trkpt>
  <trkpt lat="50.503714" lon="-4.004371">
    <ele>190</ele>
    <time>2026-08-06T19:03:45Z</time>
    <speed>0.47</speed>
  </trkpt>
  <trkpt lat="50.503624" lon="-4.004345">
    <ele>198</ele>
    <time>2026-08-06T19:03:59Z</time>
    <speed>1.24</speed>
  </trkpt>
  <trkpt lat="50.503696" lon="-4.004443">
    <ele>188</ele>
    <time>2026-08-06T19:04:29Z</time>
    <speed>1.06</speed>
  </trkpt>
  <trkpt lat="50.503752" lon="-4.004573">
    <ele>189</ele>
    <time>2026-08-06T19:04:40Z</time>
    <speed>0.98999995</speed>
  </trkpt>
  <trkpt lat="50.503714" lon="-4.004439">
    <ele>184</ele>
    <time>2026-08-06T19:05:02Z</time>
    <speed>1.36</speed>
  </trkpt>
  <trkpt lat="50.503678" lon="-4.004299">
    <ele>183</ele>
    <time>2026-08-06T19:05:13Z</time>
    <speed>0.98999995</speed>
  </trkpt>
  <trkpt lat="50.503693" lon="-4.004157">
    <ele>192</ele>
    <time>2026-08-06T19:05:24Z</time>
    <speed>1.0799999</speed>
  </trkpt>
  <trkpt lat="50.503681" lon="-4.004017">
    <ele>194</ele>
    <time>2026-08-06T19:05:54Z</time>
    <speed>0.07</speed>
  </trkpt>
  <trkpt lat="50.503689" lon="-4.004170">
    <ele>188</ele>
    <time>2026-08-06T19:06:13Z</time>
    <speed>0.94</speed>
  </trkpt>
  <trkpt lat="50.503622" lon="-4.004328">
    <ele>185</ele>
    <time>2026-08-06T19:06:24Z</time>
    <speed>1.4399999</speed>
  </trkpt>
  <trkpt lat="50.503548" lon="-4.004442">
    <ele>186</ele>
    <time>2026-08-06T19:06:35Z</time>
    <speed>1.06</speed>
  </trkpt>
  <trkpt lat="50.503450" lon="-4.004488">
    <ele>189</ele>
    <time>2026-08-06T19:06:46Z</time>
    <speed>0.97999996</speed>
  </trkpt>
  <trkpt lat="50.503330" lon="-4.004466">
    <ele>185</ele>
    <time>2026-08-06T19:06:57Z</time>
    <speed>0.53</speed>
  </trkpt>
  <trkpt lat="50.503237" lon="-4.004468">
    <ele>179</ele>
    <time>2026-08-06T19:07:08Z</time>
    <speed>0.98999995</speed>
  </trkpt>
  <trkpt lat="50.503137" lon="-4.004484">
    <ele>181</ele>
    <time>2026-08-06T19:07:19Z</time>
    <speed>0.55</speed>
  </trkpt>
  <trkpt lat="50.503026" lon="-4.004447">
    <ele>180</ele>
    <time>2026-08-06T19:07:30Z</time>
    <speed>1.09</speed>
  </trkpt>
  <trkpt lat="50.502938" lon="-4.004415">
    <ele>179</ele>
    <time>2026-08-06T19:07:43Z</time>
    <speed>1.28</speed>
  </trkpt>
  <trkpt lat="50.502845" lon="-4.004406">
    <ele>176</ele>
    <time>2026-08-06T19:07:54Z</time>
    <speed>0.48999998</speed>
  </trkpt>
  <trkpt lat="50.502752" lon="-4.004430">
    <ele>176</ele>
    <time>2026-08-06T19:08:06Z</time>
    <speed>0.95</speed>
  </trkpt>
  <trkpt lat="50.502663" lon="-4.004422">
    <ele>175</ele>
    <time>2026-08-06T19:08:17Z</time>
    <speed>1.01</speed>
  </trkpt>
  <trkpt lat="50.502576" lon="-4.004475">
    <ele>172</ele>
    <time>2026-08-06T19:08:30Z</time>
    <speed>0.84999996</speed>
  </trkpt>
  <trkpt lat="50.502480" lon="-4.004445">
    <ele>173</ele>
    <time>2026-08-06T19:08:43Z</time>
    <speed>0.71</speed>
  </trkpt>
  <trkpt lat="50.502389" lon="-4.004401">
    <ele>177</ele>
    <time>2026-08-06T19:08:56Z</time>
    <speed>1.0699999</speed>
  </trkpt>
  <trkpt lat="50.502302" lon="-4.004338">
    <ele>169</ele>
    <time>2026-08-06T19:09:07Z</time>
    <speed>0.94</speed>
  </trkpt>
  <trkpt lat="50.502216" lon="-4.004287">
    <ele>167</ele>
    <time>2026-08-06T19:09:18Z</time>
    <speed>0.75</speed>
  </trkpt>
  <trkpt lat="50.502127" lon="-4.004258">
    <ele>167</ele>
    <time>2026-08-06T19:09:29Z</time>
    <speed>0.65999997</speed>
  </trkpt>
  <trkpt lat="50.502042" lon="-4.004212">
    <ele>166</ele>
    <time>2026-08-06T19:09:40Z</time>
    <speed>1.11</speed>
  </trkpt>
  <trkpt lat="50.501955" lon="-4.004087">
    <ele>162</ele>
    <time>2026-08-06T19:09:51Z</time>
    <speed>1.18</speed>
  </trkpt>
  <trkpt lat="50.501881" lon="-4.003943">
    <ele>163</ele>
    <time>2026-08-06T19:10:02Z</time>
    <speed>1.04</speed>
  </trkpt>
  <trkpt lat="50.501788" lon="-4.003882">
    <ele>161</ele>
    <time>2026-08-06T19:10:18Z</time>
    <speed>1.51</speed>
  </trkpt>
  <trkpt lat="50.501696" lon="-4.003817">
    <ele>164</ele>
    <time>2026-08-06T19:10:29Z</time>
    <speed>0.95</speed>
  </trkpt>
  <trkpt lat="50.501599" lon="-4.003781">
    <ele>162</ele>
    <time>2026-08-06T19:10:40Z</time>
    <speed>1.04</speed>
  </trkpt>
  <trkpt lat="50.501526" lon="-4.003693">
    <ele>161</ele>
    <time>2026-08-06T19:11:10Z</time>
    <speed>0.48999998</speed>
  </trkpt>
  <trkpt lat="50.501521" lon="-4.003539">
    <ele>162</ele>
    <time>2026-08-06T19:11:21Z</time>
    <speed>1.04</speed>
  </trkpt>
  <trkpt lat="50.501430" lon="-4.003548">
    <ele>160</ele>
    <time>2026-08-06T19:11:36Z</time>
    <speed>1.0699999</speed>
  </trkpt>
  <trkpt lat="50.501348" lon="-4.003614">
    <ele>160</ele>
    <time>2026-08-06T19:11:47Z</time>
    <speed>1.1999999</speed>
  </trkpt>
  <trkpt lat="50.501384" lon="-4.003767">
    <ele>157</ele>
    <time>2026-08-06T19:11:58Z</time>
    <speed>1.3199999</speed>
  </trkpt>
  <trkpt lat="50.501384" lon="-4.003955">
    <ele>157</ele>
    <time>2026-08-06T19:12:09Z</time>
    <speed>1.29</speed>
  </trkpt>
  <trkpt lat="50.501433" lon="-4.004137">
    <ele>155</ele>
    <time>2026-08-06T19:12:20Z</time>
    <speed>1.22</speed>
  </trkpt>
  <trkpt lat="50.501487" lon="-4.004336">
    <ele>152</ele>
    <time>2026-08-06T19:12:31Z</time>
    <speed>1.29</speed>
  </trkpt>
  <trkpt lat="50.501547" lon="-4.004490">
    <ele>153</ele>
    <time>2026-08-06T19:12:42Z</time>
    <speed>0.87</speed>
  </trkpt>
  <trkpt lat="50.501450" lon="-4.004602">
    <ele>148</ele>
    <time>2026-08-06T19:12:53Z</time>
    <speed>1.14</speed>
  </trkpt>
  <trkpt lat="50.501323" lon="-4.004747">
    <ele>149</ele>
    <time>2026-08-06T19:13:04Z</time>
    <speed>1.26</speed>
  </trkpt>
  <trkpt lat="50.501237" lon="-4.004914">
    <ele>146</ele>
    <time>2026-08-06T19:13:15Z</time>
    <speed>1.9</speed>
  </trkpt>
  <trkpt lat="50.501165" lon="-4.005054">
    <ele>144</ele>
    <time>2026-08-06T19:13:26Z</time>
    <speed>0.87</speed>
  </trkpt>
  <trkpt lat="50.501079" lon="-4.005181">
    <ele>140</ele>
    <time>2026-08-06T19:13:37Z</time>
    <speed>0.9</speed>
  </trkpt>
  <trkpt lat="50.500988" lon="-4.005340">
    <ele>142</ele>
    <time>2026-08-06T19:13:48Z</time>
    <speed>1.2099999</speed>
  </trkpt>
  <trkpt lat="50.500899" lon="-4.005447">
    <ele>142</ele>
    <time>2026-08-06T19:13:59Z</time>
    <speed>1.14</speed>
  </trkpt>
  <trkpt lat="50.500802" lon="-4.005584">
    <ele>139</ele>
    <time>2026-08-06T19:14:10Z</time>
    <speed>1.18</speed>
  </trkpt>
  <trkpt lat="50.500703" lon="-4.005632">
    <ele>140</ele>
    <time>2026-08-06T19:14:21Z</time>
    <speed>0.91999996</speed>
  </trkpt>
  <trkpt lat="50.500612" lon="-4.005565">
    <ele>141</ele>
    <time>2026-08-06T19:14:34Z</time>
    <speed>1.68</speed>
  </trkpt>
  <trkpt lat="50.500531" lon="-4.005481">
    <ele>139</ele>
    <time>2026-08-06T19:14:46Z</time>
    <speed>1.15</speed>
  </trkpt>
  <trkpt lat="50.500423" lon="-4.005424">
    <ele>138</ele>
    <time>2026-08-06T19:14:57Z</time>
    <speed>0.97999996</speed>
  </trkpt>
  <trkpt lat="50.500336" lon="-4.005365">
    <ele>140</ele>
    <time>2026-08-06T19:15:08Z</time>
    <speed>0.53999996</speed>
  </trkpt>
  <trkpt lat="50.500208" lon="-4.005295">
    <ele>148</ele>
    <time>2026-08-06T19:15:19Z</time>
    <speed>1.0699999</speed>
  </trkpt>
  <trkpt lat="50.500100" lon="-4.005378">
    <ele>145</ele>
    <time>2026-08-06T19:15:30Z</time>
    <speed>1.0699999</speed>
  </trkpt>
  <trkpt lat="50.500008" lon="-4.005442">
    <ele>146</ele>
    <time>2026-08-06T19:15:41Z</time>
    <speed>1.22</speed>
  </trkpt>
  <trkpt lat="50.499896" lon="-4.005452">
    <ele>149</ele>
    <time>2026-08-06T19:15:52Z</time>
    <speed>0.17</speed>
  </trkpt>
  <trkpt lat="50.499782" lon="-4.005462">
    <ele>146</ele>
    <time>2026-08-06T19:16:03Z</time>
    <speed>0.69</speed>
  </trkpt>
  <trkpt lat="50.499677" lon="-4.005640">
    <ele>148</ele>
    <time>2026-08-06T19:16:14Z</time>
    <speed>1.48</speed>
  </trkpt>
  <trkpt lat="50.499612" lon="-4.005832">
    <ele>146</ele>
    <time>2026-08-06T19:16:25Z</time>
    <speed>1.12</speed>
  </trkpt>
  <trkpt lat="50.499547" lon="-4.006007">
    <ele>146</ele>
    <time>2026-08-06T19:16:36Z</time>
    <speed>1.28</speed>
  </trkpt>
  <trkpt lat="50.499478" lon="-4.006132">
    <ele>147</ele>
    <time>2026-08-06T19:16:47Z</time>
    <speed>0.83</speed>
  </trkpt>
  <trkpt lat="50.499384" lon="-4.006129">
    <ele>153</ele>
    <time>2026-08-06T19:17:04Z</time>
    <speed>0.41</speed>
  </trkpt>
  <trkpt lat="50.499285" lon="-4.006145">
    <ele>152</ele>
    <time>2026-08-06T19:17:19Z</time>
    <speed>0.88</speed>
  </trkpt>
  <trkpt lat="50.499203" lon="-4.006226">
    <ele>161</ele>
    <time>2026-08-06T19:17:31Z</time>
    <speed>1.5</speed>
  </trkpt>
  <trkpt lat="50.499126" lon="-4.006301">
    <ele>160</ele>
    <time>2026-08-06T19:17:42Z</time>
    <speed>0.71</speed>
  </trkpt>
  <trkpt lat="50.499030" lon="-4.006380">
    <ele>161</ele>
    <time>2026-08-06T19:17:53Z</time>
    <speed>1.39</speed>
  </trkpt>
  <trkpt lat="50.498940" lon="-4.006462">
    <ele>162</ele>
    <time>2026-08-06T19:18:04Z</time>
    <speed>0.74</speed>
  </trkpt>
  <trkpt lat="50.498853" lon="-4.006535">
    <ele>159</ele>
    <time>2026-08-06T19:18:16Z</time>
    <speed>1.03</speed>
  </trkpt>
  <trkpt lat="50.498759" lon="-4.006593">
    <ele>168</ele>
    <time>2026-08-06T19:18:28Z</time>
    <speed>0.87</speed>
  </trkpt>
  <trkpt lat="50.498648" lon="-4.006596">
    <ele>169</ele>
    <time>2026-08-06T19:18:39Z</time>
    <speed>0.71</speed>
  </trkpt>
  <trkpt lat="50.498557" lon="-4.006641">
    <ele>172</ele>
    <time>2026-08-06T19:18:51Z</time>
    <speed>0.90999997</speed>
  </trkpt>
  <trkpt lat="50.498455" lon="-4.006674">
    <ele>173</ele>
    <time>2026-08-06T19:19:02Z</time>
    <speed>1.54</speed>
  </trkpt>
  <trkpt lat="50.498351" lon="-4.006742">
    <ele>173</ele>
    <time>2026-08-06T19:19:13Z</time>
    <speed>0.28</speed>
  </trkpt>
  <trkpt lat="50.498243" lon="-4.006745">
    <ele>178</ele>
    <time>2026-08-06T19:19:24Z</time>
    <speed>1.23</speed>
  </trkpt>
  <trkpt lat="50.498106" lon="-4.006785">
    <ele>180</ele>
    <time>2026-08-06T19:19:35Z</time>
    <speed>0.83</speed>
  </trkpt>
  <trkpt lat="50.497996" lon="-4.006747">
    <ele>176</ele>
    <time>2026-08-06T19:19:46Z</time>
    <speed>1.22</speed>
  </trkpt>
  <trkpt lat="50.497891" lon="-4.006659">
    <ele>174</ele>
    <time>2026-08-06T19:19:57Z</time>
    <speed>0.34</speed>
  </trkpt>
  <trkpt lat="50.497806" lon="-4.006600">
    <ele>173</ele>
    <time>2026-08-06T19:20:08Z</time>
    <speed>1.0799999</speed>
  </trkpt>
  <trkpt lat="50.497727" lon="-4.006523">
    <ele>182</ele>
    <time>2026-08-06T19:20:20Z</time>
    <speed>0.85999995</speed>
  </trkpt>
  <trkpt lat="50.497644" lon="-4.006452">
    <ele>185</ele>
    <time>2026-08-06T19:20:31Z</time>
    <speed>0.68</speed>
  </trkpt>
  <trkpt lat="50.497538" lon="-4.006369">
    <ele>187</ele>
    <time>2026-08-06T19:20:42Z</time>
    <speed>1.51</speed>
  </trkpt>
  <trkpt lat="50.497456" lon="-4.006306">
    <ele>186</ele>
    <time>2026-08-06T19:20:53Z</time>
    <speed>0.75</speed>
  </trkpt>
  <trkpt lat="50.497423" lon="-4.006165">
    <ele>181</ele>
    <time>2026-08-06T19:21:04Z</time>
    <speed>1.23</speed>
  </trkpt>
  <trkpt lat="50.497489" lon="-4.006023">
    <ele>186</ele>
    <time>2026-08-06T19:21:15Z</time>
    <speed>1.1</speed>
  </trkpt>
  <trkpt lat="50.497493" lon="-4.005882">
    <ele>188</ele>
    <time>2026-08-06T19:21:26Z</time>
    <speed>1.12</speed>
  </trkpt>
  <trkpt lat="50.497416" lon="-4.005754">
    <ele>189</ele>
    <time>2026-08-06T19:21:37Z</time>
    <speed>1.25</speed>
  </trkpt>
  <trkpt lat="50.497320" lon="-4.005612">
    <ele>185</ele>
    <time>2026-08-06T19:21:48Z</time>
    <speed>1.75</speed>
  </trkpt>
  <trkpt lat="50.497240" lon="-4.005451">
    <ele>190</ele>
    <time>2026-08-06T19:21:59Z</time>
    <speed>1.1999999</speed>
  </trkpt>
  <trkpt lat="50.497164" lon="-4.005328">
    <ele>192</ele>
    <time>2026-08-06T19:22:10Z</time>
    <speed>1.38</speed>
  </trkpt>
  <trkpt lat="50.497058" lon="-4.005224">
    <ele>179</ele>
    <time>2026-08-06T19:22:21Z</time>
    <speed>0.69</speed>
  </trkpt>
  <trkpt lat="50.496956" lon="-4.005106">
    <ele>194</ele>
    <time>2026-08-06T19:22:32Z</time>
    <speed>0.95</speed>
  </trkpt>
  <trkpt lat="50.496886" lon="-4.004956">
    <ele>192</ele>
    <time>2026-08-06T19:22:43Z</time>
    <speed>1.1899999</speed>
  </trkpt>
  <trkpt lat="50.496803" lon="-4.004821">
    <ele>191</ele>
    <time>2026-08-06T19:22:54Z</time>
    <speed>1.2099999</speed>
  </trkpt>
  <trkpt lat="50.496692" lon="-4.004763">
    <ele>190</ele>
    <time>2026-08-06T19:23:05Z</time>
    <speed>1.4399999</speed>
  </trkpt>
  <trkpt lat="50.496652" lon="-4.004624">
    <ele>190</ele>
    <time>2026-08-06T19:23:51Z</time>
    <speed>1.04</speed>
  </trkpt>
  <trkpt lat="50.496570" lon="-4.004529">
    <ele>192</ele>
    <time>2026-08-06T19:24:02Z</time>
    <speed>0.93</speed>
  </trkpt>
  <trkpt lat="50.496505" lon="-4.004412">
    <ele>193</ele>
    <time>2026-08-06T19:24:13Z</time>
    <speed>1.09</speed>
  </trkpt>
  <trkpt lat="50.496417" lon="-4.004267">
    <ele>191</ele>
    <time>2026-08-06T19:24:24Z</time>
    <speed>1.3</speed>
  </trkpt>
  <trkpt lat="50.496325" lon="-4.004130">
    <ele>193</ele>
    <time>2026-08-06T19:24:35Z</time>
    <speed>1.78</speed>
  </trkpt>
  <trkpt lat="50.496246" lon="-4.003983">
    <ele>195</ele>
    <time>2026-08-06T19:24:46Z</time>
    <speed>1.67</speed>
  </trkpt>
  <trkpt lat="50.496135" lon="-4.003876">
    <ele>195</ele>
    <time>2026-08-06T19:24:57Z</time>
    <speed>1.18</speed>
  </trkpt>
  <trkpt lat="50.496023" lon="-4.003793">
    <ele>191</ele>
    <time>2026-08-06T19:25:08Z</time>
    <speed>1.2099999</speed>
  </trkpt>
  <trkpt lat="50.495901" lon="-4.003690">
    <ele>195</ele>
    <time>2026-08-06T19:25:19Z</time>
    <speed>1.11</speed>
  </trkpt>
  <trkpt lat="50.495801" lon="-4.003570">
    <ele>195</ele>
    <time>2026-08-06T19:25:30Z</time>
    <speed>1.4699999</speed>
  </trkpt>
  <trkpt lat="50.495685" lon="-4.003447">
    <ele>195</ele>
    <time>2026-08-06T19:25:41Z</time>
    <speed>1.9599999</speed>
  </trkpt>
  <trkpt lat="50.495567" lon="-4.003361">
    <ele>193</ele>
    <time>2026-08-06T19:25:52Z</time>
    <speed>1.62</speed>
  </trkpt>
  <trkpt lat="50.495453" lon="-4.003242">
    <ele>197</ele>
    <time>2026-08-06T19:26:03Z</time>
    <speed>1.62</speed>
  </trkpt>
  <trkpt lat="50.495318" lon="-4.003156">
    <ele>193</ele>
    <time>2026-08-06T19:26:14Z</time>
    <speed>1.92</speed>
  </trkpt>
  <trkpt lat="50.495210" lon="-4.003098">
    <ele>198</ele>
    <time>2026-08-06T19:26:25Z</time>
    <speed>1.13</speed>
  </trkpt>
  <trkpt lat="50.495086" lon="-4.003009">
    <ele>199</ele>
    <time>2026-08-06T19:26:36Z</time>
    <speed>1.4599999</speed>
  </trkpt>
  <trkpt lat="50.494974" lon="-4.002896">
    <ele>200</ele>
    <time>2026-08-06T19:26:47Z</time>
    <speed>1.35</speed>
  </trkpt>
  <trkpt lat="50.494840" lon="-4.002834">
    <ele>199</ele>
    <time>2026-08-06T19:26:58Z</time>
    <speed>1.54</speed>
  </trkpt>
  <trkpt lat="50.494713" lon="-4.002759">
    <ele>204</ele>
    <time>2026-08-06T19:27:09Z</time>
    <speed>1.41</speed>
  </trkpt>
  <trkpt lat="50.494590" lon="-4.002650">
    <ele>204</ele>
    <time>2026-08-06T19:27:20Z</time>
    <speed>1.4699999</speed>
  </trkpt>
  <trkpt lat="50.494484" lon="-4.002552">
    <ele>199</ele>
    <time>2026-08-06T19:27:31Z</time>
    <speed>1.4599999</speed>
  </trkpt>
  <trkpt lat="50.494364" lon="-4.002451">
    <ele>200</ele>
    <time>2026-08-06T19:27:42Z</time>
    <speed>1.6999999</speed>
  </trkpt>
  <trkpt lat="50.494254" lon="-4.002372">
    <ele>200</ele>
    <time>2026-08-06T19:27:53Z</time>
    <speed>1.35</speed>
  </trkpt>
  <trkpt lat="50.494136" lon="-4.002266">
    <ele>203</ele>
    <time>2026-08-06T19:28:04Z</time>
    <speed>1.3199999</speed>
  </trkpt>
  <trkpt lat="50.494015" lon="-4.002203">
    <ele>199</ele>
    <time>2026-08-06T19:28:15Z</time>
    <speed>1.26</speed>
  </trkpt>
  <trkpt lat="50.493965" lon="-4.002079">
    <ele>202</ele>
    <time>2026-08-06T19:28:26Z</time>
    <speed>0.45</speed>
  </trkpt>
  <trkpt lat="50.493865" lon="-4.002050">
    <ele>201</ele>
    <time>2026-08-06T19:28:42Z</time>
    <speed>1.6999999</speed>
  </trkpt>
  <trkpt lat="50.493763" lon="-4.002148">
    <ele>198</ele>
    <time>2026-08-06T19:28:53Z</time>
    <speed>1.4399999</speed>
  </trkpt>
  <trkpt lat="50.493656" lon="-4.002219">
    <ele>197</ele>
    <time>2026-08-06T19:29:04Z</time>
    <speed>0.9</speed>
  </trkpt>
  <trkpt lat="50.493565" lon="-4.002246">
    <ele>200</ele>
    <time>2026-08-06T19:29:15Z</time>
    <speed>1.5999999</speed>
  </trkpt>
  <trkpt lat="50.493461" lon="-4.002320">
    <ele>198</ele>
    <time>2026-08-06T19:29:26Z</time>
    <speed>1.3</speed>
  </trkpt>
  <trkpt lat="50.493328" lon="-4.002334">
    <ele>202</ele>
    <time>2026-08-06T19:29:37Z</time>
    <speed>1.3399999</speed>
  </trkpt>
  <trkpt lat="50.493185" lon="-4.002291">
    <ele>195</ele>
    <time>2026-08-06T19:29:48Z</time>
    <speed>1.37</speed>
  </trkpt>
  <trkpt lat="50.493053" lon="-4.002269">
    <ele>204</ele>
    <time>2026-08-06T19:29:59Z</time>
    <speed>1.09</speed>
  </trkpt>
  <trkpt lat="50.492908" lon="-4.002296">
    <ele>202</ele>
    <time>2026-08-06T19:30:10Z</time>
    <speed>1.8</speed>
  </trkpt>
  <trkpt lat="50.492753" lon="-4.002336">
    <ele>200</ele>
    <time>2026-08-06T19:30:21Z</time>
    <speed>1.64</speed>
  </trkpt>
  <trkpt lat="50.492625" lon="-4.002349">
    <ele>201</ele>
    <time>2026-08-06T19:30:32Z</time>
    <speed>1.4</speed>
  </trkpt>
  <trkpt lat="50.492491" lon="-4.002342">
    <ele>200</ele>
    <time>2026-08-06T19:30:43Z</time>
    <speed>0.87</speed>
  </trkpt>
  <trkpt lat="50.492354" lon="-4.002354">
    <ele>197</ele>
    <time>2026-08-06T19:30:54Z</time>
    <speed>1.5699999</speed>
  </trkpt>
  <trkpt lat="50.492218" lon="-4.002324">
    <ele>197</ele>
    <time>2026-08-06T19:31:05Z</time>
    <speed>2.05</speed>
  </trkpt>
  <trkpt lat="50.492081" lon="-4.002296">
    <ele>197</ele>
    <time>2026-08-06T19:31:16Z</time>
    <speed>1.9799999</speed>
  </trkpt>
  <trkpt lat="50.491936" lon="-4.002249">
    <ele>202</ele>
    <time>2026-08-06T19:31:27Z</time>
    <speed>1.17</speed>
  </trkpt>
  <trkpt lat="50.491797" lon="-4.002242">
    <ele>201</ele>
    <time>2026-08-06T19:31:38Z</time>
    <speed>1.4499999</speed>
  </trkpt>
  <trkpt lat="50.491688" lon="-4.002216">
    <ele>201</ele>
    <time>2026-08-06T19:31:49Z</time>
    <speed>0.66999996</speed>
  </trkpt>
  <trkpt lat="50.491551" lon="-4.002249">
    <ele>202</ele>
    <time>2026-08-06T19:32:00Z</time>
    <speed>1.4699999</speed>
  </trkpt>
  <trkpt lat="50.491425" lon="-4.002243">
    <ele>202</ele>
    <time>2026-08-06T19:32:11Z</time>
    <speed>1.12</speed>
  </trkpt>
  <trkpt lat="50.491262" lon="-4.002210">
    <ele>201</ele>
    <time>2026-08-06T19:32:22Z</time>
    <speed>1.16</speed>
  </trkpt>
  <trkpt lat="50.491112" lon="-4.002190">
    <ele>198</ele>
    <time>2026-08-06T19:32:33Z</time>
    <speed>1.36</speed>
  </trkpt>
  <trkpt lat="50.491005" lon="-4.002172">
    <ele>201</ele>
    <time>2026-08-06T19:32:44Z</time>
    <speed>1.41</speed>
  </trkpt>
  <trkpt lat="50.490893" lon="-4.002142">
    <ele>201</ele>
    <time>2026-08-06T19:32:55Z</time>
    <speed>1.05</speed>
  </trkpt>
  <trkpt lat="50.490754" lon="-4.002081">
    <ele>202</ele>
    <time>2026-08-06T19:33:06Z</time>
    <speed>1.02</speed>
  </trkpt>
  <trkpt lat="50.490624" lon="-4.002047">
    <ele>201</ele>
    <time>2026-08-06T19:33:17Z</time>
    <speed>1.16</speed>
  </trkpt>
  <trkpt lat="50.490487" lon="-4.002010">
    <ele>202</ele>
    <time>2026-08-06T19:33:28Z</time>
    <speed>1.78</speed>
  </trkpt>
  <trkpt lat="50.490355" lon="-4.001919">
    <ele>200</ele>
    <time>2026-08-06T19:33:39Z</time>
    <speed>1.35</speed>
  </trkpt>
  <trkpt lat="50.490240" lon="-4.001847">
    <ele>204</ele>
    <time>2026-08-06T19:33:50Z</time>
    <speed>1.13</speed>
  </trkpt>
  <trkpt lat="50.490119" lon="-4.001784">
    <ele>204</ele>
    <time>2026-08-06T19:34:01Z</time>
    <speed>1.31</speed>
  </trkpt>
  <trkpt lat="50.490010" lon="-4.001720">
    <ele>202</ele>
    <time>2026-08-06T19:34:12Z</time>
    <speed>1.51</speed>
  </trkpt>
  <trkpt lat="50.489889" lon="-4.001636">
    <ele>202</ele>
    <time>2026-08-06T19:34:23Z</time>
    <speed>1.4699999</speed>
  </trkpt>
  <trkpt lat="50.489759" lon="-4.001598">
    <ele>202</ele>
    <time>2026-08-06T19:34:34Z</time>
    <speed>1.0799999</speed>
  </trkpt>
  <trkpt lat="50.489648" lon="-4.001558">
    <ele>200</ele>
    <time>2026-08-06T19:34:45Z</time>
    <speed>0.84999996</speed>
  </trkpt>
  <trkpt lat="50.489521" lon="-4.001506">
    <ele>203</ele>
    <time>2026-08-06T19:34:56Z</time>
    <speed>1.15</speed>
  </trkpt>
  <trkpt lat="50.489413" lon="-4.001454">
    <ele>203</ele>
    <time>2026-08-06T19:35:07Z</time>
    <speed>0.93</speed>
  </trkpt>
  <trkpt lat="50.489323" lon="-4.001578">
    <ele>203</ele>
    <time>2026-08-06T19:35:18Z</time>
    <speed>1.25</speed>
  </trkpt>
  <trkpt lat="50.489256" lon="-4.001722">
    <ele>200</ele>
    <time>2026-08-06T19:35:29Z</time>
    <speed>1.06</speed>
  </trkpt>
  <trkpt lat="50.489183" lon="-4.001815">
    <ele>195</ele>
    <time>2026-08-06T19:35:40Z</time>
    <speed>1.25</speed>
  </trkpt>
  <trkpt lat="50.489083" lon="-4.001940">
    <ele>195</ele>
    <time>2026-08-06T19:35:51Z</time>
    <speed>1.12</speed>
  </trkpt>
  <trkpt lat="50.488979" lon="-4.002074">
    <ele>197</ele>
    <time>2026-08-06T19:36:02Z</time>
    <speed>1.54</speed>
  </trkpt>
  <trkpt lat="50.488868" lon="-4.002229">
    <ele>195</ele>
    <time>2026-08-06T19:36:13Z</time>
    <speed>1.28</speed>
  </trkpt>
  <trkpt lat="50.488758" lon="-4.002369">
    <ele>196</ele>
    <time>2026-08-06T19:36:24Z</time>
    <speed>1.28</speed>
  </trkpt>
  <trkpt lat="50.488684" lon="-4.002520">
    <ele>193</ele>
    <time>2026-08-06T19:36:35Z</time>
    <speed>1.18</speed>
  </trkpt>
  <trkpt lat="50.488621" lon="-4.002706">
    <ele>193</ele>
    <time>2026-08-06T19:36:46Z</time>
    <speed>1.28</speed>
  </trkpt>
  <trkpt lat="50.488572" lon="-4.002911">
    <ele>188</ele>
    <time>2026-08-06T19:36:57Z</time>
    <speed>1.31</speed>
  </trkpt>
  <trkpt lat="50.488532" lon="-4.003131">
    <ele>191</ele>
    <time>2026-08-06T19:37:08Z</time>
    <speed>1.35</speed>
  </trkpt>
  <trkpt lat="50.488489" lon="-4.003344">
    <ele>188</ele>
    <time>2026-08-06T19:37:19Z</time>
    <speed>1.42</speed>
  </trkpt>
  <trkpt lat="50.488438" lon="-4.003540">
    <ele>187</ele>
    <time>2026-08-06T19:37:30Z</time>
    <speed>1.18</speed>
  </trkpt>
  <trkpt lat="50.488419" lon="-4.003769">
    <ele>188</ele>
    <time>2026-08-06T19:37:41Z</time>
    <speed>1.12</speed>
  </trkpt>
  <trkpt lat="50.488396" lon="-4.003975">
    <ele>187</ele>
    <time>2026-08-06T19:37:52Z</time>
    <speed>1.3199999</speed>
  </trkpt>
  <trkpt lat="50.488350" lon="-4.004215">
    <ele>187</ele>
    <time>2026-08-06T19:38:03Z</time>
    <speed>1.5899999</speed>
  </trkpt>
  <trkpt lat="50.488334" lon="-4.004429">
    <ele>185</ele>
    <time>2026-08-06T19:38:14Z</time>
    <speed>1.53</speed>
  </trkpt>
  <trkpt lat="50.488321" lon="-4.004577">
    <ele>181</ele>
    <time>2026-08-06T19:38:40Z</time>
    <speed>1.5</speed>
  </trkpt>
  <trkpt lat="50.488395" lon="-4.004488">
    <ele>183</ele>
    <time>2026-08-06T19:39:31Z</time>
    <speed>1.06</speed>
  </trkpt>
 </trkseg>
</trk>
</gpx>
