<?xml version="1.0" encoding="UTF-8" ?>
<gpx
 version="1.0"
 creator="Maverick - http://www.maverickgps.com"
 xmlns:xsi="http://www.w3.org/2001/XMLSchema-instance"
 xmlns="http://www.topografix.com/GPX/1/0"
 xsi:schemaLocation="http://www.topografix.com/GPX/1/0 http://www.topografix.com/GPX/1/0/gpx.xsd">
<time>2026-09-10T17:13:58Z</time>
<trk>
 <name>2026-09-10 @ 18-13-58</name>
 <trkseg>
  <trkpt lat="50.544439" lon="-3.862755">
    <ele>343</ele>
    <time>2026-09-10T17:13:56Z</time>
    <speed>0.48999998</speed>
  </trkpt>
  <trkpt lat="50.544391" lon="-3.862629">
    <ele>342</ele>
    <time>2026-09-10T17:14:09Z</time>
    <speed>0.78</speed>
  </trkpt>
  <trkpt lat="50.544320" lon="-3.862480">
    <ele>338</ele>
    <time>2026-09-10T17:14:20Z</time>
    <speed>1.27</speed>
  </trkpt>
  <trkpt lat="50.544278" lon="-3.862353">
    <ele>337</ele>
    <time>2026-09-10T17:14:31Z</time>
    <speed>0.82</speed>
  </trkpt>
  <trkpt lat="50.544206" lon="-3.862256">
    <ele>334</ele>
    <time>2026-09-10T17:14:42Z</time>
    <speed>1.66</speed>
  </trkpt>
  <trkpt lat="50.544153" lon="-3.862130">
    <ele>332</ele>
    <time>2026-09-10T17:14:59Z</time>
    <speed>0.97999996</speed>
  </trkpt>
  <trkpt lat="50.544097" lon="-3.862016">
    <ele>329</ele>
    <time>2026-09-10T17:15:13Z</time>
    <speed>0.85999995</speed>
  </trkpt>
  <trkpt lat="50.544031" lon="-3.861894">
    <ele>326</ele>
    <time>2026-09-10T17:15:26Z</time>
    <speed>1.37</speed>
  </trkpt>
  <trkpt lat="50.543975" lon="-3.861774">
    <ele>323</ele>
    <time>2026-09-10T17:15:39Z</time>
    <speed>0.88</speed>
  </trkpt>
  <trkpt lat="50.543888" lon="-3.861710">
    <ele>319</ele>
    <time>2026-09-10T17:15:51Z</time>
    <speed>0.61</speed>
  </trkpt>
  <trkpt lat="50.543886" lon="-3.861562">
    <ele>316</ele>
    <time>2026-09-10T17:16:07Z</time>
    <speed>0.81</speed>
  </trkpt>
  <trkpt lat="50.543882" lon="-3.861416">
    <ele>310</ele>
    <time>2026-09-10T17:16:29Z</time>
    <speed>0.90999997</speed>
  </trkpt>
  <trkpt lat="50.543845" lon="-3.861287">
    <ele>307</ele>
    <time>2026-09-10T17:16:45Z</time>
    <speed>0.69</speed>
  </trkpt>
  <trkpt lat="50.543863" lon="-3.861147">
    <ele>304</ele>
    <time>2026-09-10T17:16:58Z</time>
    <speed>0.63</speed>
  </trkpt>
  <trkpt lat="50.543887" lon="-3.860994">
    <ele>302</ele>
    <time>2026-09-10T17:17:20Z</time>
    <speed>1.09</speed>
  </trkpt>
  <trkpt lat="50.543906" lon="-3.860846">
    <ele>302</ele>
    <time>2026-09-10T17:17:32Z</time>
    <speed>0.69</speed>
  </trkpt>
  <trkpt lat="50.543823" lon="-3.860723">
    <ele>301</ele>
    <time>2026-09-10T17:17:43Z</time>
    <speed>1.22</speed>
  </trkpt>
  <trkpt lat="50.543713" lon="-3.860688">
    <ele>299</ele>
    <time>2026-09-10T17:17:54Z</time>
    <speed>0.28</speed>
  </trkpt>
  <trkpt lat="50.543689" lon="-3.860538">
    <ele>301</ele>
    <time>2026-09-10T17:18:11Z</time>
    <speed>1.12</speed>
  </trkpt>
  <trkpt lat="50.543654" lon="-3.860402">
    <ele>307</ele>
    <time>2026-09-10T17:18:23Z</time>
    <speed>0.31</speed>
  </trkpt>
  <trkpt lat="50.543573" lon="-3.860317">
    <ele>286</ele>
    <time>2026-09-10T17:18:34Z</time>
    <speed>1.03</speed>
  </trkpt>
  <trkpt lat="50.543557" lon="-3.860169">
    <ele>312</ele>
    <time>2026-09-10T17:18:45Z</time>
    <speed>0.75</speed>
  </trkpt>
  <trkpt lat="50.543519" lon="-3.860030">
    <ele>289</ele>
    <time>2026-09-10T17:18:56Z</time>
    <speed>0.79999995</speed>
  </trkpt>
  <trkpt lat="50.543515" lon="-3.859862">
    <ele>307</ele>
    <time>2026-09-10T17:19:07Z</time>
    <speed>0.83</speed>
  </trkpt>
  <trkpt lat="50.543523" lon="-3.859670">
    <ele>297</ele>
    <time>2026-09-10T17:19:18Z</time>
    <speed>1.51</speed>
  </trkpt>
  <trkpt lat="50.543503" lon="-3.859514">
    <ele>310</ele>
    <time>2026-09-10T17:19:29Z</time>
    <speed>0.95</speed>
  </trkpt>
  <trkpt lat="50.543440" lon="-3.859362">
    <ele>311</ele>
    <time>2026-09-10T17:19:40Z</time>
    <speed>0.93</speed>
  </trkpt>
  <trkpt lat="50.543437" lon="-3.859196">
    <ele>314</ele>
    <time>2026-09-10T17:19:51Z</time>
    <speed>2.1699998</speed>
  </trkpt>
  <trkpt lat="50.543335" lon="-3.859113">
    <ele>312</ele>
    <time>2026-09-10T17:20:02Z</time>
    <speed>1.15</speed>
  </trkpt>
  <trkpt lat="50.543249" lon="-3.858991">
    <ele>309</ele>
    <time>2026-09-10T17:20:13Z</time>
    <speed>1.14</speed>
  </trkpt>
  <trkpt lat="50.543165" lon="-3.858819">
    <ele>316</ele>
    <time>2026-09-10T17:20:24Z</time>
    <speed>1.35</speed>
  </trkpt>
  <trkpt lat="50.543111" lon="-3.858649">
    <ele>309</ele>
    <time>2026-09-10T17:20:35Z</time>
    <speed>1.22</speed>
  </trkpt>
  <trkpt lat="50.543062" lon="-3.858495">
    <ele>316</ele>
    <time>2026-09-10T17:20:46Z</time>
    <speed>1.0699999</speed>
  </trkpt>
  <trkpt lat="50.543009" lon="-3.858356">
    <ele>315</ele>
    <time>2026-09-10T17:20:57Z</time>
    <speed>1.1999999</speed>
  </trkpt>
  <trkpt lat="50.542968" lon="-3.858212">
    <ele>320</ele>
    <time>2026-09-10T17:21:08Z</time>
    <speed>0.84999996</speed>
  </trkpt>
  <trkpt lat="50.542911" lon="-3.858086">
    <ele>329</ele>
    <time>2026-09-10T17:21:19Z</time>
    <speed>0.53999996</speed>
  </trkpt>
  <trkpt lat="50.542871" lon="-3.857944">
    <ele>312</ele>
    <time>2026-09-10T17:21:30Z</time>
    <speed>0.22</speed>
  </trkpt>
  <trkpt lat="50.542776" lon="-3.857814">
    <ele>329</ele>
    <time>2026-09-10T17:21:41Z</time>
    <speed>1.51</speed>
  </trkpt>
  <trkpt lat="50.542704" lon="-3.857674">
    <ele>328</ele>
    <time>2026-09-10T17:21:52Z</time>
    <speed>1.4</speed>
  </trkpt>
  <trkpt lat="50.542647" lon="-3.857542">
    <ele>310</ele>
    <time>2026-09-10T17:22:03Z</time>
    <speed>1.05</speed>
  </trkpt>
  <trkpt lat="50.542585" lon="-3.857370">
    <ele>336</ele>
    <time>2026-09-10T17:22:14Z</time>
    <speed>1.37</speed>
  </trkpt>
  <trkpt lat="50.542523" lon="-3.857223">
    <ele>343</ele>
    <time>2026-09-10T17:22:25Z</time>
    <speed>0.64</speed>
  </trkpt>
  <trkpt lat="50.542499" lon="-3.857073">
    <ele>340</ele>
    <time>2026-09-10T17:22:36Z</time>
    <speed>0.96999997</speed>
  </trkpt>
  <trkpt lat="50.542422" lon="-3.856947">
    <ele>317</ele>
    <time>2026-09-10T17:22:47Z</time>
    <speed>1.56</speed>
  </trkpt>
  <trkpt lat="50.542370" lon="-3.856771">
    <ele>353</ele>
    <time>2026-09-10T17:22:58Z</time>
    <speed>1.28</speed>
  </trkpt>
  <trkpt lat="50.542324" lon="-3.856639">
    <ele>329</ele>
    <time>2026-09-10T17:23:11Z</time>
    <speed>0.71</speed>
  </trkpt>
  <trkpt lat="50.542291" lon="-3.856489">
    <ele>333</ele>
    <time>2026-09-10T17:23:22Z</time>
    <speed>0.71</speed>
  </trkpt>
  <trkpt lat="50.542238" lon="-3.856333">
    <ele>347</ele>
    <time>2026-09-10T17:23:33Z</time>
    <speed>0.89</speed>
  </trkpt>
  <trkpt lat="50.542196" lon="-3.856169">
    <ele>349</ele>
    <time>2026-09-10T17:23:44Z</time>
    <speed>1.02</speed>
  </trkpt>
  <trkpt lat="50.542199" lon="-3.856012">
    <ele>348</ele>
    <time>2026-09-10T17:23:55Z</time>
    <speed>0.5</speed>
  </trkpt>
  <trkpt lat="50.542195" lon="-3.855859">
    <ele>347</ele>
    <time>2026-09-10T17:24:06Z</time>
    <speed>0.90999997</speed>
  </trkpt>
  <trkpt lat="50.542154" lon="-3.855723">
    <ele>316</ele>
    <time>2026-09-10T17:24:17Z</time>
    <speed>1.23</speed>
  </trkpt>
  <trkpt lat="50.542124" lon="-3.855571">
    <ele>353</ele>
    <time>2026-09-10T17:24:28Z</time>
    <speed>0.65</speed>
  </trkpt>
  <trkpt lat="50.542111" lon="-3.855415">
    <ele>317</ele>
    <time>2026-09-10T17:24:43Z</time>
    <speed>0.28</speed>
  </trkpt>
  <trkpt lat="50.542060" lon="-3.855270">
    <ele>350</ele>
    <time>2026-09-10T17:24:56Z</time>
    <speed>1.1999999</speed>
  </trkpt>
  <trkpt lat="50.542033" lon="-3.855131">
    <ele>336</ele>
    <time>2026-09-10T17:25:07Z</time>
    <speed>0.35999998</speed>
  </trkpt>
  <trkpt lat="50.542048" lon="-3.854988">
    <ele>364</ele>
    <time>2026-09-10T17:25:20Z</time>
    <speed>1.1</speed>
  </trkpt>
  <trkpt lat="50.542091" lon="-3.854853">
    <ele>360</ele>
    <time>2026-09-10T17:29:04Z</time>
    <speed>1.23</speed>
  </trkpt>
  <trkpt lat="50.542062" lon="-3.854681">
    <ele>361</ele>
    <time>2026-09-10T17:29:15Z</time>
    <speed>0.82</speed>
  </trkpt>
  <trkpt lat="50.542043" lon="-3.854537">
    <ele>355</ele>
    <time>2026-09-10T17:29:29Z</time>
    <speed>0.94</speed>
  </trkpt>
  <trkpt lat="50.542008" lon="-3.854400">
    <ele>354</ele>
    <time>2026-09-10T17:29:43Z</time>
    <speed>1.24</speed>
  </trkpt>
  <trkpt lat="50.541948" lon="-3.854278">
    <ele>354</ele>
    <time>2026-09-10T17:29:54Z</time>
    <speed>0.93</speed>
  </trkpt>
  <trkpt lat="50.541908" lon="-3.854144">
    <ele>352</ele>
    <time>2026-09-10T17:30:05Z</time>
    <speed>1.13</speed>
  </trkpt>
  <trkpt lat="50.541925" lon="-3.854000">
    <ele>348</ele>
    <time>2026-09-10T17:30:22Z</time>
    <speed>0.89</speed>
  </trkpt>
  <trkpt lat="50.541952" lon="-3.853865">
    <ele>346</ele>
    <time>2026-09-10T17:30:34Z</time>
    <speed>0.94</speed>
  </trkpt>
  <trkpt lat="50.541959" lon="-3.853720">
    <ele>343</ele>
    <time>2026-09-10T17:30:46Z</time>
    <speed>0.65</speed>
  </trkpt>
  <trkpt lat="50.541968" lon="-3.853579">
    <ele>339</ele>
    <time>2026-09-10T17:30:58Z</time>
    <speed>1.91</speed>
  </trkpt>
  <trkpt lat="50.541954" lon="-3.853435">
    <ele>339</ele>
    <time>2026-09-10T17:31:10Z</time>
    <speed>0.91999996</speed>
  </trkpt>
  <trkpt lat="50.541974" lon="-3.853287">
    <ele>337</ele>
    <time>2026-09-10T17:31:22Z</time>
    <speed>1.25</speed>
  </trkpt>
  <trkpt lat="50.542014" lon="-3.853153">
    <ele>333</ele>
    <time>2026-09-10T17:31:34Z</time>
    <speed>1.3299999</speed>
  </trkpt>
  <trkpt lat="50.542101" lon="-3.853060">
    <ele>331</ele>
    <time>2026-09-10T17:31:45Z</time>
    <speed>1.28</speed>
  </trkpt>
  <trkpt lat="50.542136" lon="-3.852916">
    <ele>332</ele>
    <time>2026-09-10T17:31:56Z</time>
    <speed>0.39999998</speed>
  </trkpt>
  <trkpt lat="50.542142" lon="-3.852771">
    <ele>329</ele>
    <time>2026-09-10T17:32:09Z</time>
    <speed>1.13</speed>
  </trkpt>
  <trkpt lat="50.542170" lon="-3.852624">
    <ele>327</ele>
    <time>2026-09-10T17:32:22Z</time>
    <speed>1.22</speed>
  </trkpt>
  <trkpt lat="50.542154" lon="-3.852474">
    <ele>324</ele>
    <time>2026-09-10T17:32:33Z</time>
    <speed>0.65</speed>
  </trkpt>
  <trkpt lat="50.542203" lon="-3.852342">
    <ele>323</ele>
    <time>2026-09-10T17:32:47Z</time>
    <speed>1.06</speed>
  </trkpt>
  <trkpt lat="50.542242" lon="-3.852200">
    <ele>320</ele>
    <time>2026-09-10T17:32:59Z</time>
    <speed>1.1</speed>
  </trkpt>
  <trkpt lat="50.542254" lon="-3.852038">
    <ele>319</ele>
    <time>2026-09-10T17:33:10Z</time>
    <speed>1.27</speed>
  </trkpt>
  <trkpt lat="50.542275" lon="-3.851851">
    <ele>318</ele>
    <time>2026-09-10T17:33:21Z</time>
    <speed>1.4399999</speed>
  </trkpt>
  <trkpt lat="50.542254" lon="-3.851704">
    <ele>316</ele>
    <time>2026-09-10T17:33:32Z</time>
    <speed>0.83</speed>
  </trkpt>
  <trkpt lat="50.542267" lon="-3.851515">
    <ele>314</ele>
    <time>2026-09-10T17:33:43Z</time>
    <speed>0.96999997</speed>
  </trkpt>
  <trkpt lat="50.542225" lon="-3.851387">
    <ele>314</ele>
    <time>2026-09-10T17:33:56Z</time>
    <speed>0.89</speed>
  </trkpt>
  <trkpt lat="50.542187" lon="-3.851211">
    <ele>310</ele>
    <time>2026-09-10T17:34:07Z</time>
    <speed>0.94</speed>
  </trkpt>
  <trkpt lat="50.542198" lon="-3.851045">
    <ele>310</ele>
    <time>2026-09-10T17:34:18Z</time>
    <speed>0.96</speed>
  </trkpt>
  <trkpt lat="50.542182" lon="-3.850872">
    <ele>305</ele>
    <time>2026-09-10T17:34:29Z</time>
    <speed>0.97999996</speed>
  </trkpt>
  <trkpt lat="50.542237" lon="-3.850699">
    <ele>307</ele>
    <time>2026-09-10T17:34:40Z</time>
    <speed>1.35</speed>
  </trkpt>
  <trkpt lat="50.542312" lon="-3.850543">
    <ele>309</ele>
    <time>2026-09-10T17:34:51Z</time>
    <speed>1.03</speed>
  </trkpt>
  <trkpt lat="50.542432" lon="-3.850461">
    <ele>309</ele>
    <time>2026-09-10T17:35:02Z</time>
    <speed>1.2099999</speed>
  </trkpt>
  <trkpt lat="50.542533" lon="-3.850472">
    <ele>309</ele>
    <time>2026-09-10T17:35:13Z</time>
    <speed>1.5799999</speed>
  </trkpt>
  <trkpt lat="50.542584" lon="-3.850351">
    <ele>308</ele>
    <time>2026-09-10T17:35:25Z</time>
    <speed>1.37</speed>
  </trkpt>
  <trkpt lat="50.542706" lon="-3.850335">
    <ele>314</ele>
    <time>2026-09-10T17:35:36Z</time>
    <speed>0.13</speed>
  </trkpt>
  <trkpt lat="50.542800" lon="-3.850312">
    <ele>313</ele>
    <time>2026-09-10T17:36:03Z</time>
    <speed>0.69</speed>
  </trkpt>
  <trkpt lat="50.542875" lon="-3.850229">
    <ele>317</ele>
    <time>2026-09-10T17:36:20Z</time>
    <speed>1.1</speed>
  </trkpt>
  <trkpt lat="50.542906" lon="-3.850094">
    <ele>314</ele>
    <time>2026-09-10T17:36:33Z</time>
    <speed>0.78999996</speed>
  </trkpt>
  <trkpt lat="50.542983" lon="-3.849982">
    <ele>315</ele>
    <time>2026-09-10T17:36:44Z</time>
    <speed>0.59999996</speed>
  </trkpt>
  <trkpt lat="50.543068" lon="-3.849918">
    <ele>321</ele>
    <time>2026-09-10T17:36:56Z</time>
    <speed>0.83</speed>
  </trkpt>
  <trkpt lat="50.543087" lon="-3.849769">
    <ele>321</ele>
    <time>2026-09-10T17:37:08Z</time>
    <speed>0.82</speed>
  </trkpt>
  <trkpt lat="50.543119" lon="-3.849626">
    <ele>315</ele>
    <time>2026-09-10T17:37:19Z</time>
    <speed>1.0799999</speed>
  </trkpt>
  <trkpt lat="50.543189" lon="-3.849536">
    <ele>325</ele>
    <time>2026-09-10T17:37:32Z</time>
    <speed>1.3399999</speed>
  </trkpt>
  <trkpt lat="50.543279" lon="-3.849495">
    <ele>326</ele>
    <time>2026-09-10T17:37:50Z</time>
    <speed>0.88</speed>
  </trkpt>
  <trkpt lat="50.543360" lon="-3.849426">
    <ele>333</ele>
    <time>2026-09-10T17:38:05Z</time>
    <speed>0.66999996</speed>
  </trkpt>
  <trkpt lat="50.543432" lon="-3.849326">
    <ele>326</ele>
    <time>2026-09-10T17:38:17Z</time>
    <speed>0.79999995</speed>
  </trkpt>
  <trkpt lat="50.543521" lon="-3.849272">
    <ele>329</ele>
    <time>2026-09-10T17:38:30Z</time>
    <speed>0.45999998</speed>
  </trkpt>
  <trkpt lat="50.543584" lon="-3.849378">
    <ele>328</ele>
    <time>2026-09-10T17:38:44Z</time>
    <speed>1.2099999</speed>
  </trkpt>
  <trkpt lat="50.543643" lon="-3.849487">
    <ele>324</ele>
    <time>2026-09-10T17:38:57Z</time>
    <speed>1.16</speed>
  </trkpt>
  <trkpt lat="50.543692" lon="-3.849635">
    <ele>321</ele>
    <time>2026-09-10T17:39:08Z</time>
    <speed>0.91999996</speed>
  </trkpt>
  <trkpt lat="50.543727" lon="-3.849797">
    <ele>326</ele>
    <time>2026-09-10T17:39:19Z</time>
    <speed>0.89</speed>
  </trkpt>
  <trkpt lat="50.543735" lon="-3.849944">
    <ele>325</ele>
    <time>2026-09-10T17:39:42Z</time>
    <speed>1.05</speed>
  </trkpt>
  <trkpt lat="50.543743" lon="-3.850097">
    <ele>325</ele>
    <time>2026-09-10T17:39:54Z</time>
    <speed>1.3</speed>
  </trkpt>
  <trkpt lat="50.543797" lon="-3.850225">
    <ele>324</ele>
    <time>2026-09-10T17:40:09Z</time>
    <speed>1.25</speed>
  </trkpt>
  <trkpt lat="50.543883" lon="-3.850287">
    <ele>326</ele>
    <time>2026-09-10T17:40:20Z</time>
    <speed>0.61</speed>
  </trkpt>
  <trkpt lat="50.543965" lon="-3.850228">
    <ele>322</ele>
    <time>2026-09-10T17:40:33Z</time>
    <speed>1.43</speed>
  </trkpt>
  <trkpt lat="50.544046" lon="-3.850132">
    <ele>313</ele>
    <time>2026-09-10T17:40:44Z</time>
    <speed>0.16</speed>
  </trkpt>
  <trkpt lat="50.544102" lon="-3.850020">
    <ele>330</ele>
    <time>2026-09-10T17:40:56Z</time>
    <speed>0.84</speed>
  </trkpt>
  <trkpt lat="50.544177" lon="-3.849925">
    <ele>338</ele>
    <time>2026-09-10T17:41:09Z</time>
    <speed>0.81</speed>
  </trkpt>
  <trkpt lat="50.544250" lon="-3.849825">
    <ele>313</ele>
    <time>2026-09-10T17:41:22Z</time>
    <speed>0.64</speed>
  </trkpt>
  <trkpt lat="50.544346" lon="-3.849727">
    <ele>332</ele>
    <time>2026-09-10T17:41:33Z</time>
    <speed>0.65999997</speed>
  </trkpt>
  <trkpt lat="50.544443" lon="-3.849668">
    <ele>338</ele>
    <time>2026-09-10T17:41:44Z</time>
    <speed>1.0</speed>
  </trkpt>
  <trkpt lat="50.544537" lon="-3.849653">
    <ele>336</ele>
    <time>2026-09-10T17:41:55Z</time>
    <speed>0.97999996</speed>
  </trkpt>
  <trkpt lat="50.544649" lon="-3.849666">
    <ele>338</ele>
    <time>2026-09-10T17:42:06Z</time>
    <speed>0.87</speed>
  </trkpt>
  <trkpt lat="50.544743" lon="-3.849690">
    <ele>338</ele>
    <time>2026-09-10T17:42:18Z</time>
    <speed>1.09</speed>
  </trkpt>
  <trkpt lat="50.544842" lon="-3.849669">
    <ele>337</ele>
    <time>2026-09-10T17:42:29Z</time>
    <speed>1.2099999</speed>
  </trkpt>
  <trkpt lat="50.544946" lon="-3.849632">
    <ele>340</ele>
    <time>2026-09-10T17:42:40Z</time>
    <speed>1.22</speed>
  </trkpt>
  <trkpt lat="50.545036" lon="-3.849614">
    <ele>343</ele>
    <time>2026-09-10T17:42:54Z</time>
    <speed>0.57</speed>
  </trkpt>
  <trkpt lat="50.545118" lon="-3.849544">
    <ele>342</ele>
    <time>2026-09-10T17:43:05Z</time>
    <speed>0.82</speed>
  </trkpt>
  <trkpt lat="50.545228" lon="-3.849545">
    <ele>341</ele>
    <time>2026-09-10T17:43:16Z</time>
    <speed>0.58</speed>
  </trkpt>
  <trkpt lat="50.545339" lon="-3.849554">
    <ele>340</ele>
    <time>2026-09-10T17:43:27Z</time>
    <speed>0.91999996</speed>
  </trkpt>
  <trkpt lat="50.545435" lon="-3.849615">
    <ele>332</ele>
    <time>2026-09-10T17:43:38Z</time>
    <speed>0.39</speed>
  </trkpt>
  <trkpt lat="50.545518" lon="-3.849699">
    <ele>343</ele>
    <time>2026-09-10T17:43:49Z</time>
    <speed>0.81</speed>
  </trkpt>
  <trkpt lat="50.545625" lon="-3.849765">
    <ele>344</ele>
    <time>2026-09-10T17:44:00Z</time>
    <speed>0.38</speed>
  </trkpt>
  <trkpt lat="50.545733" lon="-3.849758">
    <ele>340</ele>
    <time>2026-09-10T17:44:11Z</time>
    <speed>1.01</speed>
  </trkpt>
  <trkpt lat="50.545832" lon="-3.849792">
    <ele>341</ele>
    <time>2026-09-10T17:44:22Z</time>
    <speed>1.05</speed>
  </trkpt>
  <trkpt lat="50.545932" lon="-3.849832">
    <ele>343</ele>
    <time>2026-09-10T17:44:33Z</time>
    <speed>0.63</speed>
  </trkpt>
  <trkpt lat="50.546017" lon="-3.849701">
    <ele>346</ele>
    <time>2026-09-10T17:44:44Z</time>
    <speed>0.38</speed>
  </trkpt>
  <trkpt lat="50.546138" lon="-3.849697">
    <ele>344</ele>
    <time>2026-09-10T17:44:55Z</time>
    <speed>0.82</speed>
  </trkpt>
  <trkpt lat="50.546242" lon="-3.849687">
    <ele>345</ele>
    <time>2026-09-10T17:45:06Z</time>
    <speed>1.03</speed>
  </trkpt>
  <trkpt lat="50.546332" lon="-3.849704">
    <ele>345</ele>
    <time>2026-09-10T17:45:19Z</time>
    <speed>0.94</speed>
  </trkpt>
  <trkpt lat="50.546440" lon="-3.849736">
    <ele>343</ele>
    <time>2026-09-10T17:45:30Z</time>
    <speed>0.84</speed>
  </trkpt>
  <trkpt lat="50.546541" lon="-3.849777">
    <ele>346</ele>
    <time>2026-09-10T17:45:41Z</time>
    <speed>0.98999995</speed>
  </trkpt>
  <trkpt lat="50.546653" lon="-3.849750">
    <ele>346</ele>
    <time>2026-09-10T17:45:52Z</time>
    <speed>1.02</speed>
  </trkpt>
  <trkpt lat="50.546773" lon="-3.849741">
    <ele>348</ele>
    <time>2026-09-10T17:46:03Z</time>
    <speed>0.84</speed>
  </trkpt>
  <trkpt lat="50.546885" lon="-3.849736">
    <ele>347</ele>
    <time>2026-09-10T17:46:14Z</time>
    <speed>1.1999999</speed>
  </trkpt>
  <trkpt lat="50.547007" lon="-3.849739">
    <ele>344</ele>
    <time>2026-09-10T17:46:25Z</time>
    <speed>1.04</speed>
  </trkpt>
  <trkpt lat="50.547137" lon="-3.849716">
    <ele>341</ele>
    <time>2026-09-10T17:46:36Z</time>
    <speed>1.05</speed>
  </trkpt>
  <trkpt lat="50.547266" lon="-3.849675">
    <ele>347</ele>
    <time>2026-09-10T17:46:47Z</time>
    <speed>1.17</speed>
  </trkpt>
  <trkpt lat="50.547380" lon="-3.849636">
    <ele>346</ele>
    <time>2026-09-10T17:46:58Z</time>
    <speed>1.0</speed>
  </trkpt>
  <trkpt lat="50.547486" lon="-3.849736">
    <ele>350</ele>
    <time>2026-09-10T17:47:09Z</time>
    <speed>1.14</speed>
  </trkpt>
  <trkpt lat="50.547557" lon="-3.849888">
    <ele>351</ele>
    <time>2026-09-10T17:47:20Z</time>
    <speed>0.85999995</speed>
  </trkpt>
  <trkpt lat="50.547615" lon="-3.850047">
    <ele>348</ele>
    <time>2026-09-10T17:47:31Z</time>
    <speed>1.02</speed>
  </trkpt>
  <trkpt lat="50.547659" lon="-3.850214">
    <ele>350</ele>
    <time>2026-09-10T17:47:42Z</time>
    <speed>0.69</speed>
  </trkpt>
  <trkpt lat="50.547710" lon="-3.850420">
    <ele>348</ele>
    <time>2026-09-10T17:47:53Z</time>
    <speed>1.03</speed>
  </trkpt>
  <trkpt lat="50.547744" lon="-3.850607">
    <ele>347</ele>
    <time>2026-09-10T17:48:04Z</time>
    <speed>1.5899999</speed>
  </trkpt>
  <trkpt lat="50.547768" lon="-3.850801">
    <ele>347</ele>
    <time>2026-09-10T17:48:15Z</time>
    <speed>0.9</speed>
  </trkpt>
  <trkpt lat="50.547799" lon="-3.850988">
    <ele>347</ele>
    <time>2026-09-10T17:48:26Z</time>
    <speed>1.03</speed>
  </trkpt>
  <trkpt lat="50.547844" lon="-3.851186">
    <ele>347</ele>
    <time>2026-09-10T17:48:37Z</time>
    <speed>0.83</speed>
  </trkpt>
  <trkpt lat="50.547881" lon="-3.851361">
    <ele>345</ele>
    <time>2026-09-10T17:48:48Z</time>
    <speed>0.84</speed>
  </trkpt>
  <trkpt lat="50.547938" lon="-3.851533">
    <ele>340</ele>
    <time>2026-09-10T17:48:59Z</time>
    <speed>0.96999997</speed>
  </trkpt>
  <trkpt lat="50.547966" lon="-3.851705">
    <ele>349</ele>
    <time>2026-09-10T17:49:10Z</time>
    <speed>1.37</speed>
  </trkpt>
  <trkpt lat="50.548036" lon="-3.851839">
    <ele>345</ele>
    <time>2026-09-10T17:49:21Z</time>
    <speed>0.84999996</speed>
  </trkpt>
  <trkpt lat="50.548124" lon="-3.851978">
    <ele>350</ele>
    <time>2026-09-10T17:49:32Z</time>
    <speed>0.84</speed>
  </trkpt>
  <trkpt lat="50.548220" lon="-3.852043">
    <ele>348</ele>
    <time>2026-09-10T17:49:43Z</time>
    <speed>0.81</speed>
  </trkpt>
  <trkpt lat="50.548318" lon="-3.852104">
    <ele>340</ele>
    <time>2026-09-10T17:49:54Z</time>
    <speed>0.82</speed>
  </trkpt>
  <trkpt lat="50.548406" lon="-3.852144">
    <ele>346</ele>
    <time>2026-09-10T17:50:05Z</time>
    <speed>0.69</speed>
  </trkpt>
  <trkpt lat="50.548522" lon="-3.852220">
    <ele>350</ele>
    <time>2026-09-10T17:50:16Z</time>
    <speed>1.02</speed>
  </trkpt>
  <trkpt lat="50.548620" lon="-3.852256">
    <ele>354</ele>
    <time>2026-09-10T17:50:27Z</time>
    <speed>0.45999998</speed>
  </trkpt>
  <trkpt lat="50.548715" lon="-3.852306">
    <ele>357</ele>
    <time>2026-09-10T17:50:38Z</time>
    <speed>0.85999995</speed>
  </trkpt>
  <trkpt lat="50.548798" lon="-3.852380">
    <ele>358</ele>
    <time>2026-09-10T17:50:49Z</time>
    <speed>2.3</speed>
  </trkpt>
  <trkpt lat="50.548894" lon="-3.852417">
    <ele>355</ele>
    <time>2026-09-10T17:51:00Z</time>
    <speed>0.95</speed>
  </trkpt>
  <trkpt lat="50.548974" lon="-3.852499">
    <ele>360</ele>
    <time>2026-09-10T17:51:12Z</time>
    <speed>1.29</speed>
  </trkpt>
  <trkpt lat="50.549040" lon="-3.852604">
    <ele>346</ele>
    <time>2026-09-10T17:51:24Z</time>
    <speed>1.53</speed>
  </trkpt>
  <trkpt lat="50.549133" lon="-3.852629">
    <ele>356</ele>
    <time>2026-09-10T17:51:35Z</time>
    <speed>1.12</speed>
  </trkpt>
  <trkpt lat="50.549227" lon="-3.852649">
    <ele>353</ele>
    <time>2026-09-10T17:51:47Z</time>
    <speed>0.74</speed>
  </trkpt>
  <trkpt lat="50.549316" lon="-3.852713">
    <ele>360</ele>
    <time>2026-09-10T17:51:58Z</time>
    <speed>1.05</speed>
  </trkpt>
  <trkpt lat="50.549368" lon="-3.852832">
    <ele>362</ele>
    <time>2026-09-10T17:52:10Z</time>
    <speed>1.12</speed>
  </trkpt>
  <trkpt lat="50.549457" lon="-3.852866">
    <ele>356</ele>
    <time>2026-09-10T17:52:22Z</time>
    <speed>1.01</speed>
  </trkpt>
  <trkpt lat="50.549548" lon="-3.852858">
    <ele>363</ele>
    <time>2026-09-10T17:52:34Z</time>
    <speed>0.78999996</speed>
  </trkpt>
  <trkpt lat="50.549638" lon="-3.852883">
    <ele>354</ele>
    <time>2026-09-10T17:52:46Z</time>
    <speed>1.05</speed>
  </trkpt>
  <trkpt lat="50.549740" lon="-3.852938">
    <ele>358</ele>
    <time>2026-09-10T17:52:57Z</time>
    <speed>1.11</speed>
  </trkpt>
  <trkpt lat="50.549824" lon="-3.853003">
    <ele>372</ele>
    <time>2026-09-10T17:53:16Z</time>
    <speed>1.03</speed>
  </trkpt>
  <trkpt lat="50.549902" lon="-3.853085">
    <ele>367</ele>
    <time>2026-09-10T17:53:28Z</time>
    <speed>0.78</speed>
  </trkpt>
  <trkpt lat="50.549982" lon="-3.853161">
    <ele>377</ele>
    <time>2026-09-10T17:53:43Z</time>
    <speed>0.93</speed>
  </trkpt>
  <trkpt lat="50.550057" lon="-3.853246">
    <ele>359</ele>
    <time>2026-09-10T17:54:02Z</time>
    <speed>0.98999995</speed>
  </trkpt>
  <trkpt lat="50.550153" lon="-3.853268">
    <ele>352</ele>
    <time>2026-09-10T17:54:16Z</time>
    <speed>1.28</speed>
  </trkpt>
  <trkpt lat="50.550216" lon="-3.853380">
    <ele>378</ele>
    <time>2026-09-10T17:54:28Z</time>
    <speed>0.91999996</speed>
  </trkpt>
  <trkpt lat="50.550301" lon="-3.853428">
    <ele>370</ele>
    <time>2026-09-10T17:54:39Z</time>
    <speed>0.57</speed>
  </trkpt>
  <trkpt lat="50.550367" lon="-3.853528">
    <ele>370</ele>
    <time>2026-09-10T17:54:53Z</time>
    <speed>1.0</speed>
  </trkpt>
  <trkpt lat="50.550439" lon="-3.853621">
    <ele>383</ele>
    <time>2026-09-10T17:55:06Z</time>
    <speed>0.84</speed>
  </trkpt>
  <trkpt lat="50.550527" lon="-3.853659">
    <ele>365</ele>
    <time>2026-09-10T17:55:18Z</time>
    <speed>1.0799999</speed>
  </trkpt>
  <trkpt lat="50.550607" lon="-3.853723">
    <ele>372</ele>
    <time>2026-09-10T17:55:32Z</time>
    <speed>0.84</speed>
  </trkpt>
  <trkpt lat="50.550695" lon="-3.853802">
    <ele>383</ele>
    <time>2026-09-10T17:55:46Z</time>
    <speed>1.16</speed>
  </trkpt>
  <trkpt lat="50.550762" lon="-3.853906">
    <ele>385</ele>
    <time>2026-09-10T17:55:58Z</time>
    <speed>0.65999997</speed>
  </trkpt>
  <trkpt lat="50.550847" lon="-3.853985">
    <ele>381</ele>
    <time>2026-09-10T17:56:13Z</time>
    <speed>0.75</speed>
  </trkpt>
  <trkpt lat="50.550941" lon="-3.853995">
    <ele>383</ele>
    <time>2026-09-10T17:56:26Z</time>
    <speed>1.03</speed>
  </trkpt>
  <trkpt lat="50.551035" lon="-3.854026">
    <ele>397</ele>
    <time>2026-09-10T17:56:37Z</time>
    <speed>1.76</speed>
  </trkpt>
  <trkpt lat="50.551084" lon="-3.854160">
    <ele>389</ele>
    <time>2026-09-10T17:56:51Z</time>
    <speed>0.59</speed>
  </trkpt>
  <trkpt lat="50.551166" lon="-3.854221">
    <ele>395</ele>
    <time>2026-09-10T17:57:09Z</time>
    <speed>1.1899999</speed>
  </trkpt>
  <trkpt lat="50.551237" lon="-3.854325">
    <ele>396</ele>
    <time>2026-09-10T17:57:22Z</time>
    <speed>1.1999999</speed>
  </trkpt>
  <trkpt lat="50.551320" lon="-3.854401">
    <ele>396</ele>
    <time>2026-09-10T17:57:36Z</time>
    <speed>1.5</speed>
  </trkpt>
  <trkpt lat="50.551354" lon="-3.854537">
    <ele>400</ele>
    <time>2026-09-10T17:57:53Z</time>
    <speed>0.68</speed>
  </trkpt>
  <trkpt lat="50.551434" lon="-3.854621">
    <ele>397</ele>
    <time>2026-09-10T17:58:06Z</time>
    <speed>0.79999995</speed>
  </trkpt>
  <trkpt lat="50.551510" lon="-3.854698">
    <ele>408</ele>
    <time>2026-09-10T17:58:21Z</time>
    <speed>0.78</speed>
  </trkpt>
  <trkpt lat="50.551601" lon="-3.854703">
    <ele>400</ele>
    <time>2026-09-10T17:58:32Z</time>
    <speed>1.53</speed>
  </trkpt>
  <trkpt lat="50.551691" lon="-3.854716">
    <ele>407</ele>
    <time>2026-09-10T17:58:49Z</time>
    <speed>0.64</speed>
  </trkpt>
  <trkpt lat="50.551782" lon="-3.854693">
    <ele>409</ele>
    <time>2026-09-10T17:59:05Z</time>
    <speed>0.77</speed>
  </trkpt>
  <trkpt lat="50.551872" lon="-3.854751">
    <ele>407</ele>
    <time>2026-09-10T17:59:19Z</time>
    <speed>1.06</speed>
  </trkpt>
  <trkpt lat="50.551963" lon="-3.854754">
    <ele>409</ele>
    <time>2026-09-10T17:59:31Z</time>
    <speed>0.62</speed>
  </trkpt>
  <trkpt lat="50.552057" lon="-3.854750">
    <ele>419</ele>
    <time>2026-09-10T17:59:48Z</time>
    <speed>1.22</speed>
  </trkpt>
  <trkpt lat="50.552130" lon="-3.854840">
    <ele>404</ele>
    <time>2026-09-10T18:00:39Z</time>
    <speed>0.41</speed>
  </trkpt>
  <trkpt lat="50.552132" lon="-3.854984">
    <ele>413</ele>
    <time>2026-09-10T18:00:53Z</time>
    <speed>0.91999996</speed>
  </trkpt>
  <trkpt lat="50.552133" lon="-3.855132">
    <ele>416</ele>
    <time>2026-09-10T18:01:04Z</time>
    <speed>0.81</speed>
  </trkpt>
  <trkpt lat="50.552146" lon="-3.855274">
    <ele>400</ele>
    <time>2026-09-10T18:01:15Z</time>
    <speed>0.59</speed>
  </trkpt>
  <trkpt lat="50.552183" lon="-3.855415">
    <ele>416</ele>
    <time>2026-09-10T18:01:26Z</time>
    <speed>0.76</speed>
  </trkpt>
  <trkpt lat="50.552208" lon="-3.855552">
    <ele>408</ele>
    <time>2026-09-10T18:01:42Z</time>
    <speed>0.45999998</speed>
  </trkpt>
  <trkpt lat="50.552176" lon="-3.855708">
    <ele>418</ele>
    <time>2026-09-10T18:01:53Z</time>
    <speed>0.58</speed>
  </trkpt>
  <trkpt lat="50.552179" lon="-3.855858">
    <ele>412</ele>
    <time>2026-09-10T18:02:04Z</time>
    <speed>0.29999998</speed>
  </trkpt>
  <trkpt lat="50.552236" lon="-3.855978">
    <ele>418</ele>
    <time>2026-09-10T18:02:18Z</time>
    <speed>1.36</speed>
  </trkpt>
  <trkpt lat="50.552308" lon="-3.856092">
    <ele>393</ele>
    <time>2026-09-10T18:02:29Z</time>
    <speed>0.68</speed>
  </trkpt>
  <trkpt lat="50.552349" lon="-3.856218">
    <ele>421</ele>
    <time>2026-09-10T18:02:47Z</time>
    <speed>0.07</speed>
  </trkpt>
  <trkpt lat="50.552442" lon="-3.856238">
    <ele>418</ele>
    <time>2026-09-10T18:15:50Z</time>
    <speed>0.98999995</speed>
  </trkpt>
  <trkpt lat="50.552549" lon="-3.856274">
    <ele>419</ele>
    <time>2026-09-10T18:16:01Z</time>
    <speed>1.12</speed>
  </trkpt>
  <trkpt lat="50.552667" lon="-3.856246">
    <ele>416</ele>
    <time>2026-09-10T18:16:12Z</time>
    <speed>1.04</speed>
  </trkpt>
  <trkpt lat="50.552604" lon="-3.856357">
    <ele>426</ele>
    <time>2026-09-10T18:16:48Z</time>
    <speed>0.96</speed>
  </trkpt>
  <trkpt lat="50.552514" lon="-3.856401">
    <ele>418</ele>
    <time>2026-09-10T18:16:59Z</time>
    <speed>2.1499999</speed>
  </trkpt>
  <trkpt lat="50.552392" lon="-3.856481">
    <ele>411</ele>
    <time>2026-09-10T18:17:10Z</time>
    <speed>1.31</speed>
  </trkpt>
  <trkpt lat="50.552307" lon="-3.856540">
    <ele>418</ele>
    <time>2026-09-10T18:17:29Z</time>
    <speed>1.1999999</speed>
  </trkpt>
  <trkpt lat="50.552183" lon="-3.856563">
    <ele>414</ele>
    <time>2026-09-10T18:17:40Z</time>
    <speed>1.23</speed>
  </trkpt>
  <trkpt lat="50.552085" lon="-3.856572">
    <ele>418</ele>
    <time>2026-09-10T18:17:58Z</time>
    <speed>0.97999996</speed>
  </trkpt>
  <trkpt lat="50.551983" lon="-3.856653">
    <ele>387</ele>
    <time>2026-09-10T18:18:09Z</time>
    <speed>1.0</speed>
  </trkpt>
  <trkpt lat="50.551904" lon="-3.856747">
    <ele>414</ele>
    <time>2026-09-10T18:18:21Z</time>
    <speed>1.1</speed>
  </trkpt>
  <trkpt lat="50.551842" lon="-3.856887">
    <ele>416</ele>
    <time>2026-09-10T18:18:32Z</time>
    <speed>1.0699999</speed>
  </trkpt>
  <trkpt lat="50.551765" lon="-3.856991">
    <ele>409</ele>
    <time>2026-09-10T18:18:43Z</time>
    <speed>0.98999995</speed>
  </trkpt>
  <trkpt lat="50.551681" lon="-3.857115">
    <ele>411</ele>
    <time>2026-09-10T18:18:54Z</time>
    <speed>1.53</speed>
  </trkpt>
  <trkpt lat="50.551564" lon="-3.857250">
    <ele>398</ele>
    <time>2026-09-10T18:19:05Z</time>
    <speed>1.86</speed>
  </trkpt>
  <trkpt lat="50.551466" lon="-3.857335">
    <ele>409</ele>
    <time>2026-09-10T18:19:16Z</time>
    <speed>1.25</speed>
  </trkpt>
  <trkpt lat="50.551386" lon="-3.857438">
    <ele>414</ele>
    <time>2026-09-10T18:19:27Z</time>
    <speed>0.97999996</speed>
  </trkpt>
  <trkpt lat="50.551317" lon="-3.857546">
    <ele>408</ele>
    <time>2026-09-10T18:19:38Z</time>
    <speed>1.01</speed>
  </trkpt>
  <trkpt lat="50.551244" lon="-3.857680">
    <ele>409</ele>
    <time>2026-09-10T18:19:49Z</time>
    <speed>1.15</speed>
  </trkpt>
  <trkpt lat="50.551197" lon="-3.857833">
    <ele>405</ele>
    <time>2026-09-10T18:20:00Z</time>
    <speed>0.83</speed>
  </trkpt>
  <trkpt lat="50.551131" lon="-3.857973">
    <ele>407</ele>
    <time>2026-09-10T18:20:11Z</time>
    <speed>0.82</speed>
  </trkpt>
  <trkpt lat="50.551067" lon="-3.858118">
    <ele>403</ele>
    <time>2026-09-10T18:20:22Z</time>
    <speed>0.79999995</speed>
  </trkpt>
  <trkpt lat="50.550969" lon="-3.858246">
    <ele>403</ele>
    <time>2026-09-10T18:20:33Z</time>
    <speed>1.22</speed>
  </trkpt>
  <trkpt lat="50.550870" lon="-3.858363">
    <ele>400</ele>
    <time>2026-09-10T18:20:44Z</time>
    <speed>1.0799999</speed>
  </trkpt>
  <trkpt lat="50.550796" lon="-3.858508">
    <ele>399</ele>
    <time>2026-09-10T18:20:55Z</time>
    <speed>1.39</speed>
  </trkpt>
  <trkpt lat="50.550705" lon="-3.858659">
    <ele>390</ele>
    <time>2026-09-10T18:21:06Z</time>
    <speed>1.06</speed>
  </trkpt>
  <trkpt lat="50.550661" lon="-3.858795">
    <ele>396</ele>
    <time>2026-09-10T18:21:17Z</time>
    <speed>1.23</speed>
  </trkpt>
  <trkpt lat="50.550569" lon="-3.858942">
    <ele>396</ele>
    <time>2026-09-10T18:21:28Z</time>
    <speed>0.97999996</speed>
  </trkpt>
  <trkpt lat="50.550488" lon="-3.859134">
    <ele>396</ele>
    <time>2026-09-10T18:21:39Z</time>
    <speed>1.28</speed>
  </trkpt>
  <trkpt lat="50.550419" lon="-3.859306">
    <ele>389</ele>
    <time>2026-09-10T18:21:50Z</time>
    <speed>1.1899999</speed>
  </trkpt>
  <trkpt lat="50.550316" lon="-3.859434">
    <ele>395</ele>
    <time>2026-09-10T18:22:01Z</time>
    <speed>1.36</speed>
  </trkpt>
  <trkpt lat="50.550217" lon="-3.859598">
    <ele>374</ele>
    <time>2026-09-10T18:22:12Z</time>
    <speed>1.14</speed>
  </trkpt>
  <trkpt lat="50.550116" lon="-3.859712">
    <ele>386</ele>
    <time>2026-09-10T18:22:23Z</time>
    <speed>1.1899999</speed>
  </trkpt>
  <trkpt lat="50.550024" lon="-3.859862">
    <ele>389</ele>
    <time>2026-09-10T18:22:34Z</time>
    <speed>1.35</speed>
  </trkpt>
  <trkpt lat="50.549925" lon="-3.859974">
    <ele>385</ele>
    <time>2026-09-10T18:22:45Z</time>
    <speed>0.75</speed>
  </trkpt>
  <trkpt lat="50.549880" lon="-3.860107">
    <ele>383</ele>
    <time>2026-09-10T18:25:07Z</time>
    <speed>1.15</speed>
  </trkpt>
  <trkpt lat="50.549894" lon="-3.860276">
    <ele>380</ele>
    <time>2026-09-10T18:25:18Z</time>
    <speed>1.62</speed>
  </trkpt>
  <trkpt lat="50.549854" lon="-3.860449">
    <ele>382</ele>
    <time>2026-09-10T18:25:29Z</time>
    <speed>1.18</speed>
  </trkpt>
  <trkpt lat="50.549808" lon="-3.860657">
    <ele>375</ele>
    <time>2026-09-10T18:25:40Z</time>
    <speed>1.16</speed>
  </trkpt>
  <trkpt lat="50.549766" lon="-3.860844">
    <ele>381</ele>
    <time>2026-09-10T18:25:51Z</time>
    <speed>0.41</speed>
  </trkpt>
  <trkpt lat="50.549723" lon="-3.861074">
    <ele>375</ele>
    <time>2026-09-10T18:26:02Z</time>
    <speed>1.5899999</speed>
  </trkpt>
  <trkpt lat="50.549686" lon="-3.861288">
    <ele>369</ele>
    <time>2026-09-10T18:26:13Z</time>
    <speed>1.87</speed>
  </trkpt>
  <trkpt lat="50.549679" lon="-3.861495">
    <ele>369</ele>
    <time>2026-09-10T18:26:24Z</time>
    <speed>1.48</speed>
  </trkpt>
  <trkpt lat="50.549700" lon="-3.861700">
    <ele>377</ele>
    <time>2026-09-10T18:26:35Z</time>
    <speed>1.54</speed>
  </trkpt>
  <trkpt lat="50.549757" lon="-3.861878">
    <ele>377</ele>
    <time>2026-09-10T18:26:46Z</time>
    <speed>1.4599999</speed>
  </trkpt>
  <trkpt lat="50.549801" lon="-3.862095">
    <ele>368</ele>
    <time>2026-09-10T18:26:57Z</time>
    <speed>1.17</speed>
  </trkpt>
  <trkpt lat="50.549882" lon="-3.862283">
    <ele>369</ele>
    <time>2026-09-10T18:27:08Z</time>
    <speed>1.12</speed>
  </trkpt>
  <trkpt lat="50.549941" lon="-3.862413">
    <ele>371</ele>
    <time>2026-09-10T18:27:19Z</time>
    <speed>0.89</speed>
  </trkpt>
  <trkpt lat="50.550025" lon="-3.862544">
    <ele>370</ele>
    <time>2026-09-10T18:27:30Z</time>
    <speed>0.75</speed>
  </trkpt>
  <trkpt lat="50.550016" lon="-3.862814">
    <ele>377</ele>
    <time>2026-09-10T18:27:41Z</time>
    <speed>0.93</speed>
  </trkpt>
  <trkpt lat="50.550074" lon="-3.862948">
    <ele>374</ele>
    <time>2026-09-10T18:27:52Z</time>
    <speed>1.36</speed>
  </trkpt>
  <trkpt lat="50.550127" lon="-3.863159">
    <ele>365</ele>
    <time>2026-09-10T18:28:03Z</time>
    <speed>0.32999998</speed>
  </trkpt>
  <trkpt lat="50.550153" lon="-3.863348">
    <ele>382</ele>
    <time>2026-09-10T18:28:14Z</time>
    <speed>0.81</speed>
  </trkpt>
  <trkpt lat="50.550181" lon="-3.863553">
    <ele>379</ele>
    <time>2026-09-10T18:28:25Z</time>
    <speed>1.0</speed>
  </trkpt>
  <trkpt lat="50.550179" lon="-3.863749">
    <ele>366</ele>
    <time>2026-09-10T18:28:36Z</time>
    <speed>1.05</speed>
  </trkpt>
  <trkpt lat="50.550210" lon="-3.863894">
    <ele>372</ele>
    <time>2026-09-10T18:28:47Z</time>
    <speed>1.1</speed>
  </trkpt>
  <trkpt lat="50.550251" lon="-3.864065">
    <ele>359</ele>
    <time>2026-09-10T18:28:58Z</time>
    <speed>0.77</speed>
  </trkpt>
  <trkpt lat="50.550235" lon="-3.864239">
    <ele>380</ele>
    <time>2026-09-10T18:29:09Z</time>
    <speed>0.90999997</speed>
  </trkpt>
  <trkpt lat="50.550219" lon="-3.864429">
    <ele>385</ele>
    <time>2026-09-10T18:29:20Z</time>
    <speed>1.17</speed>
  </trkpt>
  <trkpt lat="50.550212" lon="-3.864596">
    <ele>366</ele>
    <time>2026-09-10T18:29:31Z</time>
    <speed>0.24</speed>
  </trkpt>
  <trkpt lat="50.550160" lon="-3.864735">
    <ele>375</ele>
    <time>2026-09-10T18:29:42Z</time>
    <speed>0.89</speed>
  </trkpt>
  <trkpt lat="50.550179" lon="-3.864884">
    <ele>388</ele>
    <time>2026-09-10T18:29:53Z</time>
    <speed>1.16</speed>
  </trkpt>
  <trkpt lat="50.550213" lon="-3.865051">
    <ele>394</ele>
    <time>2026-09-10T18:30:04Z</time>
    <speed>1.1</speed>
  </trkpt>
  <trkpt lat="50.550242" lon="-3.865235">
    <ele>399</ele>
    <time>2026-09-10T18:30:15Z</time>
    <speed>1.26</speed>
  </trkpt>
  <trkpt lat="50.550253" lon="-3.865394">
    <ele>400</ele>
    <time>2026-09-10T18:30:26Z</time>
    <speed>0.72999996</speed>
  </trkpt>
  <trkpt lat="50.550233" lon="-3.865611">
    <ele>401</ele>
    <time>2026-09-10T18:30:37Z</time>
    <speed>1.1</speed>
  </trkpt>
  <trkpt lat="50.550217" lon="-3.865797">
    <ele>362</ele>
    <time>2026-09-10T18:30:48Z</time>
    <speed>0.98999995</speed>
  </trkpt>
  <trkpt lat="50.550216" lon="-3.865952">
    <ele>383</ele>
    <time>2026-09-10T18:30:59Z</time>
    <speed>0.64</speed>
  </trkpt>
  <trkpt lat="50.550176" lon="-3.866124">
    <ele>406</ele>
    <time>2026-09-10T18:31:10Z</time>
    <speed>0.9</speed>
  </trkpt>
  <trkpt lat="50.550121" lon="-3.866236">
    <ele>397</ele>
    <time>2026-09-10T18:32:07Z</time>
    <speed>0.5</speed>
  </trkpt>
  <trkpt lat="50.550124" lon="-3.866385">
    <ele>410</ele>
    <time>2026-09-10T18:32:25Z</time>
    <speed>0.82</speed>
  </trkpt>
  <trkpt lat="50.550206" lon="-3.866511">
    <ele>422</ele>
    <time>2026-09-10T18:32:36Z</time>
    <speed>1.9799999</speed>
  </trkpt>
  <trkpt lat="50.550122" lon="-3.866455">
    <ele>402</ele>
    <time>2026-09-10T18:34:12Z</time>
    <speed>1.03</speed>
  </trkpt>
  <trkpt lat="50.550053" lon="-3.866354">
    <ele>396</ele>
    <time>2026-09-10T18:34:24Z</time>
    <speed>0.56</speed>
  </trkpt>
  <trkpt lat="50.549963" lon="-3.866297">
    <ele>399</ele>
    <time>2026-09-10T18:34:36Z</time>
    <speed>1.28</speed>
  </trkpt>
  <trkpt lat="50.549878" lon="-3.866169">
    <ele>395</ele>
    <time>2026-09-10T18:34:47Z</time>
    <speed>0.78999996</speed>
  </trkpt>
  <trkpt lat="50.549806" lon="-3.866043">
    <ele>394</ele>
    <time>2026-09-10T18:34:58Z</time>
    <speed>1.06</speed>
  </trkpt>
  <trkpt lat="50.549701" lon="-3.865949">
    <ele>396</ele>
    <time>2026-09-10T18:35:09Z</time>
    <speed>0.69</speed>
  </trkpt>
  <trkpt lat="50.549609" lon="-3.865860">
    <ele>397</ele>
    <time>2026-09-10T18:35:20Z</time>
    <speed>1.73</speed>
  </trkpt>
  <trkpt lat="50.549546" lon="-3.865704">
    <ele>398</ele>
    <time>2026-09-10T18:35:31Z</time>
    <speed>1.67</speed>
  </trkpt>
  <trkpt lat="50.549482" lon="-3.865592">
    <ele>403</ele>
    <time>2026-09-10T18:35:43Z</time>
    <speed>1.48</speed>
  </trkpt>
  <trkpt lat="50.549386" lon="-3.865564">
    <ele>391</ele>
    <time>2026-09-10T18:35:59Z</time>
    <speed>1.26</speed>
  </trkpt>
  <trkpt lat="50.549280" lon="-3.865500">
    <ele>392</ele>
    <time>2026-09-10T18:36:10Z</time>
    <speed>1.0799999</speed>
  </trkpt>
  <trkpt lat="50.549212" lon="-3.865359">
    <ele>386</ele>
    <time>2026-09-10T18:36:21Z</time>
    <speed>0.14</speed>
  </trkpt>
  <trkpt lat="50.549125" lon="-3.865311">
    <ele>387</ele>
    <time>2026-09-10T18:37:04Z</time>
    <speed>0.93</speed>
  </trkpt>
  <trkpt lat="50.549036" lon="-3.865259">
    <ele>395</ele>
    <time>2026-09-10T18:37:15Z</time>
    <speed>1.04</speed>
  </trkpt>
  <trkpt lat="50.548922" lon="-3.865238">
    <ele>386</ele>
    <time>2026-09-10T18:37:26Z</time>
    <speed>0.75</speed>
  </trkpt>
  <trkpt lat="50.548857" lon="-3.865141">
    <ele>382</ele>
    <time>2026-09-10T18:37:37Z</time>
    <speed>1.17</speed>
  </trkpt>
  <trkpt lat="50.548765" lon="-3.865033">
    <ele>382</ele>
    <time>2026-09-10T18:37:48Z</time>
    <speed>1.05</speed>
  </trkpt>
  <trkpt lat="50.548706" lon="-3.864908">
    <ele>382</ele>
    <time>2026-09-10T18:37:59Z</time>
    <speed>1.15</speed>
  </trkpt>
  <trkpt lat="50.548630" lon="-3.864819">
    <ele>382</ele>
    <time>2026-09-10T18:38:13Z</time>
    <speed>1.2099999</speed>
  </trkpt>
  <trkpt lat="50.548566" lon="-3.864695">
    <ele>380</ele>
    <time>2026-09-10T18:38:24Z</time>
    <speed>0.84</speed>
  </trkpt>
  <trkpt lat="50.548485" lon="-3.864622">
    <ele>379</ele>
    <time>2026-09-10T18:38:37Z</time>
    <speed>1.03</speed>
  </trkpt>
  <trkpt lat="50.548413" lon="-3.864483">
    <ele>375</ele>
    <time>2026-09-10T18:38:48Z</time>
    <speed>0.83</speed>
  </trkpt>
  <trkpt lat="50.548323" lon="-3.864369">
    <ele>378</ele>
    <time>2026-09-10T18:38:59Z</time>
    <speed>0.85999995</speed>
  </trkpt>
  <trkpt lat="50.548253" lon="-3.864243">
    <ele>377</ele>
    <time>2026-09-10T18:39:10Z</time>
    <speed>0.98999995</speed>
  </trkpt>
  <trkpt lat="50.548181" lon="-3.864146">
    <ele>377</ele>
    <time>2026-09-10T18:39:21Z</time>
    <speed>1.1999999</speed>
  </trkpt>
  <trkpt lat="50.548071" lon="-3.864068">
    <ele>375</ele>
    <time>2026-09-10T18:39:32Z</time>
    <speed>1.18</speed>
  </trkpt>
  <trkpt lat="50.547962" lon="-3.863983">
    <ele>375</ele>
    <time>2026-09-10T18:39:43Z</time>
    <speed>0.91999996</speed>
  </trkpt>
  <trkpt lat="50.547866" lon="-3.863860">
    <ele>373</ele>
    <time>2026-09-10T18:39:54Z</time>
    <speed>0.84</speed>
  </trkpt>
  <trkpt lat="50.547736" lon="-3.863786">
    <ele>367</ele>
    <time>2026-09-10T18:40:05Z</time>
    <speed>1.03</speed>
  </trkpt>
  <trkpt lat="50.547631" lon="-3.863702">
    <ele>371</ele>
    <time>2026-09-10T18:40:16Z</time>
    <speed>1.01</speed>
  </trkpt>
  <trkpt lat="50.547542" lon="-3.863655">
    <ele>370</ele>
    <time>2026-09-10T18:40:29Z</time>
    <speed>1.62</speed>
  </trkpt>
  <trkpt lat="50.547418" lon="-3.863508">
    <ele>369</ele>
    <time>2026-09-10T18:40:40Z</time>
    <speed>1.35</speed>
  </trkpt>
  <trkpt lat="50.547307" lon="-3.863466">
    <ele>370</ele>
    <time>2026-09-10T18:40:51Z</time>
    <speed>1.12</speed>
  </trkpt>
  <trkpt lat="50.547206" lon="-3.863455">
    <ele>368</ele>
    <time>2026-09-10T18:41:02Z</time>
    <speed>0.42</speed>
  </trkpt>
  <trkpt lat="50.547087" lon="-3.863395">
    <ele>368</ele>
    <time>2026-09-10T18:41:13Z</time>
    <speed>1.13</speed>
  </trkpt>
  <trkpt lat="50.546961" lon="-3.863366">
    <ele>366</ele>
    <time>2026-09-10T18:41:24Z</time>
    <speed>0.84999996</speed>
  </trkpt>
  <trkpt lat="50.546841" lon="-3.863385">
    <ele>361</ele>
    <time>2026-09-10T18:41:35Z</time>
    <speed>0.57</speed>
  </trkpt>
  <trkpt lat="50.546728" lon="-3.863385">
    <ele>364</ele>
    <time>2026-09-10T18:41:46Z</time>
    <speed>1.06</speed>
  </trkpt>
  <trkpt lat="50.546597" lon="-3.863350">
    <ele>364</ele>
    <time>2026-09-10T18:41:57Z</time>
    <speed>1.63</speed>
  </trkpt>
  <trkpt lat="50.546479" lon="-3.863331">
    <ele>361</ele>
    <time>2026-09-10T18:42:08Z</time>
    <speed>0.79999995</speed>
  </trkpt>
  <trkpt lat="50.546359" lon="-3.863318">
    <ele>360</ele>
    <time>2026-09-10T18:42:19Z</time>
    <speed>1.06</speed>
  </trkpt>
  <trkpt lat="50.546247" lon="-3.863315">
    <ele>350</ele>
    <time>2026-09-10T18:42:30Z</time>
    <speed>1.43</speed>
  </trkpt>
  <trkpt lat="50.546154" lon="-3.863329">
    <ele>356</ele>
    <time>2026-09-10T18:42:41Z</time>
    <speed>1.09</speed>
  </trkpt>
  <trkpt lat="50.546040" lon="-3.863296">
    <ele>357</ele>
    <time>2026-09-10T18:42:52Z</time>
    <speed>0.85999995</speed>
  </trkpt>
  <trkpt lat="50.545925" lon="-3.863252">
    <ele>357</ele>
    <time>2026-09-10T18:43:03Z</time>
    <speed>1.39</speed>
  </trkpt>
  <trkpt lat="50.545804" lon="-3.863181">
    <ele>355</ele>
    <time>2026-09-10T18:43:14Z</time>
    <speed>1.15</speed>
  </trkpt>
  <trkpt lat="50.545691" lon="-3.863154">
    <ele>353</ele>
    <time>2026-09-10T18:43:25Z</time>
    <speed>1.01</speed>
  </trkpt>
  <trkpt lat="50.545592" lon="-3.863163">
    <ele>353</ele>
    <time>2026-09-10T18:43:37Z</time>
    <speed>1.37</speed>
  </trkpt>
  <trkpt lat="50.545479" lon="-3.863134">
    <ele>351</ele>
    <time>2026-09-10T18:43:48Z</time>
    <speed>0.79999995</speed>
  </trkpt>
  <trkpt lat="50.545378" lon="-3.863128">
    <ele>352</ele>
    <time>2026-09-10T18:44:02Z</time>
    <speed>1.35</speed>
  </trkpt>
  <trkpt lat="50.545297" lon="-3.863202">
    <ele>350</ele>
    <time>2026-09-10T18:44:19Z</time>
    <speed>0.66999996</speed>
  </trkpt>
  <trkpt lat="50.545205" lon="-3.863138">
    <ele>346</ele>
    <time>2026-09-10T18:44:30Z</time>
    <speed>1.04</speed>
  </trkpt>
  <trkpt lat="50.545114" lon="-3.863123">
    <ele>342</ele>
    <time>2026-09-10T18:44:50Z</time>
    <speed>1.09</speed>
  </trkpt>
  <trkpt lat="50.545073" lon="-3.862987">
    <ele>346</ele>
    <time>2026-09-10T18:45:03Z</time>
    <speed>0.41</speed>
  </trkpt>
  <trkpt lat="50.544980" lon="-3.862991">
    <ele>346</ele>
    <time>2026-09-10T18:45:19Z</time>
    <speed>1.18</speed>
  </trkpt>
  <trkpt lat="50.544889" lon="-3.862981">
    <ele>345</ele>
    <time>2026-09-10T18:45:34Z</time>
    <speed>0.41</speed>
  </trkpt>
  <trkpt lat="50.544792" lon="-3.862948">
    <ele>343</ele>
    <time>2026-09-10T18:45:46Z</time>
    <speed>0.82</speed>
  </trkpt>
  <trkpt lat="50.544721" lon="-3.862843">
    <ele>344</ele>
    <time>2026-09-10T18:45:57Z</time>
    <speed>1.06</speed>
  </trkpt>
  <trkpt lat="50.544602" lon="-3.862800">
    <ele>342</ele>
    <time>2026-09-10T18:46:08Z</time>
    <speed>0.84</speed>
  </trkpt>
  <trkpt lat="50.544461" lon="-3.862783">
    <ele>337</ele>
    <time>2026-09-10T18:46:19Z</time>
    <speed>1.0</speed>
  </trkpt>
 </trkseg>
</trk>
</gpx>
