<?xml version="1.0" encoding="UTF-8" ?>
<gpx
 version="1.0"
 creator="Maverick - http://www.maverickgps.com"
 xmlns:xsi="http://www.w3.org/2001/XMLSchema-instance"
 xmlns="http://www.topografix.com/GPX/1/0"
 xsi:schemaLocation="http://www.topografix.com/GPX/1/0 http://www.topografix.com/GPX/1/0/gpx.xsd">
<time>2026-09-24T17:08:54Z</time>
<trk>
 <name>2026-09-24 @ 18-08-54</name>
 <trkseg>
  <trkpt lat="50.504709" lon="-4.049535">
    <ele>223</ele>
    <time>2026-09-24T17:08:55Z</time>
    <speed>0.78999996</speed>
  </trkpt>
  <trkpt lat="50.504644" lon="-4.049646">
    <ele>224</ele>
    <time>2026-09-24T17:09:10Z</time>
    <speed>0.9</speed>
  </trkpt>
  <trkpt lat="50.504546" lon="-4.049665">
    <ele>223</ele>
    <time>2026-09-24T17:09:24Z</time>
    <speed>1.81</speed>
  </trkpt>
  <trkpt lat="50.504423" lon="-4.049695">
    <ele>230</ele>
    <time>2026-09-24T17:09:35Z</time>
    <speed>1.03</speed>
  </trkpt>
  <trkpt lat="50.504304" lon="-4.049736">
    <ele>205</ele>
    <time>2026-09-24T17:09:46Z</time>
    <speed>1.74</speed>
  </trkpt>
  <trkpt lat="50.504192" lon="-4.049754">
    <ele>227</ele>
    <time>2026-09-24T17:09:57Z</time>
    <speed>1.26</speed>
  </trkpt>
  <trkpt lat="50.504071" lon="-4.049807">
    <ele>226</ele>
    <time>2026-09-24T17:10:08Z</time>
    <speed>1.49</speed>
  </trkpt>
  <trkpt lat="50.503976" lon="-4.049858">
    <ele>227</ele>
    <time>2026-09-24T17:10:19Z</time>
    <speed>1.0699999</speed>
  </trkpt>
  <trkpt lat="50.503861" lon="-4.049907">
    <ele>229</ele>
    <time>2026-09-24T17:10:30Z</time>
    <speed>0.91999996</speed>
  </trkpt>
  <trkpt lat="50.503750" lon="-4.049914">
    <ele>229</ele>
    <time>2026-09-24T17:10:41Z</time>
    <speed>1.35</speed>
  </trkpt>
  <trkpt lat="50.503621" lon="-4.049968">
    <ele>229</ele>
    <time>2026-09-24T17:10:52Z</time>
    <speed>1.24</speed>
  </trkpt>
  <trkpt lat="50.503479" lon="-4.049986">
    <ele>225</ele>
    <time>2026-09-24T17:11:03Z</time>
    <speed>1.29</speed>
  </trkpt>
  <trkpt lat="50.503337" lon="-4.049998">
    <ele>226</ele>
    <time>2026-09-24T17:11:14Z</time>
    <speed>0.9</speed>
  </trkpt>
  <trkpt lat="50.503218" lon="-4.050045">
    <ele>230</ele>
    <time>2026-09-24T17:11:25Z</time>
    <speed>1.1999999</speed>
  </trkpt>
  <trkpt lat="50.503083" lon="-4.050065">
    <ele>229</ele>
    <time>2026-09-24T17:11:36Z</time>
    <speed>1.4499999</speed>
  </trkpt>
  <trkpt lat="50.502959" lon="-4.050079">
    <ele>223</ele>
    <time>2026-09-24T17:11:47Z</time>
    <speed>1.35</speed>
  </trkpt>
  <trkpt lat="50.502838" lon="-4.050102">
    <ele>230</ele>
    <time>2026-09-24T17:11:58Z</time>
    <speed>1.02</speed>
  </trkpt>
  <trkpt lat="50.502677" lon="-4.050086">
    <ele>230</ele>
    <time>2026-09-24T17:12:09Z</time>
    <speed>1.31</speed>
  </trkpt>
  <trkpt lat="50.502545" lon="-4.050092">
    <ele>222</ele>
    <time>2026-09-24T17:12:20Z</time>
    <speed>1.74</speed>
  </trkpt>
  <trkpt lat="50.502411" lon="-4.050110">
    <ele>216</ele>
    <time>2026-09-24T17:12:31Z</time>
    <speed>1.31</speed>
  </trkpt>
  <trkpt lat="50.502284" lon="-4.050114">
    <ele>235</ele>
    <time>2026-09-24T17:12:42Z</time>
    <speed>1.4599999</speed>
  </trkpt>
  <trkpt lat="50.502148" lon="-4.050094">
    <ele>229</ele>
    <time>2026-09-24T17:12:53Z</time>
    <speed>1.75</speed>
  </trkpt>
  <trkpt lat="50.502009" lon="-4.050090">
    <ele>231</ele>
    <time>2026-09-24T17:13:04Z</time>
    <speed>1.41</speed>
  </trkpt>
  <trkpt lat="50.501883" lon="-4.050088">
    <ele>228</ele>
    <time>2026-09-24T17:13:15Z</time>
    <speed>1.38</speed>
  </trkpt>
  <trkpt lat="50.501741" lon="-4.050065">
    <ele>227</ele>
    <time>2026-09-24T17:13:26Z</time>
    <speed>1.12</speed>
  </trkpt>
  <trkpt lat="50.501620" lon="-4.050030">
    <ele>223</ele>
    <time>2026-09-24T17:13:37Z</time>
    <speed>1.36</speed>
  </trkpt>
  <trkpt lat="50.501490" lon="-4.049960">
    <ele>225</ele>
    <time>2026-09-24T17:13:48Z</time>
    <speed>1.74</speed>
  </trkpt>
  <trkpt lat="50.501380" lon="-4.049900">
    <ele>223</ele>
    <time>2026-09-24T17:13:59Z</time>
    <speed>1.4599999</speed>
  </trkpt>
  <trkpt lat="50.501263" lon="-4.049795">
    <ele>223</ele>
    <time>2026-09-24T17:14:10Z</time>
    <speed>1.36</speed>
  </trkpt>
  <trkpt lat="50.501168" lon="-4.049700">
    <ele>223</ele>
    <time>2026-09-24T17:14:21Z</time>
    <speed>1.18</speed>
  </trkpt>
  <trkpt lat="50.501061" lon="-4.049608">
    <ele>228</ele>
    <time>2026-09-24T17:14:32Z</time>
    <speed>1.67</speed>
  </trkpt>
  <trkpt lat="50.500935" lon="-4.049526">
    <ele>227</ele>
    <time>2026-09-24T17:14:43Z</time>
    <speed>1.42</speed>
  </trkpt>
  <trkpt lat="50.500825" lon="-4.049436">
    <ele>231</ele>
    <time>2026-09-24T17:14:54Z</time>
    <speed>1.05</speed>
  </trkpt>
  <trkpt lat="50.500729" lon="-4.049274">
    <ele>231</ele>
    <time>2026-09-24T17:15:05Z</time>
    <speed>1.42</speed>
  </trkpt>
  <trkpt lat="50.500594" lon="-4.049216">
    <ele>233</ele>
    <time>2026-09-24T17:15:16Z</time>
    <speed>1.3399999</speed>
  </trkpt>
  <trkpt lat="50.500471" lon="-4.049148">
    <ele>224</ele>
    <time>2026-09-24T17:15:27Z</time>
    <speed>1.5</speed>
  </trkpt>
  <trkpt lat="50.500358" lon="-4.049051">
    <ele>232</ele>
    <time>2026-09-24T17:15:38Z</time>
    <speed>1.3</speed>
  </trkpt>
  <trkpt lat="50.500253" lon="-4.048962">
    <ele>233</ele>
    <time>2026-09-24T17:15:49Z</time>
    <speed>1.6899999</speed>
  </trkpt>
  <trkpt lat="50.500169" lon="-4.048802">
    <ele>227</ele>
    <time>2026-09-24T17:16:00Z</time>
    <speed>1.52</speed>
  </trkpt>
  <trkpt lat="50.500075" lon="-4.048692">
    <ele>234</ele>
    <time>2026-09-24T17:16:11Z</time>
    <speed>1.09</speed>
  </trkpt>
  <trkpt lat="50.499987" lon="-4.048545">
    <ele>234</ele>
    <time>2026-09-24T17:16:22Z</time>
    <speed>1.5</speed>
  </trkpt>
  <trkpt lat="50.499866" lon="-4.048465">
    <ele>231</ele>
    <time>2026-09-24T17:16:33Z</time>
    <speed>1.4499999</speed>
  </trkpt>
  <trkpt lat="50.499753" lon="-4.048381">
    <ele>236</ele>
    <time>2026-09-24T17:16:44Z</time>
    <speed>0.82</speed>
  </trkpt>
  <trkpt lat="50.499649" lon="-4.048307">
    <ele>230</ele>
    <time>2026-09-24T17:16:55Z</time>
    <speed>1.1999999</speed>
  </trkpt>
  <trkpt lat="50.499506" lon="-4.048233">
    <ele>231</ele>
    <time>2026-09-24T17:17:06Z</time>
    <speed>1.27</speed>
  </trkpt>
  <trkpt lat="50.499381" lon="-4.048176">
    <ele>231</ele>
    <time>2026-09-24T17:17:17Z</time>
    <speed>1.3299999</speed>
  </trkpt>
  <trkpt lat="50.499250" lon="-4.048104">
    <ele>232</ele>
    <time>2026-09-24T17:17:28Z</time>
    <speed>1.18</speed>
  </trkpt>
  <trkpt lat="50.499135" lon="-4.048044">
    <ele>231</ele>
    <time>2026-09-24T17:17:39Z</time>
    <speed>1.43</speed>
  </trkpt>
  <trkpt lat="50.499011" lon="-4.047978">
    <ele>230</ele>
    <time>2026-09-24T17:17:50Z</time>
    <speed>1.24</speed>
  </trkpt>
  <trkpt lat="50.498903" lon="-4.047882">
    <ele>226</ele>
    <time>2026-09-24T17:18:01Z</time>
    <speed>1.64</speed>
  </trkpt>
  <trkpt lat="50.498802" lon="-4.047763">
    <ele>232</ele>
    <time>2026-09-24T17:18:12Z</time>
    <speed>1.42</speed>
  </trkpt>
  <trkpt lat="50.498683" lon="-4.047652">
    <ele>229</ele>
    <time>2026-09-24T17:18:23Z</time>
    <speed>1.3199999</speed>
  </trkpt>
  <trkpt lat="50.498566" lon="-4.047595">
    <ele>223</ele>
    <time>2026-09-24T17:18:34Z</time>
    <speed>1.2099999</speed>
  </trkpt>
  <trkpt lat="50.498448" lon="-4.047527">
    <ele>223</ele>
    <time>2026-09-24T17:18:45Z</time>
    <speed>1.12</speed>
  </trkpt>
  <trkpt lat="50.498365" lon="-4.047382">
    <ele>221</ele>
    <time>2026-09-24T17:18:56Z</time>
    <speed>1.3299999</speed>
  </trkpt>
  <trkpt lat="50.498296" lon="-4.047204">
    <ele>227</ele>
    <time>2026-09-24T17:19:07Z</time>
    <speed>1.87</speed>
  </trkpt>
  <trkpt lat="50.498162" lon="-4.047240">
    <ele>221</ele>
    <time>2026-09-24T17:19:18Z</time>
    <speed>1.37</speed>
  </trkpt>
  <trkpt lat="50.498074" lon="-4.047278">
    <ele>222</ele>
    <time>2026-09-24T17:19:34Z</time>
    <speed>0.87</speed>
  </trkpt>
  <trkpt lat="50.497966" lon="-4.047325">
    <ele>219</ele>
    <time>2026-09-24T17:19:45Z</time>
    <speed>1.3399999</speed>
  </trkpt>
  <trkpt lat="50.497839" lon="-4.047291">
    <ele>221</ele>
    <time>2026-09-24T17:19:56Z</time>
    <speed>0.96</speed>
  </trkpt>
  <trkpt lat="50.497700" lon="-4.047319">
    <ele>220</ele>
    <time>2026-09-24T17:20:07Z</time>
    <speed>1.39</speed>
  </trkpt>
  <trkpt lat="50.497581" lon="-4.047386">
    <ele>221</ele>
    <time>2026-09-24T17:20:18Z</time>
    <speed>1.17</speed>
  </trkpt>
  <trkpt lat="50.497474" lon="-4.047402">
    <ele>219</ele>
    <time>2026-09-24T17:20:29Z</time>
    <speed>0.83</speed>
  </trkpt>
  <trkpt lat="50.497338" lon="-4.047426">
    <ele>217</ele>
    <time>2026-09-24T17:20:40Z</time>
    <speed>0.96</speed>
  </trkpt>
  <trkpt lat="50.497206" lon="-4.047477">
    <ele>217</ele>
    <time>2026-09-24T17:20:51Z</time>
    <speed>1.56</speed>
  </trkpt>
  <trkpt lat="50.497086" lon="-4.047460">
    <ele>219</ele>
    <time>2026-09-24T17:21:02Z</time>
    <speed>1.5899999</speed>
  </trkpt>
  <trkpt lat="50.496956" lon="-4.047452">
    <ele>218</ele>
    <time>2026-09-24T17:21:13Z</time>
    <speed>0.88</speed>
  </trkpt>
  <trkpt lat="50.496861" lon="-4.047394">
    <ele>217</ele>
    <time>2026-09-24T17:21:24Z</time>
    <speed>0.41</speed>
  </trkpt>
  <trkpt lat="50.496820" lon="-4.047269">
    <ele>214</ele>
    <time>2026-09-24T17:21:37Z</time>
    <speed>0.61</speed>
  </trkpt>
  <trkpt lat="50.496792" lon="-4.047131">
    <ele>215</ele>
    <time>2026-09-24T17:22:37Z</time>
    <speed>0.62</speed>
  </trkpt>
  <trkpt lat="50.496726" lon="-4.047033">
    <ele>209</ele>
    <time>2026-09-24T17:22:52Z</time>
    <speed>0.63</speed>
  </trkpt>
  <trkpt lat="50.496662" lon="-4.046932">
    <ele>203</ele>
    <time>2026-09-24T17:23:03Z</time>
    <speed>0.62</speed>
  </trkpt>
  <trkpt lat="50.496615" lon="-4.046798">
    <ele>210</ele>
    <time>2026-09-24T17:23:18Z</time>
    <speed>0.71</speed>
  </trkpt>
  <trkpt lat="50.496565" lon="-4.046680">
    <ele>205</ele>
    <time>2026-09-24T17:23:30Z</time>
    <speed>1.0799999</speed>
  </trkpt>
  <trkpt lat="50.496512" lon="-4.046533">
    <ele>204</ele>
    <time>2026-09-24T17:23:41Z</time>
    <speed>0.81</speed>
  </trkpt>
  <trkpt lat="50.496452" lon="-4.046386">
    <ele>204</ele>
    <time>2026-09-24T17:23:52Z</time>
    <speed>1.26</speed>
  </trkpt>
  <trkpt lat="50.496419" lon="-4.046243">
    <ele>197</ele>
    <time>2026-09-24T17:24:06Z</time>
    <speed>1.01</speed>
  </trkpt>
  <trkpt lat="50.496359" lon="-4.046132">
    <ele>196</ele>
    <time>2026-09-24T17:24:29Z</time>
    <speed>0.62</speed>
  </trkpt>
  <trkpt lat="50.496291" lon="-4.046020">
    <ele>190</ele>
    <time>2026-09-24T17:24:44Z</time>
    <speed>0.35999998</speed>
  </trkpt>
  <trkpt lat="50.496255" lon="-4.045890">
    <ele>178</ele>
    <time>2026-09-24T17:25:11Z</time>
    <speed>0.21</speed>
  </trkpt>
  <trkpt lat="50.496303" lon="-4.045767">
    <ele>184</ele>
    <time>2026-09-24T17:25:47Z</time>
    <speed>0.47</speed>
  </trkpt>
  <trkpt lat="50.496346" lon="-4.045633">
    <ele>177</ele>
    <time>2026-09-24T17:26:19Z</time>
    <speed>0.51</speed>
  </trkpt>
  <trkpt lat="50.496364" lon="-4.045487">
    <ele>173</ele>
    <time>2026-09-24T17:26:40Z</time>
    <speed>0.59999996</speed>
  </trkpt>
  <trkpt lat="50.496333" lon="-4.045351">
    <ele>169</ele>
    <time>2026-09-24T17:26:57Z</time>
    <speed>0.64</speed>
  </trkpt>
  <trkpt lat="50.496356" lon="-4.045213">
    <ele>169</ele>
    <time>2026-09-24T17:27:27Z</time>
    <speed>1.26</speed>
  </trkpt>
  <trkpt lat="50.496341" lon="-4.045052">
    <ele>167</ele>
    <time>2026-09-24T17:27:38Z</time>
    <speed>0.59</speed>
  </trkpt>
  <trkpt lat="50.496363" lon="-4.044913">
    <ele>160</ele>
    <time>2026-09-24T17:27:57Z</time>
    <speed>0.7</speed>
  </trkpt>
  <trkpt lat="50.496401" lon="-4.044783">
    <ele>157</ele>
    <time>2026-09-24T17:28:29Z</time>
    <speed>0.42</speed>
  </trkpt>
  <trkpt lat="50.496291" lon="-4.044673">
    <ele>157</ele>
    <time>2026-09-24T17:29:38Z</time>
    <speed>5.6299996</speed>
  </trkpt>
  <trkpt lat="50.496299" lon="-4.044874">
    <ele>157</ele>
    <time>2026-09-24T17:29:49Z</time>
    <speed>0.52</speed>
  </trkpt>
  <trkpt lat="50.496323" lon="-4.044731">
    <ele>155</ele>
    <time>2026-09-24T17:30:05Z</time>
    <speed>1.22</speed>
  </trkpt>
  <trkpt lat="50.496260" lon="-4.044608">
    <ele>158</ele>
    <time>2026-09-24T17:30:16Z</time>
    <speed>0.89</speed>
  </trkpt>
  <trkpt lat="50.496153" lon="-4.044591">
    <ele>154</ele>
    <time>2026-09-24T17:30:27Z</time>
    <speed>0.96999997</speed>
  </trkpt>
  <trkpt lat="50.496018" lon="-4.044553">
    <ele>156</ele>
    <time>2026-09-24T17:30:38Z</time>
    <speed>1.51</speed>
  </trkpt>
  <trkpt lat="50.495870" lon="-4.044538">
    <ele>158</ele>
    <time>2026-09-24T17:30:49Z</time>
    <speed>0.91999996</speed>
  </trkpt>
  <trkpt lat="50.495715" lon="-4.044523">
    <ele>161</ele>
    <time>2026-09-24T17:31:00Z</time>
    <speed>1.23</speed>
  </trkpt>
  <trkpt lat="50.495587" lon="-4.044507">
    <ele>154</ele>
    <time>2026-09-24T17:31:11Z</time>
    <speed>1.0799999</speed>
  </trkpt>
  <trkpt lat="50.495451" lon="-4.044439">
    <ele>156</ele>
    <time>2026-09-24T17:31:22Z</time>
    <speed>0.90999997</speed>
  </trkpt>
  <trkpt lat="50.495336" lon="-4.044496">
    <ele>158</ele>
    <time>2026-09-24T17:31:33Z</time>
    <speed>1.3299999</speed>
  </trkpt>
  <trkpt lat="50.495211" lon="-4.044554">
    <ele>155</ele>
    <time>2026-09-24T17:31:44Z</time>
    <speed>1.11</speed>
  </trkpt>
  <trkpt lat="50.495092" lon="-4.044579">
    <ele>158</ele>
    <time>2026-09-24T17:31:55Z</time>
    <speed>1.02</speed>
  </trkpt>
  <trkpt lat="50.494953" lon="-4.044591">
    <ele>156</ele>
    <time>2026-09-24T17:32:06Z</time>
    <speed>1.35</speed>
  </trkpt>
  <trkpt lat="50.494826" lon="-4.044610">
    <ele>157</ele>
    <time>2026-09-24T17:32:17Z</time>
    <speed>1.04</speed>
  </trkpt>
  <trkpt lat="50.494704" lon="-4.044644">
    <ele>156</ele>
    <time>2026-09-24T17:32:28Z</time>
    <speed>1.25</speed>
  </trkpt>
  <trkpt lat="50.494563" lon="-4.044649">
    <ele>158</ele>
    <time>2026-09-24T17:32:39Z</time>
    <speed>1.37</speed>
  </trkpt>
  <trkpt lat="50.494430" lon="-4.044703">
    <ele>158</ele>
    <time>2026-09-24T17:32:50Z</time>
    <speed>0.25</speed>
  </trkpt>
  <trkpt lat="50.494344" lon="-4.044661">
    <ele>156</ele>
    <time>2026-09-24T17:33:03Z</time>
    <speed>1.26</speed>
  </trkpt>
  <trkpt lat="50.494222" lon="-4.044638">
    <ele>147</ele>
    <time>2026-09-24T17:33:14Z</time>
    <speed>1.2099999</speed>
  </trkpt>
  <trkpt lat="50.494130" lon="-4.044623">
    <ele>155</ele>
    <time>2026-09-24T17:34:59Z</time>
    <speed>0.089999996</speed>
  </trkpt>
  <trkpt lat="50.494040" lon="-4.044603">
    <ele>156</ele>
    <time>2026-09-24T17:35:55Z</time>
    <speed>1.41</speed>
  </trkpt>
  <trkpt lat="50.493941" lon="-4.044650">
    <ele>154</ele>
    <time>2026-09-24T17:36:06Z</time>
    <speed>0.71</speed>
  </trkpt>
  <trkpt lat="50.493828" lon="-4.044659">
    <ele>156</ele>
    <time>2026-09-24T17:36:17Z</time>
    <speed>0.63</speed>
  </trkpt>
  <trkpt lat="50.493737" lon="-4.044695">
    <ele>156</ele>
    <time>2026-09-24T17:36:28Z</time>
    <speed>1.03</speed>
  </trkpt>
  <trkpt lat="50.493616" lon="-4.044730">
    <ele>155</ele>
    <time>2026-09-24T17:36:39Z</time>
    <speed>1.0799999</speed>
  </trkpt>
  <trkpt lat="50.493509" lon="-4.044773">
    <ele>154</ele>
    <time>2026-09-24T17:36:50Z</time>
    <speed>1.3399999</speed>
  </trkpt>
  <trkpt lat="50.493395" lon="-4.044837">
    <ele>155</ele>
    <time>2026-09-24T17:37:01Z</time>
    <speed>0.26999998</speed>
  </trkpt>
  <trkpt lat="50.493244" lon="-4.044846">
    <ele>136</ele>
    <time>2026-09-24T17:37:12Z</time>
    <speed>0.87</speed>
  </trkpt>
  <trkpt lat="50.493154" lon="-4.044828">
    <ele>155</ele>
    <time>2026-09-24T17:37:23Z</time>
    <speed>0.29999998</speed>
  </trkpt>
  <trkpt lat="50.493064" lon="-4.044790">
    <ele>152</ele>
    <time>2026-09-24T17:37:45Z</time>
    <speed>0.35</speed>
  </trkpt>
  <trkpt lat="50.492968" lon="-4.044823">
    <ele>154</ele>
    <time>2026-09-24T17:37:56Z</time>
    <speed>1.05</speed>
  </trkpt>
  <trkpt lat="50.492862" lon="-4.044834">
    <ele>158</ele>
    <time>2026-09-24T17:38:07Z</time>
    <speed>1.02</speed>
  </trkpt>
  <trkpt lat="50.492748" lon="-4.044839">
    <ele>152</ele>
    <time>2026-09-24T17:38:18Z</time>
    <speed>1.4699999</speed>
  </trkpt>
  <trkpt lat="50.492634" lon="-4.044828">
    <ele>151</ele>
    <time>2026-09-24T17:38:29Z</time>
    <speed>1.12</speed>
  </trkpt>
  <trkpt lat="50.492532" lon="-4.044853">
    <ele>149</ele>
    <time>2026-09-24T17:38:40Z</time>
    <speed>0.9</speed>
  </trkpt>
  <trkpt lat="50.492380" lon="-4.044915">
    <ele>147</ele>
    <time>2026-09-24T17:38:51Z</time>
    <speed>1.61</speed>
  </trkpt>
  <trkpt lat="50.492285" lon="-4.045006">
    <ele>149</ele>
    <time>2026-09-24T17:39:02Z</time>
    <speed>0.79999995</speed>
  </trkpt>
  <trkpt lat="50.492169" lon="-4.045059">
    <ele>148</ele>
    <time>2026-09-24T17:39:13Z</time>
    <speed>0.93</speed>
  </trkpt>
  <trkpt lat="50.492075" lon="-4.045071">
    <ele>147</ele>
    <time>2026-09-24T17:39:27Z</time>
    <speed>0.089999996</speed>
  </trkpt>
  <trkpt lat="50.491979" lon="-4.045051">
    <ele>145</ele>
    <time>2026-09-24T17:39:38Z</time>
    <speed>0.48</speed>
  </trkpt>
  <trkpt lat="50.491892" lon="-4.045010">
    <ele>145</ele>
    <time>2026-09-24T17:39:50Z</time>
    <speed>0.64</speed>
  </trkpt>
  <trkpt lat="50.491800" lon="-4.044984">
    <ele>143</ele>
    <time>2026-09-24T17:40:02Z</time>
    <speed>1.18</speed>
  </trkpt>
  <trkpt lat="50.491722" lon="-4.044898">
    <ele>143</ele>
    <time>2026-09-24T17:40:36Z</time>
    <speed>0.78</speed>
  </trkpt>
  <trkpt lat="50.491634" lon="-4.044858">
    <ele>141</ele>
    <time>2026-09-24T17:40:47Z</time>
    <speed>0.93</speed>
  </trkpt>
  <trkpt lat="50.491539" lon="-4.044866">
    <ele>143</ele>
    <time>2026-09-24T17:40:59Z</time>
    <speed>0.29999998</speed>
  </trkpt>
  <trkpt lat="50.491439" lon="-4.044839">
    <ele>136</ele>
    <time>2026-09-24T17:41:14Z</time>
    <speed>0.72999996</speed>
  </trkpt>
  <trkpt lat="50.491338" lon="-4.044805">
    <ele>138</ele>
    <time>2026-09-24T17:41:25Z</time>
    <speed>0.55</speed>
  </trkpt>
  <trkpt lat="50.491243" lon="-4.044783">
    <ele>133</ele>
    <time>2026-09-24T17:41:36Z</time>
    <speed>0.75</speed>
  </trkpt>
  <trkpt lat="50.491154" lon="-4.044805">
    <ele>142</ele>
    <time>2026-09-24T17:41:48Z</time>
    <speed>0.71</speed>
  </trkpt>
  <trkpt lat="50.491055" lon="-4.044852">
    <ele>142</ele>
    <time>2026-09-24T17:41:59Z</time>
    <speed>0.74</speed>
  </trkpt>
  <trkpt lat="50.490955" lon="-4.044883">
    <ele>141</ele>
    <time>2026-09-24T17:42:10Z</time>
    <speed>0.71</speed>
  </trkpt>
  <trkpt lat="50.490839" lon="-4.044935">
    <ele>140</ele>
    <time>2026-09-24T17:42:21Z</time>
    <speed>0.62</speed>
  </trkpt>
  <trkpt lat="50.490762" lon="-4.045013">
    <ele>141</ele>
    <time>2026-09-24T17:42:35Z</time>
    <speed>0.42999998</speed>
  </trkpt>
  <trkpt lat="50.490665" lon="-4.045029">
    <ele>138</ele>
    <time>2026-09-24T17:43:51Z</time>
    <speed>0.52</speed>
  </trkpt>
  <trkpt lat="50.490580" lon="-4.044952">
    <ele>134</ele>
    <time>2026-09-24T17:44:15Z</time>
    <speed>0.69</speed>
  </trkpt>
  <trkpt lat="50.490529" lon="-4.044830">
    <ele>132</ele>
    <time>2026-09-24T17:44:38Z</time>
    <speed>0.34</speed>
  </trkpt>
  <trkpt lat="50.490447" lon="-4.044762">
    <ele>128</ele>
    <time>2026-09-24T17:45:02Z</time>
    <speed>0.16</speed>
  </trkpt>
  <trkpt lat="50.490358" lon="-4.044731">
    <ele>125</ele>
    <time>2026-09-24T17:45:23Z</time>
    <speed>0.28</speed>
  </trkpt>
  <trkpt lat="50.490259" lon="-4.044782">
    <ele>123</ele>
    <time>2026-09-24T17:45:35Z</time>
    <speed>0.78999996</speed>
  </trkpt>
  <trkpt lat="50.490141" lon="-4.044884">
    <ele>125</ele>
    <time>2026-09-24T17:45:46Z</time>
    <speed>1.28</speed>
  </trkpt>
  <trkpt lat="50.490031" lon="-4.044989">
    <ele>125</ele>
    <time>2026-09-24T17:45:57Z</time>
    <speed>0.82</speed>
  </trkpt>
  <trkpt lat="50.489934" lon="-4.045130">
    <ele>125</ele>
    <time>2026-09-24T17:46:08Z</time>
    <speed>1.4</speed>
  </trkpt>
  <trkpt lat="50.489827" lon="-4.045234">
    <ele>123</ele>
    <time>2026-09-24T17:46:19Z</time>
    <speed>0.78999996</speed>
  </trkpt>
  <trkpt lat="50.489751" lon="-4.045341">
    <ele>121</ele>
    <time>2026-09-24T17:46:30Z</time>
    <speed>1.12</speed>
  </trkpt>
  <trkpt lat="50.489675" lon="-4.045478">
    <ele>125</ele>
    <time>2026-09-24T17:46:41Z</time>
    <speed>1.11</speed>
  </trkpt>
  <trkpt lat="50.489602" lon="-4.045635">
    <ele>127</ele>
    <time>2026-09-24T17:46:52Z</time>
    <speed>1.0</speed>
  </trkpt>
  <trkpt lat="50.489550" lon="-4.045803">
    <ele>126</ele>
    <time>2026-09-24T17:47:03Z</time>
    <speed>0.42</speed>
  </trkpt>
  <trkpt lat="50.489459" lon="-4.045977">
    <ele>125</ele>
    <time>2026-09-24T17:47:14Z</time>
    <speed>1.11</speed>
  </trkpt>
  <trkpt lat="50.489390" lon="-4.046110">
    <ele>125</ele>
    <time>2026-09-24T17:47:25Z</time>
    <speed>0.90999997</speed>
  </trkpt>
  <trkpt lat="50.489356" lon="-4.046241">
    <ele>124</ele>
    <time>2026-09-24T17:47:49Z</time>
    <speed>0.099999994</speed>
  </trkpt>
  <trkpt lat="50.489281" lon="-4.046341">
    <ele>121</ele>
    <time>2026-09-24T17:48:16Z</time>
    <speed>0.84</speed>
  </trkpt>
  <trkpt lat="50.489233" lon="-4.046521">
    <ele>121</ele>
    <time>2026-09-24T17:48:27Z</time>
    <speed>0.75</speed>
  </trkpt>
  <trkpt lat="50.489140" lon="-4.046695">
    <ele>118</ele>
    <time>2026-09-24T17:48:38Z</time>
    <speed>1.88</speed>
  </trkpt>
  <trkpt lat="50.489053" lon="-4.046811">
    <ele>117</ele>
    <time>2026-09-24T17:48:49Z</time>
    <speed>0.81</speed>
  </trkpt>
  <trkpt lat="50.489009" lon="-4.046957">
    <ele>116</ele>
    <time>2026-09-24T17:49:00Z</time>
    <speed>0.81</speed>
  </trkpt>
  <trkpt lat="50.488947" lon="-4.047067">
    <ele>113</ele>
    <time>2026-09-24T17:49:11Z</time>
    <speed>0.77</speed>
  </trkpt>
  <trkpt lat="50.488894" lon="-4.047215">
    <ele>114</ele>
    <time>2026-09-24T17:49:22Z</time>
    <speed>0.89</speed>
  </trkpt>
  <trkpt lat="50.488836" lon="-4.047327">
    <ele>113</ele>
    <time>2026-09-24T17:49:33Z</time>
    <speed>0.69</speed>
  </trkpt>
  <trkpt lat="50.488790" lon="-4.047512">
    <ele>112</ele>
    <time>2026-09-24T17:49:44Z</time>
    <speed>0.75</speed>
  </trkpt>
  <trkpt lat="50.488743" lon="-4.047635">
    <ele>111</ele>
    <time>2026-09-24T17:50:02Z</time>
    <speed>0.5</speed>
  </trkpt>
  <trkpt lat="50.488699" lon="-4.047769">
    <ele>110</ele>
    <time>2026-09-24T17:50:52Z</time>
    <speed>0.93</speed>
  </trkpt>
  <trkpt lat="50.488628" lon="-4.047940">
    <ele>104</ele>
    <time>2026-09-24T17:51:03Z</time>
    <speed>1.48</speed>
  </trkpt>
  <trkpt lat="50.488554" lon="-4.048083">
    <ele>107</ele>
    <time>2026-09-24T17:51:14Z</time>
    <speed>0.64</speed>
  </trkpt>
  <trkpt lat="50.488522" lon="-4.048220">
    <ele>105</ele>
    <time>2026-09-24T17:51:32Z</time>
    <speed>1.11</speed>
  </trkpt>
  <trkpt lat="50.488435" lon="-4.048354">
    <ele>106</ele>
    <time>2026-09-24T17:51:43Z</time>
    <speed>1.49</speed>
  </trkpt>
  <trkpt lat="50.488425" lon="-4.048503">
    <ele>103</ele>
    <time>2026-09-24T17:52:02Z</time>
    <speed>0.53999996</speed>
  </trkpt>
  <trkpt lat="50.488431" lon="-4.048644">
    <ele>106</ele>
    <time>2026-09-24T17:52:29Z</time>
    <speed>1.25</speed>
  </trkpt>
  <trkpt lat="50.488382" lon="-4.048867">
    <ele>105</ele>
    <time>2026-09-24T17:52:40Z</time>
    <speed>0.96999997</speed>
  </trkpt>
  <trkpt lat="50.488285" lon="-4.049016">
    <ele>105</ele>
    <time>2026-09-24T17:52:51Z</time>
    <speed>0.72999996</speed>
  </trkpt>
  <trkpt lat="50.488176" lon="-4.049135">
    <ele>103</ele>
    <time>2026-09-24T17:53:02Z</time>
    <speed>1.1999999</speed>
  </trkpt>
  <trkpt lat="50.488073" lon="-4.049269">
    <ele>103</ele>
    <time>2026-09-24T17:53:13Z</time>
    <speed>0.19999999</speed>
  </trkpt>
  <trkpt lat="50.488013" lon="-4.049380">
    <ele>99</ele>
    <time>2026-09-24T17:53:25Z</time>
    <speed>0.94</speed>
  </trkpt>
  <trkpt lat="50.487947" lon="-4.049483">
    <ele>100</ele>
    <time>2026-09-24T17:53:39Z</time>
    <speed>0.96999997</speed>
  </trkpt>
  <trkpt lat="50.487905" lon="-4.049629">
    <ele>100</ele>
    <time>2026-09-24T17:53:50Z</time>
    <speed>0.13</speed>
  </trkpt>
  <trkpt lat="50.487865" lon="-4.049755">
    <ele>100</ele>
    <time>2026-09-24T17:54:39Z</time>
    <speed>0.71999997</speed>
  </trkpt>
  <trkpt lat="50.487802" lon="-4.049879">
    <ele>97</ele>
    <time>2026-09-24T17:55:03Z</time>
    <speed>0.64</speed>
  </trkpt>
  <trkpt lat="50.487726" lon="-4.050012">
    <ele>100</ele>
    <time>2026-09-24T17:55:14Z</time>
    <speed>1.05</speed>
  </trkpt>
  <trkpt lat="50.487640" lon="-4.050161">
    <ele>100</ele>
    <time>2026-09-24T17:55:25Z</time>
    <speed>0.94</speed>
  </trkpt>
  <trkpt lat="50.487566" lon="-4.050291">
    <ele>99</ele>
    <time>2026-09-24T17:55:36Z</time>
    <speed>0.53999996</speed>
  </trkpt>
  <trkpt lat="50.487494" lon="-4.050432">
    <ele>98</ele>
    <time>2026-09-24T17:55:47Z</time>
    <speed>0.9</speed>
  </trkpt>
  <trkpt lat="50.487456" lon="-4.050610">
    <ele>95</ele>
    <time>2026-09-24T17:55:58Z</time>
    <speed>0.51</speed>
  </trkpt>
  <trkpt lat="50.487417" lon="-4.050788">
    <ele>99</ele>
    <time>2026-09-24T17:56:09Z</time>
    <speed>1.11</speed>
  </trkpt>
  <trkpt lat="50.487348" lon="-4.050970">
    <ele>98</ele>
    <time>2026-09-24T17:56:20Z</time>
    <speed>0.82</speed>
  </trkpt>
  <trkpt lat="50.487280" lon="-4.051091">
    <ele>97</ele>
    <time>2026-09-24T17:56:31Z</time>
    <speed>0.31</speed>
  </trkpt>
  <trkpt lat="50.487231" lon="-4.051226">
    <ele>96</ele>
    <time>2026-09-24T17:56:42Z</time>
    <speed>0.65</speed>
  </trkpt>
  <trkpt lat="50.487155" lon="-4.051347">
    <ele>94</ele>
    <time>2026-09-24T17:56:53Z</time>
    <speed>0.98999995</speed>
  </trkpt>
  <trkpt lat="50.487089" lon="-4.051485">
    <ele>94</ele>
    <time>2026-09-24T17:57:04Z</time>
    <speed>1.4499999</speed>
  </trkpt>
  <trkpt lat="50.487038" lon="-4.051619">
    <ele>93</ele>
    <time>2026-09-24T17:57:15Z</time>
    <speed>1.0</speed>
  </trkpt>
  <trkpt lat="50.486952" lon="-4.051767">
    <ele>91</ele>
    <time>2026-09-24T17:57:26Z</time>
    <speed>1.37</speed>
  </trkpt>
  <trkpt lat="50.486929" lon="-4.051953">
    <ele>86</ele>
    <time>2026-09-24T17:57:37Z</time>
    <speed>0.68</speed>
  </trkpt>
  <trkpt lat="50.486884" lon="-4.052113">
    <ele>86</ele>
    <time>2026-09-24T17:57:48Z</time>
    <speed>1.91</speed>
  </trkpt>
  <trkpt lat="50.486821" lon="-4.052219">
    <ele>85</ele>
    <time>2026-09-24T17:57:59Z</time>
    <speed>1.3</speed>
  </trkpt>
  <trkpt lat="50.486736" lon="-4.052402">
    <ele>88</ele>
    <time>2026-09-24T17:58:10Z</time>
    <speed>1.39</speed>
  </trkpt>
  <trkpt lat="50.486680" lon="-4.052570">
    <ele>86</ele>
    <time>2026-09-24T17:58:21Z</time>
    <speed>1.12</speed>
  </trkpt>
  <trkpt lat="50.486602" lon="-4.052727">
    <ele>86</ele>
    <time>2026-09-24T17:58:32Z</time>
    <speed>1.11</speed>
  </trkpt>
  <trkpt lat="50.486520" lon="-4.052895">
    <ele>82</ele>
    <time>2026-09-24T17:58:43Z</time>
    <speed>1.35</speed>
  </trkpt>
  <trkpt lat="50.486481" lon="-4.053044">
    <ele>86</ele>
    <time>2026-09-24T17:58:54Z</time>
    <speed>1.38</speed>
  </trkpt>
  <trkpt lat="50.486419" lon="-4.053151">
    <ele>84</ele>
    <time>2026-09-24T17:59:14Z</time>
    <speed>0.75</speed>
  </trkpt>
  <trkpt lat="50.486354" lon="-4.053252">
    <ele>83</ele>
    <time>2026-09-24T17:59:27Z</time>
    <speed>1.17</speed>
  </trkpt>
  <trkpt lat="50.486237" lon="-4.053227">
    <ele>83</ele>
    <time>2026-09-24T17:59:38Z</time>
    <speed>1.05</speed>
  </trkpt>
  <trkpt lat="50.486124" lon="-4.053221">
    <ele>80</ele>
    <time>2026-09-24T17:59:49Z</time>
    <speed>1.56</speed>
  </trkpt>
  <trkpt lat="50.485990" lon="-4.053164">
    <ele>80</ele>
    <time>2026-09-24T18:00:00Z</time>
    <speed>1.52</speed>
  </trkpt>
  <trkpt lat="50.485884" lon="-4.053105">
    <ele>82</ele>
    <time>2026-09-24T18:00:11Z</time>
    <speed>1.27</speed>
  </trkpt>
  <trkpt lat="50.485786" lon="-4.052980">
    <ele>80</ele>
    <time>2026-09-24T18:00:22Z</time>
    <speed>1.3199999</speed>
  </trkpt>
  <trkpt lat="50.485680" lon="-4.052898">
    <ele>78</ele>
    <time>2026-09-24T18:00:33Z</time>
    <speed>1.1</speed>
  </trkpt>
  <trkpt lat="50.485572" lon="-4.052798">
    <ele>79</ele>
    <time>2026-09-24T18:00:44Z</time>
    <speed>1.4</speed>
  </trkpt>
  <trkpt lat="50.485481" lon="-4.052675">
    <ele>73</ele>
    <time>2026-09-24T18:00:55Z</time>
    <speed>1.8</speed>
  </trkpt>
  <trkpt lat="50.485356" lon="-4.052588">
    <ele>78</ele>
    <time>2026-09-24T18:01:06Z</time>
    <speed>0.93</speed>
  </trkpt>
  <trkpt lat="50.485258" lon="-4.052507">
    <ele>77</ele>
    <time>2026-09-24T18:01:17Z</time>
    <speed>1.5899999</speed>
  </trkpt>
  <trkpt lat="50.485160" lon="-4.052409">
    <ele>78</ele>
    <time>2026-09-24T18:01:28Z</time>
    <speed>0.91999996</speed>
  </trkpt>
  <trkpt lat="50.485045" lon="-4.052275">
    <ele>75</ele>
    <time>2026-09-24T18:01:39Z</time>
    <speed>1.22</speed>
  </trkpt>
  <trkpt lat="50.484935" lon="-4.052173">
    <ele>78</ele>
    <time>2026-09-24T18:01:50Z</time>
    <speed>1.23</speed>
  </trkpt>
  <trkpt lat="50.484833" lon="-4.052051">
    <ele>75</ele>
    <time>2026-09-24T18:02:01Z</time>
    <speed>1.22</speed>
  </trkpt>
  <trkpt lat="50.484735" lon="-4.051867">
    <ele>76</ele>
    <time>2026-09-24T18:02:12Z</time>
    <speed>1.18</speed>
  </trkpt>
  <trkpt lat="50.484663" lon="-4.051698">
    <ele>73</ele>
    <time>2026-09-24T18:02:23Z</time>
    <speed>0.85999995</speed>
  </trkpt>
  <trkpt lat="50.484651" lon="-4.051510">
    <ele>77</ele>
    <time>2026-09-24T18:02:34Z</time>
    <speed>1.25</speed>
  </trkpt>
  <trkpt lat="50.484654" lon="-4.051316">
    <ele>75</ele>
    <time>2026-09-24T18:02:45Z</time>
    <speed>1.0</speed>
  </trkpt>
  <trkpt lat="50.484659" lon="-4.051106">
    <ele>75</ele>
    <time>2026-09-24T18:02:56Z</time>
    <speed>1.0699999</speed>
  </trkpt>
  <trkpt lat="50.484680" lon="-4.050926">
    <ele>72</ele>
    <time>2026-09-24T18:03:07Z</time>
    <speed>1.2099999</speed>
  </trkpt>
  <trkpt lat="50.484692" lon="-4.050757">
    <ele>79</ele>
    <time>2026-09-24T18:03:18Z</time>
    <speed>1.5</speed>
  </trkpt>
  <trkpt lat="50.484626" lon="-4.050638">
    <ele>73</ele>
    <time>2026-09-24T18:03:29Z</time>
    <speed>0.62</speed>
  </trkpt>
  <trkpt lat="50.484534" lon="-4.050640">
    <ele>78</ele>
    <time>2026-09-24T18:03:46Z</time>
    <speed>0.68</speed>
  </trkpt>
  <trkpt lat="50.484470" lon="-4.050743">
    <ele>79</ele>
    <time>2026-09-24T18:03:58Z</time>
    <speed>0.93</speed>
  </trkpt>
  <trkpt lat="50.484405" lon="-4.050878">
    <ele>78</ele>
    <time>2026-09-24T18:04:09Z</time>
    <speed>1.5799999</speed>
  </trkpt>
  <trkpt lat="50.484306" lon="-4.051123">
    <ele>80</ele>
    <time>2026-09-24T18:04:20Z</time>
    <speed>0.84999996</speed>
  </trkpt>
  <trkpt lat="50.484214" lon="-4.051167">
    <ele>77</ele>
    <time>2026-09-24T18:04:31Z</time>
    <speed>0.77</speed>
  </trkpt>
  <trkpt lat="50.484110" lon="-4.051238">
    <ele>82</ele>
    <time>2026-09-24T18:04:42Z</time>
    <speed>0.32999998</speed>
  </trkpt>
  <trkpt lat="50.483964" lon="-4.051201">
    <ele>73</ele>
    <time>2026-09-24T18:04:53Z</time>
    <speed>2.32</speed>
  </trkpt>
  <trkpt lat="50.483821" lon="-4.051169">
    <ele>82</ele>
    <time>2026-09-24T18:05:04Z</time>
    <speed>0.78</speed>
  </trkpt>
  <trkpt lat="50.483721" lon="-4.051126">
    <ele>83</ele>
    <time>2026-09-24T18:05:15Z</time>
    <speed>0.88</speed>
  </trkpt>
  <trkpt lat="50.483634" lon="-4.051068">
    <ele>80</ele>
    <time>2026-09-24T18:05:29Z</time>
    <speed>0.74</speed>
  </trkpt>
  <trkpt lat="50.483538" lon="-4.051034">
    <ele>80</ele>
    <time>2026-09-24T18:05:40Z</time>
    <speed>0.58</speed>
  </trkpt>
  <trkpt lat="50.483466" lon="-4.050945">
    <ele>83</ele>
    <time>2026-09-24T18:05:51Z</time>
    <speed>1.3199999</speed>
  </trkpt>
  <trkpt lat="50.483344" lon="-4.050843">
    <ele>89</ele>
    <time>2026-09-24T18:06:02Z</time>
    <speed>0.93</speed>
  </trkpt>
  <trkpt lat="50.483247" lon="-4.050750">
    <ele>86</ele>
    <time>2026-09-24T18:06:13Z</time>
    <speed>1.56</speed>
  </trkpt>
  <trkpt lat="50.483170" lon="-4.050602">
    <ele>91</ele>
    <time>2026-09-24T18:06:24Z</time>
    <speed>1.24</speed>
  </trkpt>
  <trkpt lat="50.483091" lon="-4.050484">
    <ele>92</ele>
    <time>2026-09-24T18:06:35Z</time>
    <speed>0.9</speed>
  </trkpt>
  <trkpt lat="50.483117" lon="-4.050284">
    <ele>92</ele>
    <time>2026-09-24T18:06:46Z</time>
    <speed>1.06</speed>
  </trkpt>
  <trkpt lat="50.483135" lon="-4.050084">
    <ele>93</ele>
    <time>2026-09-24T18:06:57Z</time>
    <speed>1.01</speed>
  </trkpt>
  <trkpt lat="50.483109" lon="-4.049899">
    <ele>88</ele>
    <time>2026-09-24T18:07:08Z</time>
    <speed>1.35</speed>
  </trkpt>
  <trkpt lat="50.483089" lon="-4.049707">
    <ele>105</ele>
    <time>2026-09-24T18:07:19Z</time>
    <speed>1.3</speed>
  </trkpt>
  <trkpt lat="50.483053" lon="-4.049501">
    <ele>94</ele>
    <time>2026-09-24T18:07:30Z</time>
    <speed>1.38</speed>
  </trkpt>
  <trkpt lat="50.483039" lon="-4.049295">
    <ele>92</ele>
    <time>2026-09-24T18:07:41Z</time>
    <speed>1.43</speed>
  </trkpt>
  <trkpt lat="50.483016" lon="-4.049087">
    <ele>94</ele>
    <time>2026-09-24T18:07:52Z</time>
    <speed>1.3299999</speed>
  </trkpt>
  <trkpt lat="50.483010" lon="-4.048884">
    <ele>95</ele>
    <time>2026-09-24T18:08:03Z</time>
    <speed>1.38</speed>
  </trkpt>
  <trkpt lat="50.483022" lon="-4.048647">
    <ele>94</ele>
    <time>2026-09-24T18:08:14Z</time>
    <speed>1.54</speed>
  </trkpt>
  <trkpt lat="50.483035" lon="-4.048448">
    <ele>92</ele>
    <time>2026-09-24T18:08:25Z</time>
    <speed>1.29</speed>
  </trkpt>
  <trkpt lat="50.483052" lon="-4.048243">
    <ele>93</ele>
    <time>2026-09-24T18:08:36Z</time>
    <speed>1.18</speed>
  </trkpt>
  <trkpt lat="50.483061" lon="-4.048043">
    <ele>93</ele>
    <time>2026-09-24T18:08:47Z</time>
    <speed>1.4699999</speed>
  </trkpt>
  <trkpt lat="50.483082" lon="-4.047832">
    <ele>91</ele>
    <time>2026-09-24T18:08:58Z</time>
    <speed>1.36</speed>
  </trkpt>
  <trkpt lat="50.483074" lon="-4.047620">
    <ele>91</ele>
    <time>2026-09-24T18:09:09Z</time>
    <speed>1.2099999</speed>
  </trkpt>
  <trkpt lat="50.483088" lon="-4.047441">
    <ele>94</ele>
    <time>2026-09-24T18:09:20Z</time>
    <speed>0.88</speed>
  </trkpt>
  <trkpt lat="50.483148" lon="-4.047226">
    <ele>94</ele>
    <time>2026-09-24T18:09:31Z</time>
    <speed>1.3299999</speed>
  </trkpt>
  <trkpt lat="50.483191" lon="-4.047037">
    <ele>94</ele>
    <time>2026-09-24T18:09:42Z</time>
    <speed>0.97999996</speed>
  </trkpt>
  <trkpt lat="50.483197" lon="-4.046824">
    <ele>95</ele>
    <time>2026-09-24T18:09:53Z</time>
    <speed>1.64</speed>
  </trkpt>
  <trkpt lat="50.483193" lon="-4.046619">
    <ele>94</ele>
    <time>2026-09-24T18:10:04Z</time>
    <speed>1.15</speed>
  </trkpt>
  <trkpt lat="50.483197" lon="-4.046421">
    <ele>100</ele>
    <time>2026-09-24T18:10:15Z</time>
    <speed>1.56</speed>
  </trkpt>
  <trkpt lat="50.483215" lon="-4.046235">
    <ele>99</ele>
    <time>2026-09-24T18:10:26Z</time>
    <speed>1.26</speed>
  </trkpt>
  <trkpt lat="50.483250" lon="-4.046069">
    <ele>102</ele>
    <time>2026-09-24T18:10:37Z</time>
    <speed>1.26</speed>
  </trkpt>
  <trkpt lat="50.483298" lon="-4.045870">
    <ele>100</ele>
    <time>2026-09-24T18:10:48Z</time>
    <speed>1.18</speed>
  </trkpt>
  <trkpt lat="50.483379" lon="-4.045699">
    <ele>102</ele>
    <time>2026-09-24T18:10:59Z</time>
    <speed>1.25</speed>
  </trkpt>
  <trkpt lat="50.483453" lon="-4.045565">
    <ele>102</ele>
    <time>2026-09-24T18:11:10Z</time>
    <speed>1.26</speed>
  </trkpt>
  <trkpt lat="50.483523" lon="-4.045477">
    <ele>98</ele>
    <time>2026-09-24T18:11:23Z</time>
    <speed>1.02</speed>
  </trkpt>
  <trkpt lat="50.483603" lon="-4.045352">
    <ele>99</ele>
    <time>2026-09-24T18:11:34Z</time>
    <speed>1.2099999</speed>
  </trkpt>
  <trkpt lat="50.483691" lon="-4.045214">
    <ele>95</ele>
    <time>2026-09-24T18:11:45Z</time>
    <speed>1.5999999</speed>
  </trkpt>
  <trkpt lat="50.483800" lon="-4.045059">
    <ele>98</ele>
    <time>2026-09-24T18:11:56Z</time>
    <speed>1.05</speed>
  </trkpt>
  <trkpt lat="50.483906" lon="-4.044914">
    <ele>96</ele>
    <time>2026-09-24T18:12:07Z</time>
    <speed>1.31</speed>
  </trkpt>
  <trkpt lat="50.483989" lon="-4.044773">
    <ele>99</ele>
    <time>2026-09-24T18:12:18Z</time>
    <speed>1.25</speed>
  </trkpt>
  <trkpt lat="50.484056" lon="-4.044614">
    <ele>95</ele>
    <time>2026-09-24T18:12:29Z</time>
    <speed>1.23</speed>
  </trkpt>
  <trkpt lat="50.484115" lon="-4.044413">
    <ele>95</ele>
    <time>2026-09-24T18:12:40Z</time>
    <speed>1.4</speed>
  </trkpt>
  <trkpt lat="50.484144" lon="-4.044220">
    <ele>98</ele>
    <time>2026-09-24T18:12:51Z</time>
    <speed>1.09</speed>
  </trkpt>
  <trkpt lat="50.484185" lon="-4.044055">
    <ele>97</ele>
    <time>2026-09-24T18:13:02Z</time>
    <speed>0.82</speed>
  </trkpt>
  <trkpt lat="50.484189" lon="-4.043851">
    <ele>95</ele>
    <time>2026-09-24T18:13:13Z</time>
    <speed>1.29</speed>
  </trkpt>
  <trkpt lat="50.484159" lon="-4.043630">
    <ele>101</ele>
    <time>2026-09-24T18:13:24Z</time>
    <speed>0.78999996</speed>
  </trkpt>
  <trkpt lat="50.484089" lon="-4.043542">
    <ele>98</ele>
    <time>2026-09-24T18:16:29Z</time>
    <speed>0.53</speed>
  </trkpt>
  <trkpt lat="50.484070" lon="-4.043402">
    <ele>96</ele>
    <time>2026-09-24T18:16:47Z</time>
    <speed>1.62</speed>
  </trkpt>
  <trkpt lat="50.484031" lon="-4.043269">
    <ele>94</ele>
    <time>2026-09-24T18:17:08Z</time>
    <speed>0.57</speed>
  </trkpt>
  <trkpt lat="50.483943" lon="-4.043134">
    <ele>101</ele>
    <time>2026-09-24T18:17:19Z</time>
    <speed>0.75</speed>
  </trkpt>
  <trkpt lat="50.483940" lon="-4.042991">
    <ele>104</ele>
    <time>2026-09-24T18:17:34Z</time>
    <speed>0.42999998</speed>
  </trkpt>
  <trkpt lat="50.483876" lon="-4.042874">
    <ele>103</ele>
    <time>2026-09-24T18:17:47Z</time>
    <speed>0.7</speed>
  </trkpt>
  <trkpt lat="50.483867" lon="-4.042713">
    <ele>101</ele>
    <time>2026-09-24T18:17:59Z</time>
    <speed>0.9</speed>
  </trkpt>
  <trkpt lat="50.483810" lon="-4.042536">
    <ele>108</ele>
    <time>2026-09-24T18:18:10Z</time>
    <speed>1.4699999</speed>
  </trkpt>
  <trkpt lat="50.483884" lon="-4.042436">
    <ele>106</ele>
    <time>2026-09-24T18:18:33Z</time>
    <speed>0.64</speed>
  </trkpt>
  <trkpt lat="50.483980" lon="-4.042424">
    <ele>113</ele>
    <time>2026-09-24T18:19:09Z</time>
    <speed>1.51</speed>
  </trkpt>
  <trkpt lat="50.484067" lon="-4.042359">
    <ele>116</ele>
    <time>2026-09-24T18:19:21Z</time>
    <speed>0.74</speed>
  </trkpt>
  <trkpt lat="50.484153" lon="-4.042242">
    <ele>112</ele>
    <time>2026-09-24T18:19:32Z</time>
    <speed>1.18</speed>
  </trkpt>
  <trkpt lat="50.484269" lon="-4.042211">
    <ele>113</ele>
    <time>2026-09-24T18:19:43Z</time>
    <speed>1.09</speed>
  </trkpt>
  <trkpt lat="50.484345" lon="-4.042128">
    <ele>121</ele>
    <time>2026-09-24T18:19:57Z</time>
    <speed>0.59999996</speed>
  </trkpt>
  <trkpt lat="50.484427" lon="-4.042029">
    <ele>122</ele>
    <time>2026-09-24T18:20:08Z</time>
    <speed>0.84999996</speed>
  </trkpt>
  <trkpt lat="50.484467" lon="-4.041896">
    <ele>124</ele>
    <time>2026-09-24T18:20:28Z</time>
    <speed>0.57</speed>
  </trkpt>
  <trkpt lat="50.484535" lon="-4.041758">
    <ele>124</ele>
    <time>2026-09-24T18:20:39Z</time>
    <speed>0.94</speed>
  </trkpt>
  <trkpt lat="50.484593" lon="-4.041612">
    <ele>122</ele>
    <time>2026-09-24T18:20:50Z</time>
    <speed>0.65</speed>
  </trkpt>
  <trkpt lat="50.484645" lon="-4.041496">
    <ele>126</ele>
    <time>2026-09-24T18:21:05Z</time>
    <speed>0.87</speed>
  </trkpt>
  <trkpt lat="50.484714" lon="-4.041404">
    <ele>126</ele>
    <time>2026-09-24T18:21:49Z</time>
    <speed>0.66999996</speed>
  </trkpt>
  <trkpt lat="50.484782" lon="-4.041306">
    <ele>123</ele>
    <time>2026-09-24T18:24:25Z</time>
    <speed>1.4499999</speed>
  </trkpt>
  <trkpt lat="50.484855" lon="-4.041205">
    <ele>131</ele>
    <time>2026-09-24T18:24:36Z</time>
    <speed>1.16</speed>
  </trkpt>
  <trkpt lat="50.484910" lon="-4.041090">
    <ele>131</ele>
    <time>2026-09-24T18:24:50Z</time>
    <speed>1.03</speed>
  </trkpt>
  <trkpt lat="50.485017" lon="-4.041060">
    <ele>131</ele>
    <time>2026-09-24T18:25:02Z</time>
    <speed>1.2099999</speed>
  </trkpt>
  <trkpt lat="50.485094" lon="-4.040982">
    <ele>134</ele>
    <time>2026-09-24T18:25:14Z</time>
    <speed>0.82</speed>
  </trkpt>
  <trkpt lat="50.485198" lon="-4.040939">
    <ele>134</ele>
    <time>2026-09-24T18:25:25Z</time>
    <speed>0.96999997</speed>
  </trkpt>
  <trkpt lat="50.485285" lon="-4.040880">
    <ele>137</ele>
    <time>2026-09-24T18:25:36Z</time>
    <speed>0.75</speed>
  </trkpt>
  <trkpt lat="50.485409" lon="-4.040801">
    <ele>139</ele>
    <time>2026-09-24T18:25:47Z</time>
    <speed>0.76</speed>
  </trkpt>
  <trkpt lat="50.485504" lon="-4.040712">
    <ele>131</ele>
    <time>2026-09-24T18:25:58Z</time>
    <speed>1.39</speed>
  </trkpt>
  <trkpt lat="50.485592" lon="-4.040635">
    <ele>139</ele>
    <time>2026-09-24T18:26:09Z</time>
    <speed>1.35</speed>
  </trkpt>
  <trkpt lat="50.485673" lon="-4.040763">
    <ele>139</ele>
    <time>2026-09-24T18:26:20Z</time>
    <speed>0.31</speed>
  </trkpt>
  <trkpt lat="50.485766" lon="-4.040766">
    <ele>139</ele>
    <time>2026-09-24T18:26:32Z</time>
    <speed>0.75</speed>
  </trkpt>
  <trkpt lat="50.485861" lon="-4.040763">
    <ele>139</ele>
    <time>2026-09-24T18:26:43Z</time>
    <speed>1.06</speed>
  </trkpt>
  <trkpt lat="50.485961" lon="-4.040827">
    <ele>141</ele>
    <time>2026-09-24T18:26:54Z</time>
    <speed>0.88</speed>
  </trkpt>
  <trkpt lat="50.486053" lon="-4.040868">
    <ele>140</ele>
    <time>2026-09-24T18:27:06Z</time>
    <speed>0.75</speed>
  </trkpt>
  <trkpt lat="50.486101" lon="-4.040988">
    <ele>141</ele>
    <time>2026-09-24T18:27:19Z</time>
    <speed>0.39999998</speed>
  </trkpt>
  <trkpt lat="50.486163" lon="-4.041095">
    <ele>139</ele>
    <time>2026-09-24T18:27:53Z</time>
    <speed>0.049999997</speed>
  </trkpt>
  <trkpt lat="50.486249" lon="-4.041140">
    <ele>140</ele>
    <time>2026-09-24T18:28:48Z</time>
    <speed>0.66999996</speed>
  </trkpt>
  <trkpt lat="50.486336" lon="-4.041213">
    <ele>144</ele>
    <time>2026-09-24T18:29:05Z</time>
    <speed>0.75</speed>
  </trkpt>
  <trkpt lat="50.486425" lon="-4.041253">
    <ele>139</ele>
    <time>2026-09-24T18:29:16Z</time>
    <speed>1.31</speed>
  </trkpt>
  <trkpt lat="50.486515" lon="-4.041292">
    <ele>137</ele>
    <time>2026-09-24T18:29:27Z</time>
    <speed>1.17</speed>
  </trkpt>
  <trkpt lat="50.486629" lon="-4.041387">
    <ele>138</ele>
    <time>2026-09-24T18:29:38Z</time>
    <speed>0.69</speed>
  </trkpt>
  <trkpt lat="50.486684" lon="-4.041547">
    <ele>133</ele>
    <time>2026-09-24T18:29:49Z</time>
    <speed>0.64</speed>
  </trkpt>
  <trkpt lat="50.486819" lon="-4.041492">
    <ele>144</ele>
    <time>2026-09-24T18:30:00Z</time>
    <speed>0.66999996</speed>
  </trkpt>
  <trkpt lat="50.486940" lon="-4.041582">
    <ele>136</ele>
    <time>2026-09-24T18:30:11Z</time>
    <speed>0.22</speed>
  </trkpt>
  <trkpt lat="50.487033" lon="-4.041628">
    <ele>144</ele>
    <time>2026-09-24T18:30:22Z</time>
    <speed>1.92</speed>
  </trkpt>
  <trkpt lat="50.487168" lon="-4.041533">
    <ele>148</ele>
    <time>2026-09-24T18:30:33Z</time>
    <speed>1.68</speed>
  </trkpt>
  <trkpt lat="50.487263" lon="-4.041568">
    <ele>147</ele>
    <time>2026-09-24T18:30:44Z</time>
    <speed>0.45</speed>
  </trkpt>
  <trkpt lat="50.487423" lon="-4.041643">
    <ele>149</ele>
    <time>2026-09-24T18:30:55Z</time>
    <speed>4.21</speed>
  </trkpt>
  <trkpt lat="50.487531" lon="-4.041640">
    <ele>148</ele>
    <time>2026-09-24T18:31:06Z</time>
    <speed>1.0699999</speed>
  </trkpt>
  <trkpt lat="50.487625" lon="-4.041670">
    <ele>148</ele>
    <time>2026-09-24T18:31:18Z</time>
    <speed>1.02</speed>
  </trkpt>
  <trkpt lat="50.487732" lon="-4.041705">
    <ele>143</ele>
    <time>2026-09-24T18:31:29Z</time>
    <speed>0.47</speed>
  </trkpt>
  <trkpt lat="50.487857" lon="-4.041682">
    <ele>152</ele>
    <time>2026-09-24T18:31:40Z</time>
    <speed>1.16</speed>
  </trkpt>
  <trkpt lat="50.487996" lon="-4.041659">
    <ele>151</ele>
    <time>2026-09-24T18:31:51Z</time>
    <speed>0.96999997</speed>
  </trkpt>
  <trkpt lat="50.488060" lon="-4.041551">
    <ele>152</ele>
    <time>2026-09-24T18:32:03Z</time>
    <speed>0.65999997</speed>
  </trkpt>
  <trkpt lat="50.488075" lon="-4.041702">
    <ele>148</ele>
    <time>2026-09-24T18:32:24Z</time>
    <speed>0.02</speed>
  </trkpt>
  <trkpt lat="50.488116" lon="-4.041573">
    <ele>154</ele>
    <time>2026-09-24T18:32:46Z</time>
    <speed>0.19999999</speed>
  </trkpt>
  <trkpt lat="50.488209" lon="-4.041569">
    <ele>152</ele>
    <time>2026-09-24T18:33:20Z</time>
    <speed>0.74</speed>
  </trkpt>
  <trkpt lat="50.488308" lon="-4.041661">
    <ele>153</ele>
    <time>2026-09-24T18:33:31Z</time>
    <speed>1.15</speed>
  </trkpt>
  <trkpt lat="50.488405" lon="-4.041707">
    <ele>149</ele>
    <time>2026-09-24T18:33:42Z</time>
    <speed>0.84</speed>
  </trkpt>
  <trkpt lat="50.488508" lon="-4.041716">
    <ele>150</ele>
    <time>2026-09-24T18:33:53Z</time>
    <speed>0.57</speed>
  </trkpt>
  <trkpt lat="50.488594" lon="-4.041672">
    <ele>150</ele>
    <time>2026-09-24T18:34:12Z</time>
    <speed>0.17999999</speed>
  </trkpt>
  <trkpt lat="50.488686" lon="-4.041664">
    <ele>150</ele>
    <time>2026-09-24T18:34:24Z</time>
    <speed>0.34</speed>
  </trkpt>
  <trkpt lat="50.488769" lon="-4.041607">
    <ele>150</ele>
    <time>2026-09-24T18:34:53Z</time>
    <speed>0.48999998</speed>
  </trkpt>
  <trkpt lat="50.488831" lon="-4.041493">
    <ele>152</ele>
    <time>2026-09-24T18:35:08Z</time>
    <speed>0.24</speed>
  </trkpt>
  <trkpt lat="50.488753" lon="-4.041418">
    <ele>154</ele>
    <time>2026-09-24T18:35:45Z</time>
    <speed>0.14999999</speed>
  </trkpt>
  <trkpt lat="50.488779" lon="-4.041281">
    <ele>152</ele>
    <time>2026-09-24T18:35:59Z</time>
    <speed>1.0699999</speed>
  </trkpt>
  <trkpt lat="50.488697" lon="-4.041221">
    <ele>160</ele>
    <time>2026-09-24T18:36:16Z</time>
    <speed>1.09</speed>
  </trkpt>
  <trkpt lat="50.488788" lon="-4.041175">
    <ele>159</ele>
    <time>2026-09-24T18:36:30Z</time>
    <speed>0.87</speed>
  </trkpt>
  <trkpt lat="50.488869" lon="-4.041106">
    <ele>163</ele>
    <time>2026-09-24T18:38:00Z</time>
    <speed>0.97999996</speed>
  </trkpt>
  <trkpt lat="50.488831" lon="-4.040968">
    <ele>163</ele>
    <time>2026-09-24T18:38:18Z</time>
    <speed>0.85999995</speed>
  </trkpt>
  <trkpt lat="50.488854" lon="-4.040814">
    <ele>160</ele>
    <time>2026-09-24T18:38:32Z</time>
    <speed>0.57</speed>
  </trkpt>
  <trkpt lat="50.488860" lon="-4.040670">
    <ele>163</ele>
    <time>2026-09-24T18:38:43Z</time>
    <speed>0.32999998</speed>
  </trkpt>
  <trkpt lat="50.488892" lon="-4.040527">
    <ele>163</ele>
    <time>2026-09-24T18:39:09Z</time>
    <speed>1.15</speed>
  </trkpt>
  <trkpt lat="50.488914" lon="-4.040384">
    <ele>165</ele>
    <time>2026-09-24T18:39:22Z</time>
    <speed>0.089999996</speed>
  </trkpt>
  <trkpt lat="50.488942" lon="-4.040249">
    <ele>163</ele>
    <time>2026-09-24T18:39:59Z</time>
    <speed>0.7</speed>
  </trkpt>
  <trkpt lat="50.488869" lon="-4.040161">
    <ele>170</ele>
    <time>2026-09-24T18:40:10Z</time>
    <speed>0.72999996</speed>
  </trkpt>
  <trkpt lat="50.488826" lon="-4.040024">
    <ele>167</ele>
    <time>2026-09-24T18:40:23Z</time>
    <speed>1.28</speed>
  </trkpt>
  <trkpt lat="50.488802" lon="-4.039877">
    <ele>173</ele>
    <time>2026-09-24T18:40:42Z</time>
    <speed>1.36</speed>
  </trkpt>
  <trkpt lat="50.488757" lon="-4.039741">
    <ele>176</ele>
    <time>2026-09-24T18:40:53Z</time>
    <speed>0.5</speed>
  </trkpt>
  <trkpt lat="50.488703" lon="-4.039624">
    <ele>179</ele>
    <time>2026-09-24T18:41:04Z</time>
    <speed>0.88</speed>
  </trkpt>
  <trkpt lat="50.488634" lon="-4.039519">
    <ele>177</ele>
    <time>2026-09-24T18:41:17Z</time>
    <speed>0.48</speed>
  </trkpt>
  <trkpt lat="50.488699" lon="-4.039402">
    <ele>178</ele>
    <time>2026-09-24T18:41:36Z</time>
    <speed>0.78999996</speed>
  </trkpt>
  <trkpt lat="50.488704" lon="-4.039153">
    <ele>176</ele>
    <time>2026-09-24T18:41:47Z</time>
    <speed>1.42</speed>
  </trkpt>
  <trkpt lat="50.488633" lon="-4.039057">
    <ele>176</ele>
    <time>2026-09-24T18:42:01Z</time>
    <speed>0.45</speed>
  </trkpt>
  <trkpt lat="50.488659" lon="-4.038921">
    <ele>175</ele>
    <time>2026-09-24T18:42:40Z</time>
    <speed>1.25</speed>
  </trkpt>
  <trkpt lat="50.488679" lon="-4.038776">
    <ele>178</ele>
    <time>2026-09-24T18:42:53Z</time>
    <speed>0.82</speed>
  </trkpt>
  <trkpt lat="50.488741" lon="-4.038602">
    <ele>176</ele>
    <time>2026-09-24T18:43:04Z</time>
    <speed>1.26</speed>
  </trkpt>
  <trkpt lat="50.488778" lon="-4.038446">
    <ele>171</ele>
    <time>2026-09-24T18:43:15Z</time>
    <speed>0.91999996</speed>
  </trkpt>
  <trkpt lat="50.488855" lon="-4.038258">
    <ele>172</ele>
    <time>2026-09-24T18:43:26Z</time>
    <speed>0.79999995</speed>
  </trkpt>
  <trkpt lat="50.488864" lon="-4.038095">
    <ele>173</ele>
    <time>2026-09-24T18:43:37Z</time>
    <speed>0.59</speed>
  </trkpt>
  <trkpt lat="50.488907" lon="-4.037917">
    <ele>176</ele>
    <time>2026-09-24T18:43:48Z</time>
    <speed>0.81</speed>
  </trkpt>
  <trkpt lat="50.488982" lon="-4.037746">
    <ele>176</ele>
    <time>2026-09-24T18:43:59Z</time>
    <speed>0.98999995</speed>
  </trkpt>
  <trkpt lat="50.488998" lon="-4.037607">
    <ele>173</ele>
    <time>2026-09-24T18:44:10Z</time>
    <speed>0.32</speed>
  </trkpt>
  <trkpt lat="50.489035" lon="-4.037473">
    <ele>171</ele>
    <time>2026-09-24T18:44:36Z</time>
    <speed>1.24</speed>
  </trkpt>
  <trkpt lat="50.489102" lon="-4.037284">
    <ele>169</ele>
    <time>2026-09-24T18:44:47Z</time>
    <speed>1.1899999</speed>
  </trkpt>
  <trkpt lat="50.489138" lon="-4.037074">
    <ele>169</ele>
    <time>2026-09-24T18:44:58Z</time>
    <speed>1.4399999</speed>
  </trkpt>
  <trkpt lat="50.489168" lon="-4.036885">
    <ele>173</ele>
    <time>2026-09-24T18:45:09Z</time>
    <speed>1.17</speed>
  </trkpt>
  <trkpt lat="50.489243" lon="-4.036721">
    <ele>170</ele>
    <time>2026-09-24T18:45:20Z</time>
    <speed>1.48</speed>
  </trkpt>
  <trkpt lat="50.489301" lon="-4.036542">
    <ele>167</ele>
    <time>2026-09-24T18:45:31Z</time>
    <speed>1.4499999</speed>
  </trkpt>
  <trkpt lat="50.489366" lon="-4.036334">
    <ele>171</ele>
    <time>2026-09-24T18:45:42Z</time>
    <speed>1.25</speed>
  </trkpt>
  <trkpt lat="50.489409" lon="-4.036171">
    <ele>168</ele>
    <time>2026-09-24T18:45:53Z</time>
    <speed>0.87</speed>
  </trkpt>
  <trkpt lat="50.489416" lon="-4.035953">
    <ele>160</ele>
    <time>2026-09-24T18:46:04Z</time>
    <speed>0.35</speed>
  </trkpt>
  <trkpt lat="50.489440" lon="-4.035726">
    <ele>170</ele>
    <time>2026-09-24T18:46:15Z</time>
    <speed>1.02</speed>
  </trkpt>
  <trkpt lat="50.489434" lon="-4.035532">
    <ele>168</ele>
    <time>2026-09-24T18:46:26Z</time>
    <speed>1.11</speed>
  </trkpt>
  <trkpt lat="50.489458" lon="-4.035370">
    <ele>167</ele>
    <time>2026-09-24T18:46:37Z</time>
    <speed>1.04</speed>
  </trkpt>
  <trkpt lat="50.489463" lon="-4.035165">
    <ele>173</ele>
    <time>2026-09-24T18:46:48Z</time>
    <speed>1.3299999</speed>
  </trkpt>
  <trkpt lat="50.489560" lon="-4.035008">
    <ele>165</ele>
    <time>2026-09-24T18:46:59Z</time>
    <speed>1.4</speed>
  </trkpt>
  <trkpt lat="50.489594" lon="-4.034834">
    <ele>161</ele>
    <time>2026-09-24T18:47:10Z</time>
    <speed>0.96999997</speed>
  </trkpt>
  <trkpt lat="50.489649" lon="-4.034676">
    <ele>162</ele>
    <time>2026-09-24T18:47:21Z</time>
    <speed>0.9</speed>
  </trkpt>
  <trkpt lat="50.489700" lon="-4.034507">
    <ele>163</ele>
    <time>2026-09-24T18:47:32Z</time>
    <speed>1.26</speed>
  </trkpt>
  <trkpt lat="50.489722" lon="-4.034358">
    <ele>161</ele>
    <time>2026-09-24T18:47:43Z</time>
    <speed>0.98999995</speed>
  </trkpt>
  <trkpt lat="50.489764" lon="-4.034204">
    <ele>161</ele>
    <time>2026-09-24T18:47:54Z</time>
    <speed>0.66999996</speed>
  </trkpt>
  <trkpt lat="50.489792" lon="-4.034054">
    <ele>161</ele>
    <time>2026-09-24T18:48:05Z</time>
    <speed>0.84</speed>
  </trkpt>
  <trkpt lat="50.489820" lon="-4.033918">
    <ele>159</ele>
    <time>2026-09-24T18:48:16Z</time>
    <speed>0.39999998</speed>
  </trkpt>
  <trkpt lat="50.489880" lon="-4.033809">
    <ele>160</ele>
    <time>2026-09-24T18:48:27Z</time>
    <speed>1.0799999</speed>
  </trkpt>
  <trkpt lat="50.489915" lon="-4.033640">
    <ele>155</ele>
    <time>2026-09-24T18:48:38Z</time>
    <speed>0.56</speed>
  </trkpt>
  <trkpt lat="50.489998" lon="-4.033558">
    <ele>154</ele>
    <time>2026-09-24T18:48:51Z</time>
    <speed>1.22</speed>
  </trkpt>
  <trkpt lat="50.490081" lon="-4.033481">
    <ele>154</ele>
    <time>2026-09-24T18:49:16Z</time>
    <speed>1.04</speed>
  </trkpt>
  <trkpt lat="50.490056" lon="-4.033285">
    <ele>153</ele>
    <time>2026-09-24T18:49:27Z</time>
    <speed>1.3199999</speed>
  </trkpt>
  <trkpt lat="50.490043" lon="-4.033104">
    <ele>154</ele>
    <time>2026-09-24T18:49:38Z</time>
    <speed>1.24</speed>
  </trkpt>
  <trkpt lat="50.490032" lon="-4.032963">
    <ele>154</ele>
    <time>2026-09-24T18:49:54Z</time>
    <speed>0.88</speed>
  </trkpt>
  <trkpt lat="50.490048" lon="-4.032823">
    <ele>155</ele>
    <time>2026-09-24T18:51:24Z</time>
    <speed>0.48999998</speed>
  </trkpt>
  <trkpt lat="50.490126" lon="-4.032731">
    <ele>145</ele>
    <time>2026-09-24T18:52:17Z</time>
    <speed>1.7099999</speed>
  </trkpt>
  <trkpt lat="50.490220" lon="-4.032753">
    <ele>152</ele>
    <time>2026-09-24T18:52:36Z</time>
    <speed>0.82</speed>
  </trkpt>
  <trkpt lat="50.490323" lon="-4.032680">
    <ele>151</ele>
    <time>2026-09-24T18:52:47Z</time>
    <speed>1.05</speed>
  </trkpt>
  <trkpt lat="50.490408" lon="-4.032583">
    <ele>151</ele>
    <time>2026-09-24T18:52:58Z</time>
    <speed>0.62</speed>
  </trkpt>
  <trkpt lat="50.490502" lon="-4.032454">
    <ele>149</ele>
    <time>2026-09-24T18:53:09Z</time>
    <speed>1.16</speed>
  </trkpt>
  <trkpt lat="50.490622" lon="-4.032309">
    <ele>149</ele>
    <time>2026-09-24T18:53:20Z</time>
    <speed>1.4</speed>
  </trkpt>
  <trkpt lat="50.490748" lon="-4.032211">
    <ele>148</ele>
    <time>2026-09-24T18:53:31Z</time>
    <speed>0.88</speed>
  </trkpt>
  <trkpt lat="50.490857" lon="-4.032124">
    <ele>152</ele>
    <time>2026-09-24T18:53:42Z</time>
    <speed>1.22</speed>
  </trkpt>
  <trkpt lat="50.490969" lon="-4.032145">
    <ele>153</ele>
    <time>2026-09-24T18:53:53Z</time>
    <speed>0.89</speed>
  </trkpt>
  <trkpt lat="50.491066" lon="-4.032261">
    <ele>150</ele>
    <time>2026-09-24T18:54:04Z</time>
    <speed>1.8399999</speed>
  </trkpt>
  <trkpt lat="50.491145" lon="-4.032420">
    <ele>152</ele>
    <time>2026-09-24T18:54:15Z</time>
    <speed>1.54</speed>
  </trkpt>
  <trkpt lat="50.491091" lon="-4.032301">
    <ele>152</ele>
    <time>2026-09-24T18:55:05Z</time>
    <speed>1.61</speed>
  </trkpt>
  <trkpt lat="50.491018" lon="-4.032151">
    <ele>151</ele>
    <time>2026-09-24T18:55:16Z</time>
    <speed>0.77</speed>
  </trkpt>
  <trkpt lat="50.490999" lon="-4.032008">
    <ele>155</ele>
    <time>2026-09-24T18:55:44Z</time>
    <speed>0.57</speed>
  </trkpt>
  <trkpt lat="50.491020" lon="-4.032146">
    <ele>151</ele>
    <time>2026-09-24T19:07:45Z</time>
    <speed>1.06</speed>
  </trkpt>
  <trkpt lat="50.491079" lon="-4.032265">
    <ele>152</ele>
    <time>2026-09-24T19:07:56Z</time>
    <speed>1.27</speed>
  </trkpt>
  <trkpt lat="50.491131" lon="-4.032415">
    <ele>145</ele>
    <time>2026-09-24T19:08:07Z</time>
    <speed>1.0699999</speed>
  </trkpt>
  <trkpt lat="50.491181" lon="-4.032576">
    <ele>155</ele>
    <time>2026-09-24T19:08:18Z</time>
    <speed>1.48</speed>
  </trkpt>
  <trkpt lat="50.491252" lon="-4.032696">
    <ele>147</ele>
    <time>2026-09-24T19:08:29Z</time>
    <speed>0.78999996</speed>
  </trkpt>
  <trkpt lat="50.491316" lon="-4.032924">
    <ele>148</ele>
    <time>2026-09-24T19:08:40Z</time>
    <speed>1.15</speed>
  </trkpt>
  <trkpt lat="50.491351" lon="-4.033091">
    <ele>150</ele>
    <time>2026-09-24T19:08:51Z</time>
    <speed>0.78999996</speed>
  </trkpt>
  <trkpt lat="50.491421" lon="-4.033247">
    <ele>150</ele>
    <time>2026-09-24T19:09:02Z</time>
    <speed>1.26</speed>
  </trkpt>
  <trkpt lat="50.491495" lon="-4.033403">
    <ele>143</ele>
    <time>2026-09-24T19:09:13Z</time>
    <speed>1.5</speed>
  </trkpt>
  <trkpt lat="50.491587" lon="-4.033510">
    <ele>153</ele>
    <time>2026-09-24T19:09:24Z</time>
    <speed>1.14</speed>
  </trkpt>
  <trkpt lat="50.491672" lon="-4.033640">
    <ele>153</ele>
    <time>2026-09-24T19:09:35Z</time>
    <speed>1.28</speed>
  </trkpt>
  <trkpt lat="50.491760" lon="-4.033784">
    <ele>148</ele>
    <time>2026-09-24T19:09:46Z</time>
    <speed>0.97999996</speed>
  </trkpt>
  <trkpt lat="50.491859" lon="-4.033847">
    <ele>153</ele>
    <time>2026-09-24T19:09:57Z</time>
    <speed>0.95</speed>
  </trkpt>
  <trkpt lat="50.491952" lon="-4.033808">
    <ele>149</ele>
    <time>2026-09-24T19:10:08Z</time>
    <speed>1.3</speed>
  </trkpt>
  <trkpt lat="50.492051" lon="-4.033740">
    <ele>154</ele>
    <time>2026-09-24T19:10:19Z</time>
    <speed>1.13</speed>
  </trkpt>
  <trkpt lat="50.492160" lon="-4.033694">
    <ele>151</ele>
    <time>2026-09-24T19:10:30Z</time>
    <speed>1.53</speed>
  </trkpt>
  <trkpt lat="50.492255" lon="-4.033647">
    <ele>151</ele>
    <time>2026-09-24T19:10:42Z</time>
    <speed>1.43</speed>
  </trkpt>
  <trkpt lat="50.492374" lon="-4.033578">
    <ele>157</ele>
    <time>2026-09-24T19:10:53Z</time>
    <speed>0.98999995</speed>
  </trkpt>
  <trkpt lat="50.492467" lon="-4.033520">
    <ele>157</ele>
    <time>2026-09-24T19:11:04Z</time>
    <speed>1.05</speed>
  </trkpt>
  <trkpt lat="50.492561" lon="-4.033466">
    <ele>152</ele>
    <time>2026-09-24T19:11:15Z</time>
    <speed>0.76</speed>
  </trkpt>
  <trkpt lat="50.492648" lon="-4.033414">
    <ele>158</ele>
    <time>2026-09-24T19:11:27Z</time>
    <speed>1.1899999</speed>
  </trkpt>
  <trkpt lat="50.492723" lon="-4.033335">
    <ele>155</ele>
    <time>2026-09-24T19:11:38Z</time>
    <speed>0.78</speed>
  </trkpt>
  <trkpt lat="50.492842" lon="-4.033238">
    <ele>160</ele>
    <time>2026-09-24T19:11:49Z</time>
    <speed>1.11</speed>
  </trkpt>
  <trkpt lat="50.492935" lon="-4.033155">
    <ele>161</ele>
    <time>2026-09-24T19:12:00Z</time>
    <speed>1.02</speed>
  </trkpt>
  <trkpt lat="50.493055" lon="-4.033043">
    <ele>162</ele>
    <time>2026-09-24T19:12:11Z</time>
    <speed>0.71999997</speed>
  </trkpt>
  <trkpt lat="50.493138" lon="-4.032962">
    <ele>162</ele>
    <time>2026-09-24T19:12:23Z</time>
    <speed>1.0799999</speed>
  </trkpt>
  <trkpt lat="50.493241" lon="-4.032841">
    <ele>158</ele>
    <time>2026-09-24T19:12:34Z</time>
    <speed>1.3</speed>
  </trkpt>
  <trkpt lat="50.493360" lon="-4.032786">
    <ele>163</ele>
    <time>2026-09-24T19:12:45Z</time>
    <speed>0.91999996</speed>
  </trkpt>
  <trkpt lat="50.493495" lon="-4.032779">
    <ele>165</ele>
    <time>2026-09-24T19:12:56Z</time>
    <speed>0.98999995</speed>
  </trkpt>
  <trkpt lat="50.493628" lon="-4.032806">
    <ele>164</ele>
    <time>2026-09-24T19:13:07Z</time>
    <speed>1.23</speed>
  </trkpt>
  <trkpt lat="50.493742" lon="-4.032885">
    <ele>164</ele>
    <time>2026-09-24T19:13:18Z</time>
    <speed>1.26</speed>
  </trkpt>
  <trkpt lat="50.493829" lon="-4.032988">
    <ele>163</ele>
    <time>2026-09-24T19:13:29Z</time>
    <speed>1.27</speed>
  </trkpt>
  <trkpt lat="50.493918" lon="-4.033120">
    <ele>164</ele>
    <time>2026-09-24T19:13:40Z</time>
    <speed>1.01</speed>
  </trkpt>
  <trkpt lat="50.493950" lon="-4.033263">
    <ele>163</ele>
    <time>2026-09-24T19:13:51Z</time>
    <speed>1.05</speed>
  </trkpt>
  <trkpt lat="50.494012" lon="-4.033428">
    <ele>163</ele>
    <time>2026-09-24T19:14:02Z</time>
    <speed>1.0699999</speed>
  </trkpt>
  <trkpt lat="50.494089" lon="-4.033598">
    <ele>160</ele>
    <time>2026-09-24T19:14:13Z</time>
    <speed>1.26</speed>
  </trkpt>
  <trkpt lat="50.494162" lon="-4.033806">
    <ele>160</ele>
    <time>2026-09-24T19:14:24Z</time>
    <speed>1.38</speed>
  </trkpt>
  <trkpt lat="50.494227" lon="-4.033988">
    <ele>158</ele>
    <time>2026-09-24T19:14:35Z</time>
    <speed>1.5899999</speed>
  </trkpt>
  <trkpt lat="50.494297" lon="-4.034126">
    <ele>155</ele>
    <time>2026-09-24T19:14:46Z</time>
    <speed>1.24</speed>
  </trkpt>
  <trkpt lat="50.494379" lon="-4.034222">
    <ele>157</ele>
    <time>2026-09-24T19:14:57Z</time>
    <speed>0.90999997</speed>
  </trkpt>
  <trkpt lat="50.494488" lon="-4.034326">
    <ele>157</ele>
    <time>2026-09-24T19:15:08Z</time>
    <speed>0.93</speed>
  </trkpt>
  <trkpt lat="50.494594" lon="-4.034462">
    <ele>157</ele>
    <time>2026-09-24T19:15:19Z</time>
    <speed>1.0799999</speed>
  </trkpt>
  <trkpt lat="50.494686" lon="-4.034599">
    <ele>152</ele>
    <time>2026-09-24T19:15:30Z</time>
    <speed>1.39</speed>
  </trkpt>
  <trkpt lat="50.494643" lon="-4.034788">
    <ele>155</ele>
    <time>2026-09-24T19:15:41Z</time>
    <speed>1.12</speed>
  </trkpt>
  <trkpt lat="50.494551" lon="-4.034882">
    <ele>155</ele>
    <time>2026-09-24T19:15:52Z</time>
    <speed>1.4399999</speed>
  </trkpt>
  <trkpt lat="50.494446" lon="-4.034969">
    <ele>154</ele>
    <time>2026-09-24T19:16:03Z</time>
    <speed>1.04</speed>
  </trkpt>
  <trkpt lat="50.494330" lon="-4.035036">
    <ele>155</ele>
    <time>2026-09-24T19:16:14Z</time>
    <speed>0.97999996</speed>
  </trkpt>
  <trkpt lat="50.494238" lon="-4.035107">
    <ele>154</ele>
    <time>2026-09-24T19:16:25Z</time>
    <speed>0.98999995</speed>
  </trkpt>
  <trkpt lat="50.494163" lon="-4.035186">
    <ele>155</ele>
    <time>2026-09-24T19:16:38Z</time>
    <speed>1.0</speed>
  </trkpt>
  <trkpt lat="50.494051" lon="-4.035201">
    <ele>153</ele>
    <time>2026-09-24T19:16:49Z</time>
    <speed>0.13</speed>
  </trkpt>
  <trkpt lat="50.493905" lon="-4.035233">
    <ele>155</ele>
    <time>2026-09-24T19:17:00Z</time>
    <speed>0.5</speed>
  </trkpt>
  <trkpt lat="50.493790" lon="-4.035235">
    <ele>153</ele>
    <time>2026-09-24T19:17:11Z</time>
    <speed>0.47</speed>
  </trkpt>
  <trkpt lat="50.493653" lon="-4.035246">
    <ele>140</ele>
    <time>2026-09-24T19:17:22Z</time>
    <speed>0.44</speed>
  </trkpt>
  <trkpt lat="50.493503" lon="-4.035251">
    <ele>151</ele>
    <time>2026-09-24T19:17:33Z</time>
    <speed>0.81</speed>
  </trkpt>
  <trkpt lat="50.493392" lon="-4.035236">
    <ele>159</ele>
    <time>2026-09-24T19:17:44Z</time>
    <speed>0.94</speed>
  </trkpt>
  <trkpt lat="50.493242" lon="-4.035301">
    <ele>140</ele>
    <time>2026-09-24T19:17:55Z</time>
    <speed>1.3199999</speed>
  </trkpt>
  <trkpt lat="50.493143" lon="-4.035375">
    <ele>160</ele>
    <time>2026-09-24T19:18:06Z</time>
    <speed>1.27</speed>
  </trkpt>
  <trkpt lat="50.493121" lon="-4.035575">
    <ele>161</ele>
    <time>2026-09-24T19:18:17Z</time>
    <speed>1.5899999</speed>
  </trkpt>
  <trkpt lat="50.493135" lon="-4.035764">
    <ele>156</ele>
    <time>2026-09-24T19:18:28Z</time>
    <speed>1.2099999</speed>
  </trkpt>
  <trkpt lat="50.493185" lon="-4.035955">
    <ele>144</ele>
    <time>2026-09-24T19:18:39Z</time>
    <speed>1.75</speed>
  </trkpt>
  <trkpt lat="50.493195" lon="-4.036154">
    <ele>162</ele>
    <time>2026-09-24T19:18:50Z</time>
    <speed>1.22</speed>
  </trkpt>
  <trkpt lat="50.493203" lon="-4.036344">
    <ele>156</ele>
    <time>2026-09-24T19:19:01Z</time>
    <speed>1.02</speed>
  </trkpt>
  <trkpt lat="50.493215" lon="-4.036553">
    <ele>157</ele>
    <time>2026-09-24T19:19:12Z</time>
    <speed>1.5799999</speed>
  </trkpt>
  <trkpt lat="50.493256" lon="-4.036715">
    <ele>155</ele>
    <time>2026-09-24T19:19:23Z</time>
    <speed>1.29</speed>
  </trkpt>
  <trkpt lat="50.493285" lon="-4.036914">
    <ele>152</ele>
    <time>2026-09-24T19:19:34Z</time>
    <speed>1.5899999</speed>
  </trkpt>
  <trkpt lat="50.493305" lon="-4.037123">
    <ele>157</ele>
    <time>2026-09-24T19:19:45Z</time>
    <speed>1.5</speed>
  </trkpt>
  <trkpt lat="50.493352" lon="-4.037315">
    <ele>155</ele>
    <time>2026-09-24T19:19:56Z</time>
    <speed>0.81</speed>
  </trkpt>
  <trkpt lat="50.493444" lon="-4.037411">
    <ele>156</ele>
    <time>2026-09-24T19:20:07Z</time>
    <speed>1.09</speed>
  </trkpt>
  <trkpt lat="50.493540" lon="-4.037541">
    <ele>156</ele>
    <time>2026-09-24T19:20:18Z</time>
    <speed>1.09</speed>
  </trkpt>
  <trkpt lat="50.493623" lon="-4.037631">
    <ele>156</ele>
    <time>2026-09-24T19:20:29Z</time>
    <speed>0.96</speed>
  </trkpt>
  <trkpt lat="50.493685" lon="-4.037775">
    <ele>153</ele>
    <time>2026-09-24T19:20:40Z</time>
    <speed>1.3</speed>
  </trkpt>
  <trkpt lat="50.493779" lon="-4.037860">
    <ele>158</ele>
    <time>2026-09-24T19:20:51Z</time>
    <speed>0.81</speed>
  </trkpt>
  <trkpt lat="50.493838" lon="-4.038028">
    <ele>156</ele>
    <time>2026-09-24T19:21:02Z</time>
    <speed>1.04</speed>
  </trkpt>
  <trkpt lat="50.493923" lon="-4.038140">
    <ele>153</ele>
    <time>2026-09-24T19:21:13Z</time>
    <speed>1.28</speed>
  </trkpt>
  <trkpt lat="50.494004" lon="-4.038254">
    <ele>155</ele>
    <time>2026-09-24T19:21:24Z</time>
    <speed>0.87</speed>
  </trkpt>
  <trkpt lat="50.494072" lon="-4.038423">
    <ele>155</ele>
    <time>2026-09-24T19:21:35Z</time>
    <speed>1.14</speed>
  </trkpt>
  <trkpt lat="50.494146" lon="-4.038577">
    <ele>156</ele>
    <time>2026-09-24T19:21:46Z</time>
    <speed>0.64</speed>
  </trkpt>
  <trkpt lat="50.494194" lon="-4.038704">
    <ele>155</ele>
    <time>2026-09-24T19:21:57Z</time>
    <speed>1.29</speed>
  </trkpt>
  <trkpt lat="50.494302" lon="-4.038875">
    <ele>152</ele>
    <time>2026-09-24T19:22:08Z</time>
    <speed>0.89</speed>
  </trkpt>
  <trkpt lat="50.494357" lon="-4.039055">
    <ele>155</ele>
    <time>2026-09-24T19:22:19Z</time>
    <speed>0.61</speed>
  </trkpt>
  <trkpt lat="50.494450" lon="-4.039201">
    <ele>155</ele>
    <time>2026-09-24T19:22:30Z</time>
    <speed>0.72999996</speed>
  </trkpt>
  <trkpt lat="50.494511" lon="-4.039306">
    <ele>151</ele>
    <time>2026-09-24T19:22:41Z</time>
    <speed>1.01</speed>
  </trkpt>
  <trkpt lat="50.494588" lon="-4.039449">
    <ele>154</ele>
    <time>2026-09-24T19:22:52Z</time>
    <speed>0.97999996</speed>
  </trkpt>
  <trkpt lat="50.494634" lon="-4.039589">
    <ele>152</ele>
    <time>2026-09-24T19:23:04Z</time>
    <speed>1.39</speed>
  </trkpt>
  <trkpt lat="50.494677" lon="-4.039737">
    <ele>150</ele>
    <time>2026-09-24T19:23:15Z</time>
    <speed>1.13</speed>
  </trkpt>
  <trkpt lat="50.494754" lon="-4.039893">
    <ele>148</ele>
    <time>2026-09-24T19:23:26Z</time>
    <speed>0.72999996</speed>
  </trkpt>
  <trkpt lat="50.494831" lon="-4.040039">
    <ele>149</ele>
    <time>2026-09-24T19:23:37Z</time>
    <speed>0.53</speed>
  </trkpt>
  <trkpt lat="50.494900" lon="-4.040139">
    <ele>154</ele>
    <time>2026-09-24T19:23:59Z</time>
    <speed>0.79999995</speed>
  </trkpt>
  <trkpt lat="50.494952" lon="-4.040315">
    <ele>152</ele>
    <time>2026-09-24T19:24:10Z</time>
    <speed>0.57</speed>
  </trkpt>
  <trkpt lat="50.494991" lon="-4.040501">
    <ele>153</ele>
    <time>2026-09-24T19:24:21Z</time>
    <speed>0.83</speed>
  </trkpt>
  <trkpt lat="50.495016" lon="-4.040649">
    <ele>154</ele>
    <time>2026-09-24T19:24:32Z</time>
    <speed>1.17</speed>
  </trkpt>
  <trkpt lat="50.495084" lon="-4.040852">
    <ele>153</ele>
    <time>2026-09-24T19:24:43Z</time>
    <speed>1.11</speed>
  </trkpt>
  <trkpt lat="50.495103" lon="-4.041025">
    <ele>153</ele>
    <time>2026-09-24T19:24:54Z</time>
    <speed>1.0699999</speed>
  </trkpt>
  <trkpt lat="50.495099" lon="-4.041243">
    <ele>152</ele>
    <time>2026-09-24T19:25:05Z</time>
    <speed>1.14</speed>
  </trkpt>
  <trkpt lat="50.495086" lon="-4.041391">
    <ele>147</ele>
    <time>2026-09-24T19:25:16Z</time>
    <speed>0.82</speed>
  </trkpt>
  <trkpt lat="50.495030" lon="-4.041557">
    <ele>153</ele>
    <time>2026-09-24T19:25:27Z</time>
    <speed>1.11</speed>
  </trkpt>
  <trkpt lat="50.495001" lon="-4.041697">
    <ele>153</ele>
    <time>2026-09-24T19:25:38Z</time>
    <speed>0.099999994</speed>
  </trkpt>
  <trkpt lat="50.494914" lon="-4.041662">
    <ele>154</ele>
    <time>2026-09-24T19:25:50Z</time>
    <speed>0.29999998</speed>
  </trkpt>
  <trkpt lat="50.494821" lon="-4.041631">
    <ele>158</ele>
    <time>2026-09-24T19:26:07Z</time>
    <speed>0.77</speed>
  </trkpt>
  <trkpt lat="50.494745" lon="-4.041715">
    <ele>157</ele>
    <time>2026-09-24T19:26:18Z</time>
    <speed>1.43</speed>
  </trkpt>
  <trkpt lat="50.494677" lon="-4.041852">
    <ele>158</ele>
    <time>2026-09-24T19:26:29Z</time>
    <speed>1.04</speed>
  </trkpt>
  <trkpt lat="50.494614" lon="-4.042012">
    <ele>157</ele>
    <time>2026-09-24T19:26:40Z</time>
    <speed>1.1</speed>
  </trkpt>
  <trkpt lat="50.494535" lon="-4.042151">
    <ele>157</ele>
    <time>2026-09-24T19:26:51Z</time>
    <speed>1.06</speed>
  </trkpt>
  <trkpt lat="50.494428" lon="-4.042296">
    <ele>157</ele>
    <time>2026-09-24T19:27:02Z</time>
    <speed>0.88</speed>
  </trkpt>
  <trkpt lat="50.494346" lon="-4.042431">
    <ele>157</ele>
    <time>2026-09-24T19:27:13Z</time>
    <speed>0.94</speed>
  </trkpt>
  <trkpt lat="50.494258" lon="-4.042493">
    <ele>150</ele>
    <time>2026-09-24T19:27:24Z</time>
    <speed>0.93</speed>
  </trkpt>
  <trkpt lat="50.494150" lon="-4.042640">
    <ele>154</ele>
    <time>2026-09-24T19:27:35Z</time>
    <speed>1.05</speed>
  </trkpt>
  <trkpt lat="50.494007" lon="-4.042797">
    <ele>154</ele>
    <time>2026-09-24T19:27:46Z</time>
    <speed>1.12</speed>
  </trkpt>
  <trkpt lat="50.493986" lon="-4.043006">
    <ele>154</ele>
    <time>2026-09-24T19:27:57Z</time>
    <speed>0.98999995</speed>
  </trkpt>
  <trkpt lat="50.494007" lon="-4.043246">
    <ele>150</ele>
    <time>2026-09-24T19:28:08Z</time>
    <speed>1.31</speed>
  </trkpt>
  <trkpt lat="50.494032" lon="-4.043436">
    <ele>153</ele>
    <time>2026-09-24T19:28:19Z</time>
    <speed>1.3299999</speed>
  </trkpt>
  <trkpt lat="50.494049" lon="-4.043625">
    <ele>155</ele>
    <time>2026-09-24T19:28:30Z</time>
    <speed>1.38</speed>
  </trkpt>
  <trkpt lat="50.494056" lon="-4.043841">
    <ele>156</ele>
    <time>2026-09-24T19:28:41Z</time>
    <speed>1.3</speed>
  </trkpt>
  <trkpt lat="50.494062" lon="-4.044057">
    <ele>149</ele>
    <time>2026-09-24T19:28:52Z</time>
    <speed>1.3</speed>
  </trkpt>
  <trkpt lat="50.494064" lon="-4.044257">
    <ele>154</ele>
    <time>2026-09-24T19:29:03Z</time>
    <speed>1.13</speed>
  </trkpt>
  <trkpt lat="50.494075" lon="-4.044464">
    <ele>147</ele>
    <time>2026-09-24T19:29:14Z</time>
    <speed>1.38</speed>
  </trkpt>
  <trkpt lat="50.494179" lon="-4.044575">
    <ele>154</ele>
    <time>2026-09-24T19:29:25Z</time>
    <speed>1.3299999</speed>
  </trkpt>
  <trkpt lat="50.494307" lon="-4.044572">
    <ele>156</ele>
    <time>2026-09-24T19:29:36Z</time>
    <speed>1.01</speed>
  </trkpt>
  <trkpt lat="50.494428" lon="-4.044593">
    <ele>155</ele>
    <time>2026-09-24T19:29:47Z</time>
    <speed>1.0699999</speed>
  </trkpt>
  <trkpt lat="50.494559" lon="-4.044575">
    <ele>148</ele>
    <time>2026-09-24T19:29:58Z</time>
    <speed>0.93</speed>
  </trkpt>
  <trkpt lat="50.494681" lon="-4.044569">
    <ele>155</ele>
    <time>2026-09-24T19:30:09Z</time>
    <speed>1.1</speed>
  </trkpt>
  <trkpt lat="50.494798" lon="-4.044550">
    <ele>155</ele>
    <time>2026-09-24T19:30:20Z</time>
    <speed>1.48</speed>
  </trkpt>
  <trkpt lat="50.494911" lon="-4.044534">
    <ele>151</ele>
    <time>2026-09-24T19:30:31Z</time>
    <speed>0.88</speed>
  </trkpt>
  <trkpt lat="50.495032" lon="-4.044528">
    <ele>155</ele>
    <time>2026-09-24T19:30:42Z</time>
    <speed>0.93</speed>
  </trkpt>
  <trkpt lat="50.495129" lon="-4.044546">
    <ele>154</ele>
    <time>2026-09-24T19:30:53Z</time>
    <speed>0.59999996</speed>
  </trkpt>
  <trkpt lat="50.495260" lon="-4.044524">
    <ele>157</ele>
    <time>2026-09-24T19:31:04Z</time>
    <speed>0.88</speed>
  </trkpt>
  <trkpt lat="50.495363" lon="-4.044500">
    <ele>156</ele>
    <time>2026-09-24T19:31:23Z</time>
    <speed>0.64</speed>
  </trkpt>
  <trkpt lat="50.495474" lon="-4.044494">
    <ele>156</ele>
    <time>2026-09-24T19:31:34Z</time>
    <speed>0.65999997</speed>
  </trkpt>
  <trkpt lat="50.495590" lon="-4.044517">
    <ele>154</ele>
    <time>2026-09-24T19:31:45Z</time>
    <speed>1.11</speed>
  </trkpt>
  <trkpt lat="50.495709" lon="-4.044540">
    <ele>155</ele>
    <time>2026-09-24T19:31:56Z</time>
    <speed>0.37</speed>
  </trkpt>
  <trkpt lat="50.495855" lon="-4.044542">
    <ele>155</ele>
    <time>2026-09-24T19:32:07Z</time>
    <speed>1.3</speed>
  </trkpt>
  <trkpt lat="50.495968" lon="-4.044564">
    <ele>155</ele>
    <time>2026-09-24T19:32:18Z</time>
    <speed>1.3299999</speed>
  </trkpt>
  <trkpt lat="50.496122" lon="-4.044569">
    <ele>155</ele>
    <time>2026-09-24T19:32:29Z</time>
    <speed>1.2099999</speed>
  </trkpt>
  <trkpt lat="50.496255" lon="-4.044601">
    <ele>149</ele>
    <time>2026-09-24T19:32:40Z</time>
    <speed>1.73</speed>
  </trkpt>
  <trkpt lat="50.496174" lon="-4.044676">
    <ele>153</ele>
    <time>2026-09-24T19:33:07Z</time>
    <speed>1.3399999</speed>
  </trkpt>
  <trkpt lat="50.496077" lon="-4.044685">
    <ele>157</ele>
    <time>2026-09-24T19:33:18Z</time>
    <speed>1.14</speed>
  </trkpt>
  <trkpt lat="50.495970" lon="-4.044663">
    <ele>159</ele>
    <time>2026-09-24T19:33:29Z</time>
    <speed>1.01</speed>
  </trkpt>
  <trkpt lat="50.495870" lon="-4.044695">
    <ele>159</ele>
    <time>2026-09-24T19:33:40Z</time>
    <speed>1.3299999</speed>
  </trkpt>
  <trkpt lat="50.495760" lon="-4.044742">
    <ele>161</ele>
    <time>2026-09-24T19:33:51Z</time>
    <speed>0.84</speed>
  </trkpt>
  <trkpt lat="50.495638" lon="-4.044822">
    <ele>164</ele>
    <time>2026-09-24T19:34:02Z</time>
    <speed>1.17</speed>
  </trkpt>
  <trkpt lat="50.495501" lon="-4.044865">
    <ele>164</ele>
    <time>2026-09-24T19:34:13Z</time>
    <speed>0.56</speed>
  </trkpt>
  <trkpt lat="50.495407" lon="-4.044918">
    <ele>165</ele>
    <time>2026-09-24T19:34:25Z</time>
    <speed>0.78999996</speed>
  </trkpt>
  <trkpt lat="50.495304" lon="-4.044972">
    <ele>165</ele>
    <time>2026-09-24T19:34:36Z</time>
    <speed>1.61</speed>
  </trkpt>
  <trkpt lat="50.495202" lon="-4.045071">
    <ele>168</ele>
    <time>2026-09-24T19:34:47Z</time>
    <speed>1.15</speed>
  </trkpt>
  <trkpt lat="50.495074" lon="-4.045128">
    <ele>167</ele>
    <time>2026-09-24T19:34:58Z</time>
    <speed>1.12</speed>
  </trkpt>
  <trkpt lat="50.494978" lon="-4.045187">
    <ele>165</ele>
    <time>2026-09-24T19:35:09Z</time>
    <speed>0.96999997</speed>
  </trkpt>
  <trkpt lat="50.494890" lon="-4.045256">
    <ele>170</ele>
    <time>2026-09-24T19:35:20Z</time>
    <speed>1.02</speed>
  </trkpt>
  <trkpt lat="50.494777" lon="-4.045297">
    <ele>170</ele>
    <time>2026-09-24T19:35:31Z</time>
    <speed>1.18</speed>
  </trkpt>
  <trkpt lat="50.494683" lon="-4.045370">
    <ele>163</ele>
    <time>2026-09-24T19:35:42Z</time>
    <speed>1.31</speed>
  </trkpt>
  <trkpt lat="50.494562" lon="-4.045389">
    <ele>170</ele>
    <time>2026-09-24T19:35:53Z</time>
    <speed>0.78999996</speed>
  </trkpt>
  <trkpt lat="50.494466" lon="-4.045443">
    <ele>165</ele>
    <time>2026-09-24T19:36:04Z</time>
    <speed>0.91999996</speed>
  </trkpt>
  <trkpt lat="50.494375" lon="-4.045517">
    <ele>172</ele>
    <time>2026-09-24T19:36:15Z</time>
    <speed>0.48999998</speed>
  </trkpt>
  <trkpt lat="50.494271" lon="-4.045559">
    <ele>174</ele>
    <time>2026-09-24T19:36:26Z</time>
    <speed>0.42999998</speed>
  </trkpt>
  <trkpt lat="50.494180" lon="-4.045623">
    <ele>174</ele>
    <time>2026-09-24T19:36:38Z</time>
    <speed>1.01</speed>
  </trkpt>
  <trkpt lat="50.494049" lon="-4.045659">
    <ele>174</ele>
    <time>2026-09-24T19:36:49Z</time>
    <speed>1.26</speed>
  </trkpt>
  <trkpt lat="50.493917" lon="-4.045621">
    <ele>176</ele>
    <time>2026-09-24T19:37:00Z</time>
    <speed>0.96</speed>
  </trkpt>
  <trkpt lat="50.493803" lon="-4.045612">
    <ele>176</ele>
    <time>2026-09-24T19:37:11Z</time>
    <speed>1.3299999</speed>
  </trkpt>
  <trkpt lat="50.493684" lon="-4.045618">
    <ele>176</ele>
    <time>2026-09-24T19:37:22Z</time>
    <speed>1.13</speed>
  </trkpt>
  <trkpt lat="50.493587" lon="-4.045686">
    <ele>177</ele>
    <time>2026-09-24T19:37:33Z</time>
    <speed>1.0</speed>
  </trkpt>
  <trkpt lat="50.493464" lon="-4.045708">
    <ele>179</ele>
    <time>2026-09-24T19:37:44Z</time>
    <speed>1.0799999</speed>
  </trkpt>
  <trkpt lat="50.493313" lon="-4.045712">
    <ele>174</ele>
    <time>2026-09-24T19:37:55Z</time>
    <speed>0.55</speed>
  </trkpt>
  <trkpt lat="50.493311" lon="-4.045857">
    <ele>181</ele>
    <time>2026-09-24T19:38:49Z</time>
    <speed>0.31</speed>
  </trkpt>
  <trkpt lat="50.493405" lon="-4.045867">
    <ele>182</ele>
    <time>2026-09-24T19:39:55Z</time>
    <speed>0.45999998</speed>
  </trkpt>
  <trkpt lat="50.493521" lon="-4.045870">
    <ele>179</ele>
    <time>2026-09-24T19:40:06Z</time>
    <speed>1.24</speed>
  </trkpt>
  <trkpt lat="50.493643" lon="-4.045881">
    <ele>181</ele>
    <time>2026-09-24T19:40:17Z</time>
    <speed>1.4699999</speed>
  </trkpt>
  <trkpt lat="50.493767" lon="-4.045907">
    <ele>183</ele>
    <time>2026-09-24T19:40:28Z</time>
    <speed>1.12</speed>
  </trkpt>
  <trkpt lat="50.493872" lon="-4.045922">
    <ele>183</ele>
    <time>2026-09-24T19:40:39Z</time>
    <speed>1.3</speed>
  </trkpt>
  <trkpt lat="50.493998" lon="-4.045919">
    <ele>183</ele>
    <time>2026-09-24T19:40:50Z</time>
    <speed>1.27</speed>
  </trkpt>
  <trkpt lat="50.494120" lon="-4.045914">
    <ele>183</ele>
    <time>2026-09-24T19:41:01Z</time>
    <speed>1.36</speed>
  </trkpt>
  <trkpt lat="50.494250" lon="-4.045930">
    <ele>185</ele>
    <time>2026-09-24T19:41:12Z</time>
    <speed>1.12</speed>
  </trkpt>
  <trkpt lat="50.494381" lon="-4.045942">
    <ele>184</ele>
    <time>2026-09-24T19:41:23Z</time>
    <speed>1.1899999</speed>
  </trkpt>
  <trkpt lat="50.494481" lon="-4.045933">
    <ele>184</ele>
    <time>2026-09-24T19:41:34Z</time>
    <speed>1.29</speed>
  </trkpt>
  <trkpt lat="50.494605" lon="-4.045935">
    <ele>182</ele>
    <time>2026-09-24T19:41:45Z</time>
    <speed>1.3299999</speed>
  </trkpt>
  <trkpt lat="50.494717" lon="-4.045923">
    <ele>184</ele>
    <time>2026-09-24T19:41:56Z</time>
    <speed>0.97999996</speed>
  </trkpt>
  <trkpt lat="50.494830" lon="-4.045886">
    <ele>185</ele>
    <time>2026-09-24T19:42:07Z</time>
    <speed>0.76</speed>
  </trkpt>
  <trkpt lat="50.494957" lon="-4.045876">
    <ele>187</ele>
    <time>2026-09-24T19:42:18Z</time>
    <speed>0.9</speed>
  </trkpt>
  <trkpt lat="50.495073" lon="-4.045879">
    <ele>187</ele>
    <time>2026-09-24T19:42:29Z</time>
    <speed>0.93</speed>
  </trkpt>
  <trkpt lat="50.495189" lon="-4.045866">
    <ele>188</ele>
    <time>2026-09-24T19:42:40Z</time>
    <speed>0.66999996</speed>
  </trkpt>
  <trkpt lat="50.495281" lon="-4.045857">
    <ele>186</ele>
    <time>2026-09-24T19:42:51Z</time>
    <speed>0.65</speed>
  </trkpt>
  <trkpt lat="50.495398" lon="-4.045835">
    <ele>187</ele>
    <time>2026-09-24T19:43:02Z</time>
    <speed>0.96</speed>
  </trkpt>
  <trkpt lat="50.495534" lon="-4.045814">
    <ele>187</ele>
    <time>2026-09-24T19:43:13Z</time>
    <speed>1.22</speed>
  </trkpt>
  <trkpt lat="50.495665" lon="-4.045820">
    <ele>187</ele>
    <time>2026-09-24T19:43:24Z</time>
    <speed>1.2099999</speed>
  </trkpt>
  <trkpt lat="50.495794" lon="-4.045824">
    <ele>184</ele>
    <time>2026-09-24T19:43:35Z</time>
    <speed>1.27</speed>
  </trkpt>
  <trkpt lat="50.495919" lon="-4.045844">
    <ele>185</ele>
    <time>2026-09-24T19:43:46Z</time>
    <speed>1.4699999</speed>
  </trkpt>
  <trkpt lat="50.496056" lon="-4.045831">
    <ele>190</ele>
    <time>2026-09-24T19:43:57Z</time>
    <speed>1.27</speed>
  </trkpt>
  <trkpt lat="50.496188" lon="-4.045847">
    <ele>187</ele>
    <time>2026-09-24T19:44:08Z</time>
    <speed>1.23</speed>
  </trkpt>
  <trkpt lat="50.496312" lon="-4.045879">
    <ele>190</ele>
    <time>2026-09-24T19:44:19Z</time>
    <speed>1.27</speed>
  </trkpt>
  <trkpt lat="50.496408" lon="-4.045926">
    <ele>193</ele>
    <time>2026-09-24T19:44:30Z</time>
    <speed>0.96999997</speed>
  </trkpt>
  <trkpt lat="50.496525" lon="-4.045974">
    <ele>191</ele>
    <time>2026-09-24T19:44:41Z</time>
    <speed>0.57</speed>
  </trkpt>
  <trkpt lat="50.496428" lon="-4.045988">
    <ele>190</ele>
    <time>2026-09-24T19:45:19Z</time>
    <speed>1.38</speed>
  </trkpt>
  <trkpt lat="50.496342" lon="-4.045945">
    <ele>178</ele>
    <time>2026-09-24T19:45:32Z</time>
    <speed>0.65999997</speed>
  </trkpt>
  <trkpt lat="50.496364" lon="-4.046091">
    <ele>196</ele>
    <time>2026-09-24T19:45:59Z</time>
    <speed>0.42</speed>
  </trkpt>
  <trkpt lat="50.496436" lon="-4.046178">
    <ele>190</ele>
    <time>2026-09-24T19:46:10Z</time>
    <speed>0.82</speed>
  </trkpt>
  <trkpt lat="50.496470" lon="-4.046312">
    <ele>202</ele>
    <time>2026-09-24T19:46:23Z</time>
    <speed>0.98999995</speed>
  </trkpt>
  <trkpt lat="50.496519" lon="-4.046452">
    <ele>199</ele>
    <time>2026-09-24T19:46:34Z</time>
    <speed>1.13</speed>
  </trkpt>
  <trkpt lat="50.496596" lon="-4.046541">
    <ele>205</ele>
    <time>2026-09-24T19:46:45Z</time>
    <speed>1.0799999</speed>
  </trkpt>
  <trkpt lat="50.496648" lon="-4.046666">
    <ele>196</ele>
    <time>2026-09-24T19:46:56Z</time>
    <speed>1.12</speed>
  </trkpt>
  <trkpt lat="50.496690" lon="-4.046803">
    <ele>201</ele>
    <time>2026-09-24T19:47:07Z</time>
    <speed>0.95</speed>
  </trkpt>
  <trkpt lat="50.496751" lon="-4.046912">
    <ele>205</ele>
    <time>2026-09-24T19:47:19Z</time>
    <speed>1.2099999</speed>
  </trkpt>
  <trkpt lat="50.496818" lon="-4.047029">
    <ele>214</ele>
    <time>2026-09-24T19:47:30Z</time>
    <speed>1.12</speed>
  </trkpt>
  <trkpt lat="50.496874" lon="-4.047152">
    <ele>214</ele>
    <time>2026-09-24T19:47:41Z</time>
    <speed>0.16</speed>
  </trkpt>
  <trkpt lat="50.496848" lon="-4.047307">
    <ele>211</ele>
    <time>2026-09-24T19:48:16Z</time>
    <speed>1.0799999</speed>
  </trkpt>
  <trkpt lat="50.496913" lon="-4.047409">
    <ele>216</ele>
    <time>2026-09-24T19:48:28Z</time>
    <speed>1.04</speed>
  </trkpt>
  <trkpt lat="50.497025" lon="-4.047426">
    <ele>218</ele>
    <time>2026-09-24T19:48:39Z</time>
    <speed>1.17</speed>
  </trkpt>
  <trkpt lat="50.497154" lon="-4.047441">
    <ele>217</ele>
    <time>2026-09-24T19:48:50Z</time>
    <speed>1.7199999</speed>
  </trkpt>
  <trkpt lat="50.497280" lon="-4.047435">
    <ele>213</ele>
    <time>2026-09-24T19:49:01Z</time>
    <speed>1.22</speed>
  </trkpt>
  <trkpt lat="50.497411" lon="-4.047376">
    <ele>220</ele>
    <time>2026-09-24T19:49:12Z</time>
    <speed>0.58</speed>
  </trkpt>
  <trkpt lat="50.497568" lon="-4.047325">
    <ele>231</ele>
    <time>2026-09-24T19:49:23Z</time>
    <speed>1.67</speed>
  </trkpt>
  <trkpt lat="50.497693" lon="-4.047260">
    <ele>220</ele>
    <time>2026-09-24T19:49:34Z</time>
    <speed>1.62</speed>
  </trkpt>
  <trkpt lat="50.497814" lon="-4.047220">
    <ele>216</ele>
    <time>2026-09-24T19:49:45Z</time>
    <speed>1.15</speed>
  </trkpt>
  <trkpt lat="50.497951" lon="-4.047299">
    <ele>223</ele>
    <time>2026-09-24T19:49:56Z</time>
    <speed>1.35</speed>
  </trkpt>
  <trkpt lat="50.498066" lon="-4.047278">
    <ele>223</ele>
    <time>2026-09-24T19:50:07Z</time>
    <speed>1.61</speed>
  </trkpt>
  <trkpt lat="50.498169" lon="-4.047255">
    <ele>222</ele>
    <time>2026-09-24T19:50:18Z</time>
    <speed>0.68</speed>
  </trkpt>
  <trkpt lat="50.498293" lon="-4.047188">
    <ele>214</ele>
    <time>2026-09-24T19:50:29Z</time>
    <speed>1.4599999</speed>
  </trkpt>
  <trkpt lat="50.498443" lon="-4.047118">
    <ele>228</ele>
    <time>2026-09-24T19:50:40Z</time>
    <speed>1.5</speed>
  </trkpt>
  <trkpt lat="50.498583" lon="-4.047099">
    <ele>226</ele>
    <time>2026-09-24T19:50:51Z</time>
    <speed>1.74</speed>
  </trkpt>
  <trkpt lat="50.498703" lon="-4.047042">
    <ele>225</ele>
    <time>2026-09-24T19:51:02Z</time>
    <speed>1.0699999</speed>
  </trkpt>
  <trkpt lat="50.498864" lon="-4.046989">
    <ele>227</ele>
    <time>2026-09-24T19:51:13Z</time>
    <speed>1.3</speed>
  </trkpt>
  <trkpt lat="50.498996" lon="-4.046948">
    <ele>226</ele>
    <time>2026-09-24T19:51:24Z</time>
    <speed>1.7199999</speed>
  </trkpt>
  <trkpt lat="50.499136" lon="-4.046942">
    <ele>224</ele>
    <time>2026-09-24T19:51:35Z</time>
    <speed>1.52</speed>
  </trkpt>
  <trkpt lat="50.499278" lon="-4.046928">
    <ele>221</ele>
    <time>2026-09-24T19:51:46Z</time>
    <speed>1.76</speed>
  </trkpt>
  <trkpt lat="50.499417" lon="-4.046901">
    <ele>230</ele>
    <time>2026-09-24T19:51:57Z</time>
    <speed>1.54</speed>
  </trkpt>
  <trkpt lat="50.499551" lon="-4.046922">
    <ele>230</ele>
    <time>2026-09-24T19:52:08Z</time>
    <speed>1.26</speed>
  </trkpt>
  <trkpt lat="50.499668" lon="-4.046986">
    <ele>230</ele>
    <time>2026-09-24T19:52:19Z</time>
    <speed>0.91999996</speed>
  </trkpt>
  <trkpt lat="50.499768" lon="-4.047132">
    <ele>232</ele>
    <time>2026-09-24T19:52:30Z</time>
    <speed>1.49</speed>
  </trkpt>
  <trkpt lat="50.499865" lon="-4.047289">
    <ele>232</ele>
    <time>2026-09-24T19:52:41Z</time>
    <speed>1.3299999</speed>
  </trkpt>
  <trkpt lat="50.499983" lon="-4.047452">
    <ele>233</ele>
    <time>2026-09-24T19:52:52Z</time>
    <speed>1.52</speed>
  </trkpt>
  <trkpt lat="50.500119" lon="-4.047394">
    <ele>228</ele>
    <time>2026-09-24T19:53:03Z</time>
    <speed>1.5899999</speed>
  </trkpt>
  <trkpt lat="50.500259" lon="-4.047441">
    <ele>233</ele>
    <time>2026-09-24T19:53:14Z</time>
    <speed>1.43</speed>
  </trkpt>
  <trkpt lat="50.500382" lon="-4.047515">
    <ele>229</ele>
    <time>2026-09-24T19:53:25Z</time>
    <speed>1.16</speed>
  </trkpt>
  <trkpt lat="50.500477" lon="-4.047672">
    <ele>225</ele>
    <time>2026-09-24T19:53:36Z</time>
    <speed>1.81</speed>
  </trkpt>
  <trkpt lat="50.500597" lon="-4.047674">
    <ele>229</ele>
    <time>2026-09-24T19:53:47Z</time>
    <speed>1.13</speed>
  </trkpt>
  <trkpt lat="50.500743" lon="-4.047733">
    <ele>219</ele>
    <time>2026-09-24T19:53:58Z</time>
    <speed>1.5699999</speed>
  </trkpt>
  <trkpt lat="50.500831" lon="-4.047914">
    <ele>228</ele>
    <time>2026-09-24T19:54:09Z</time>
    <speed>1.8399999</speed>
  </trkpt>
  <trkpt lat="50.500940" lon="-4.048118">
    <ele>228</ele>
    <time>2026-09-24T19:54:20Z</time>
    <speed>2.75</speed>
  </trkpt>
  <trkpt lat="50.501037" lon="-4.048258">
    <ele>229</ele>
    <time>2026-09-24T19:54:31Z</time>
    <speed>1.8299999</speed>
  </trkpt>
  <trkpt lat="50.501118" lon="-4.048449">
    <ele>225</ele>
    <time>2026-09-24T19:54:42Z</time>
    <speed>1.51</speed>
  </trkpt>
  <trkpt lat="50.501257" lon="-4.048607">
    <ele>228</ele>
    <time>2026-09-24T19:54:53Z</time>
    <speed>2.04</speed>
  </trkpt>
  <trkpt lat="50.501369" lon="-4.048756">
    <ele>227</ele>
    <time>2026-09-24T19:55:04Z</time>
    <speed>1.02</speed>
  </trkpt>
  <trkpt lat="50.501494" lon="-4.048906">
    <ele>228</ele>
    <time>2026-09-24T19:55:15Z</time>
    <speed>2.37</speed>
  </trkpt>
  <trkpt lat="50.501592" lon="-4.049070">
    <ele>230</ele>
    <time>2026-09-24T19:55:26Z</time>
    <speed>2.05</speed>
  </trkpt>
  <trkpt lat="50.501718" lon="-4.049215">
    <ele>222</ele>
    <time>2026-09-24T19:55:37Z</time>
    <speed>1.6899999</speed>
  </trkpt>
  <trkpt lat="50.501873" lon="-4.049307">
    <ele>228</ele>
    <time>2026-09-24T19:55:48Z</time>
    <speed>1.8499999</speed>
  </trkpt>
  <trkpt lat="50.501987" lon="-4.049412">
    <ele>230</ele>
    <time>2026-09-24T19:55:59Z</time>
    <speed>1.5</speed>
  </trkpt>
  <trkpt lat="50.502118" lon="-4.049497">
    <ele>225</ele>
    <time>2026-09-24T19:56:10Z</time>
    <speed>1.39</speed>
  </trkpt>
  <trkpt lat="50.502244" lon="-4.049598">
    <ele>229</ele>
    <time>2026-09-24T19:56:21Z</time>
    <speed>1.43</speed>
  </trkpt>
  <trkpt lat="50.502385" lon="-4.049674">
    <ele>226</ele>
    <time>2026-09-24T19:56:32Z</time>
    <speed>1.51</speed>
  </trkpt>
  <trkpt lat="50.502523" lon="-4.049726">
    <ele>229</ele>
    <time>2026-09-24T19:56:43Z</time>
    <speed>1.48</speed>
  </trkpt>
  <trkpt lat="50.502653" lon="-4.049846">
    <ele>229</ele>
    <time>2026-09-24T19:56:54Z</time>
    <speed>1.62</speed>
  </trkpt>
  <trkpt lat="50.502776" lon="-4.049977">
    <ele>228</ele>
    <time>2026-09-24T19:57:05Z</time>
    <speed>1.38</speed>
  </trkpt>
  <trkpt lat="50.502896" lon="-4.050048">
    <ele>227</ele>
    <time>2026-09-24T19:57:16Z</time>
    <speed>1.77</speed>
  </trkpt>
  <trkpt lat="50.503051" lon="-4.050020">
    <ele>230</ele>
    <time>2026-09-24T19:57:27Z</time>
    <speed>1.5799999</speed>
  </trkpt>
  <trkpt lat="50.503184" lon="-4.050002">
    <ele>223</ele>
    <time>2026-09-24T19:57:38Z</time>
    <speed>1.3399999</speed>
  </trkpt>
  <trkpt lat="50.503339" lon="-4.049939">
    <ele>234</ele>
    <time>2026-09-24T19:57:49Z</time>
    <speed>1.5799999</speed>
  </trkpt>
  <trkpt lat="50.503462" lon="-4.049991">
    <ele>227</ele>
    <time>2026-09-24T19:58:00Z</time>
    <speed>1.61</speed>
  </trkpt>
  <trkpt lat="50.503624" lon="-4.049935">
    <ele>234</ele>
    <time>2026-09-24T19:58:11Z</time>
    <speed>1.5999999</speed>
  </trkpt>
  <trkpt lat="50.503806" lon="-4.049923">
    <ele>225</ele>
    <time>2026-09-24T19:58:22Z</time>
    <speed>2.6299999</speed>
  </trkpt>
  <trkpt lat="50.503950" lon="-4.049860">
    <ele>231</ele>
    <time>2026-09-24T19:58:33Z</time>
    <speed>1.17</speed>
  </trkpt>
  <trkpt lat="50.504100" lon="-4.049803">
    <ele>220</ele>
    <time>2026-09-24T19:58:44Z</time>
    <speed>2.28</speed>
  </trkpt>
  <trkpt lat="50.504249" lon="-4.049830">
    <ele>227</ele>
    <time>2026-09-24T19:58:55Z</time>
    <speed>1.67</speed>
  </trkpt>
  <trkpt lat="50.504331" lon="-4.049766">
    <ele>230</ele>
    <time>2026-09-24T19:59:20Z</time>
    <speed>1.28</speed>
  </trkpt>
  <trkpt lat="50.504469" lon="-4.049722">
    <ele>223</ele>
    <time>2026-09-24T19:59:31Z</time>
    <speed>1.6899999</speed>
  </trkpt>
  <trkpt lat="50.504576" lon="-4.049612">
    <ele>226</ele>
    <time>2026-09-24T19:59:42Z</time>
    <speed>0.96999997</speed>
  </trkpt>
  <trkpt lat="50.504720" lon="-4.049588">
    <ele>225</ele>
    <time>2026-09-24T19:59:53Z</time>
    <speed>1.23</speed>
  </trkpt>
  <trkpt lat="50.504831" lon="-4.049583">
    <ele>224</ele>
    <time>2026-09-24T20:00:04Z</time>
    <speed>0.42</speed>
  </trkpt>
 </trkseg>
</trk>
</gpx>
