<?xml version="1.0" encoding="UTF-8" ?>
<gpx
 version="1.0"
 creator="Maverick - http://www.maverickgps.com"
 xmlns:xsi="http://www.w3.org/2001/XMLSchema-instance"
 xmlns="http://www.topografix.com/GPX/1/0"
 xsi:schemaLocation="http://www.topografix.com/GPX/1/0 http://www.topografix.com/GPX/1/0/gpx.xsd">
<time>2026-07-16T17:09:17Z</time>
<trk>
 <name>2026-07-16 @ 18-09-17</name>
 <trkseg>
  <trkpt lat="50.543261" lon="-3.842319">
    <ele>305</ele>
    <time>2026-07-16T17:09:17Z</time>
    <speed>1.35</speed>
  </trkpt>
  <trkpt lat="50.543202" lon="-3.842136">
    <ele>309</ele>
    <time>2026-07-16T17:09:28Z</time>
    <speed>1.31</speed>
  </trkpt>
  <trkpt lat="50.543169" lon="-3.841916">
    <ele>305</ele>
    <time>2026-07-16T17:09:39Z</time>
    <speed>1.4</speed>
  </trkpt>
  <trkpt lat="50.543127" lon="-3.841703">
    <ele>306</ele>
    <time>2026-07-16T17:09:50Z</time>
    <speed>1.89</speed>
  </trkpt>
  <trkpt lat="50.543058" lon="-3.841455">
    <ele>307</ele>
    <time>2026-07-16T17:10:01Z</time>
    <speed>1.99</speed>
  </trkpt>
  <trkpt lat="50.543027" lon="-3.841238">
    <ele>304</ele>
    <time>2026-07-16T17:10:12Z</time>
    <speed>1.74</speed>
  </trkpt>
  <trkpt lat="50.543031" lon="-3.841030">
    <ele>304</ele>
    <time>2026-07-16T17:10:23Z</time>
    <speed>1.9399999</speed>
  </trkpt>
  <trkpt lat="50.543022" lon="-3.840813">
    <ele>303</ele>
    <time>2026-07-16T17:10:34Z</time>
    <speed>1.4599999</speed>
  </trkpt>
  <trkpt lat="50.542998" lon="-3.840624">
    <ele>304</ele>
    <time>2026-07-16T17:10:45Z</time>
    <speed>1.22</speed>
  </trkpt>
  <trkpt lat="50.542975" lon="-3.840382">
    <ele>298</ele>
    <time>2026-07-16T17:10:56Z</time>
    <speed>1.5899999</speed>
  </trkpt>
  <trkpt lat="50.542927" lon="-3.840241">
    <ele>284</ele>
    <time>2026-07-16T17:11:07Z</time>
    <speed>1.01</speed>
  </trkpt>
  <trkpt lat="50.542885" lon="-3.840029">
    <ele>292</ele>
    <time>2026-07-16T17:11:18Z</time>
    <speed>1.02</speed>
  </trkpt>
  <trkpt lat="50.542841" lon="-3.839827">
    <ele>310</ele>
    <time>2026-07-16T17:11:29Z</time>
    <speed>2.12</speed>
  </trkpt>
  <trkpt lat="50.542802" lon="-3.839601">
    <ele>295</ele>
    <time>2026-07-16T17:11:40Z</time>
    <speed>1.25</speed>
  </trkpt>
  <trkpt lat="50.542754" lon="-3.839410">
    <ele>293</ele>
    <time>2026-07-16T17:11:51Z</time>
    <speed>1.4399999</speed>
  </trkpt>
  <trkpt lat="50.542703" lon="-3.839225">
    <ele>290</ele>
    <time>2026-07-16T17:12:02Z</time>
    <speed>1.0799999</speed>
  </trkpt>
  <trkpt lat="50.542669" lon="-3.839026">
    <ele>289</ele>
    <time>2026-07-16T17:12:13Z</time>
    <speed>0.78</speed>
  </trkpt>
  <trkpt lat="50.542690" lon="-3.838794">
    <ele>286</ele>
    <time>2026-07-16T17:12:24Z</time>
    <speed>0.82</speed>
  </trkpt>
  <trkpt lat="50.542702" lon="-3.838560">
    <ele>284</ele>
    <time>2026-07-16T17:12:35Z</time>
    <speed>1.54</speed>
  </trkpt>
  <trkpt lat="50.542743" lon="-3.838353">
    <ele>280</ele>
    <time>2026-07-16T17:12:46Z</time>
    <speed>1.17</speed>
  </trkpt>
  <trkpt lat="50.542769" lon="-3.838158">
    <ele>279</ele>
    <time>2026-07-16T17:12:57Z</time>
    <speed>1.5899999</speed>
  </trkpt>
  <trkpt lat="50.542798" lon="-3.837916">
    <ele>277</ele>
    <time>2026-07-16T17:13:08Z</time>
    <speed>1.3199999</speed>
  </trkpt>
  <trkpt lat="50.542803" lon="-3.837719">
    <ele>276</ele>
    <time>2026-07-16T17:13:19Z</time>
    <speed>1.42</speed>
  </trkpt>
  <trkpt lat="50.542817" lon="-3.837490">
    <ele>272</ele>
    <time>2026-07-16T17:13:30Z</time>
    <speed>1.23</speed>
  </trkpt>
  <trkpt lat="50.542827" lon="-3.837252">
    <ele>272</ele>
    <time>2026-07-16T17:13:41Z</time>
    <speed>1.49</speed>
  </trkpt>
  <trkpt lat="50.542838" lon="-3.837013">
    <ele>270</ele>
    <time>2026-07-16T17:13:52Z</time>
    <speed>0.93</speed>
  </trkpt>
  <trkpt lat="50.542845" lon="-3.836760">
    <ele>266</ele>
    <time>2026-07-16T17:14:03Z</time>
    <speed>1.26</speed>
  </trkpt>
  <trkpt lat="50.542870" lon="-3.836509">
    <ele>267</ele>
    <time>2026-07-16T17:14:14Z</time>
    <speed>1.26</speed>
  </trkpt>
  <trkpt lat="50.542929" lon="-3.836337">
    <ele>266</ele>
    <time>2026-07-16T17:14:25Z</time>
    <speed>1.02</speed>
  </trkpt>
  <trkpt lat="50.542982" lon="-3.836168">
    <ele>263</ele>
    <time>2026-07-16T17:14:36Z</time>
    <speed>1.05</speed>
  </trkpt>
  <trkpt lat="50.543034" lon="-3.836046">
    <ele>263</ele>
    <time>2026-07-16T17:14:52Z</time>
    <speed>1.41</speed>
  </trkpt>
  <trkpt lat="50.543128" lon="-3.836218">
    <ele>262</ele>
    <time>2026-07-16T17:15:03Z</time>
    <speed>1.25</speed>
  </trkpt>
  <trkpt lat="50.543236" lon="-3.836308">
    <ele>262</ele>
    <time>2026-07-16T17:15:14Z</time>
    <speed>0.9</speed>
  </trkpt>
  <trkpt lat="50.543339" lon="-3.836427">
    <ele>260</ele>
    <time>2026-07-16T17:15:25Z</time>
    <speed>0.35999998</speed>
  </trkpt>
  <trkpt lat="50.543439" lon="-3.836404">
    <ele>261</ele>
    <time>2026-07-16T17:16:21Z</time>
    <speed>1.77</speed>
  </trkpt>
  <trkpt lat="50.543549" lon="-3.836358">
    <ele>258</ele>
    <time>2026-07-16T17:16:32Z</time>
    <speed>1.22</speed>
  </trkpt>
  <trkpt lat="50.543690" lon="-3.836292">
    <ele>255</ele>
    <time>2026-07-16T17:16:43Z</time>
    <speed>1.11</speed>
  </trkpt>
  <trkpt lat="50.543819" lon="-3.836236">
    <ele>256</ele>
    <time>2026-07-16T17:16:54Z</time>
    <speed>1.56</speed>
  </trkpt>
  <trkpt lat="50.543958" lon="-3.836186">
    <ele>255</ele>
    <time>2026-07-16T17:17:05Z</time>
    <speed>1.4</speed>
  </trkpt>
  <trkpt lat="50.544093" lon="-3.836130">
    <ele>254</ele>
    <time>2026-07-16T17:17:16Z</time>
    <speed>1.12</speed>
  </trkpt>
  <trkpt lat="50.544217" lon="-3.836084">
    <ele>253</ele>
    <time>2026-07-16T17:17:27Z</time>
    <speed>1.31</speed>
  </trkpt>
  <trkpt lat="50.544352" lon="-3.836028">
    <ele>249</ele>
    <time>2026-07-16T17:17:38Z</time>
    <speed>1.17</speed>
  </trkpt>
  <trkpt lat="50.544437" lon="-3.836079">
    <ele>250</ele>
    <time>2026-07-16T17:18:01Z</time>
    <speed>0.39999998</speed>
  </trkpt>
  <trkpt lat="50.544501" lon="-3.836187">
    <ele>248</ele>
    <time>2026-07-16T17:18:21Z</time>
    <speed>1.16</speed>
  </trkpt>
  <trkpt lat="50.544645" lon="-3.836171">
    <ele>247</ele>
    <time>2026-07-16T17:18:32Z</time>
    <speed>1.51</speed>
  </trkpt>
  <trkpt lat="50.544789" lon="-3.836122">
    <ele>246</ele>
    <time>2026-07-16T17:18:43Z</time>
    <speed>1.43</speed>
  </trkpt>
  <trkpt lat="50.544921" lon="-3.836081">
    <ele>244</ele>
    <time>2026-07-16T17:18:54Z</time>
    <speed>1.3299999</speed>
  </trkpt>
  <trkpt lat="50.545074" lon="-3.836011">
    <ele>242</ele>
    <time>2026-07-16T17:19:05Z</time>
    <speed>0.98999995</speed>
  </trkpt>
  <trkpt lat="50.545205" lon="-3.835927">
    <ele>240</ele>
    <time>2026-07-16T17:19:16Z</time>
    <speed>1.1999999</speed>
  </trkpt>
  <trkpt lat="50.545340" lon="-3.835842">
    <ele>240</ele>
    <time>2026-07-16T17:19:27Z</time>
    <speed>1.35</speed>
  </trkpt>
  <trkpt lat="50.545480" lon="-3.835778">
    <ele>239</ele>
    <time>2026-07-16T17:19:38Z</time>
    <speed>1.02</speed>
  </trkpt>
  <trkpt lat="50.545611" lon="-3.835690">
    <ele>238</ele>
    <time>2026-07-16T17:19:49Z</time>
    <speed>1.48</speed>
  </trkpt>
  <trkpt lat="50.545727" lon="-3.835593">
    <ele>236</ele>
    <time>2026-07-16T17:20:00Z</time>
    <speed>1.28</speed>
  </trkpt>
  <trkpt lat="50.545801" lon="-3.835501">
    <ele>234</ele>
    <time>2026-07-16T17:20:16Z</time>
    <speed>0.62</speed>
  </trkpt>
  <trkpt lat="50.545888" lon="-3.835465">
    <ele>234</ele>
    <time>2026-07-16T17:20:29Z</time>
    <speed>0.37</speed>
  </trkpt>
  <trkpt lat="50.545982" lon="-3.835444">
    <ele>233</ele>
    <time>2026-07-16T17:20:40Z</time>
    <speed>0.35999998</speed>
  </trkpt>
  <trkpt lat="50.546095" lon="-3.835399">
    <ele>232</ele>
    <time>2026-07-16T17:20:51Z</time>
    <speed>0.48</speed>
  </trkpt>
  <trkpt lat="50.546195" lon="-3.835358">
    <ele>231</ele>
    <time>2026-07-16T17:21:02Z</time>
    <speed>0.38</speed>
  </trkpt>
  <trkpt lat="50.546294" lon="-3.835331">
    <ele>230</ele>
    <time>2026-07-16T17:21:13Z</time>
    <speed>0.89</speed>
  </trkpt>
  <trkpt lat="50.546395" lon="-3.835295">
    <ele>229</ele>
    <time>2026-07-16T17:21:24Z</time>
    <speed>0.35</speed>
  </trkpt>
  <trkpt lat="50.546491" lon="-3.835241">
    <ele>229</ele>
    <time>2026-07-16T17:21:35Z</time>
    <speed>0.44</speed>
  </trkpt>
  <trkpt lat="50.546583" lon="-3.835234">
    <ele>228</ele>
    <time>2026-07-16T17:21:46Z</time>
    <speed>0.59999996</speed>
  </trkpt>
  <trkpt lat="50.546678" lon="-3.835243">
    <ele>227</ele>
    <time>2026-07-16T17:21:57Z</time>
    <speed>0.7</speed>
  </trkpt>
  <trkpt lat="50.546774" lon="-3.835250">
    <ele>226</ele>
    <time>2026-07-16T17:22:12Z</time>
    <speed>0.62</speed>
  </trkpt>
  <trkpt lat="50.546871" lon="-3.835235">
    <ele>224</ele>
    <time>2026-07-16T17:22:23Z</time>
    <speed>0.78</speed>
  </trkpt>
  <trkpt lat="50.546961" lon="-3.835227">
    <ele>225</ele>
    <time>2026-07-16T17:22:34Z</time>
    <speed>0.32</speed>
  </trkpt>
  <trkpt lat="50.547059" lon="-3.835259">
    <ele>224</ele>
    <time>2026-07-16T17:22:45Z</time>
    <speed>0.29999998</speed>
  </trkpt>
  <trkpt lat="50.547179" lon="-3.835262">
    <ele>224</ele>
    <time>2026-07-16T17:22:56Z</time>
    <speed>0.64</speed>
  </trkpt>
  <trkpt lat="50.547316" lon="-3.835165">
    <ele>223</ele>
    <time>2026-07-16T17:23:07Z</time>
    <speed>0.94</speed>
  </trkpt>
  <trkpt lat="50.547450" lon="-3.835134">
    <ele>223</ele>
    <time>2026-07-16T17:23:18Z</time>
    <speed>1.1899999</speed>
  </trkpt>
  <trkpt lat="50.547571" lon="-3.835101">
    <ele>221</ele>
    <time>2026-07-16T17:23:29Z</time>
    <speed>1.3</speed>
  </trkpt>
  <trkpt lat="50.547705" lon="-3.835075">
    <ele>217</ele>
    <time>2026-07-16T17:23:40Z</time>
    <speed>1.1899999</speed>
  </trkpt>
  <trkpt lat="50.547835" lon="-3.835049">
    <ele>219</ele>
    <time>2026-07-16T17:23:51Z</time>
    <speed>1.1999999</speed>
  </trkpt>
  <trkpt lat="50.547954" lon="-3.835067">
    <ele>216</ele>
    <time>2026-07-16T17:24:02Z</time>
    <speed>1.29</speed>
  </trkpt>
  <trkpt lat="50.548076" lon="-3.835110">
    <ele>215</ele>
    <time>2026-07-16T17:24:13Z</time>
    <speed>0.75</speed>
  </trkpt>
  <trkpt lat="50.548188" lon="-3.835153">
    <ele>211</ele>
    <time>2026-07-16T17:24:24Z</time>
    <speed>1.11</speed>
  </trkpt>
  <trkpt lat="50.548284" lon="-3.835169">
    <ele>213</ele>
    <time>2026-07-16T17:24:35Z</time>
    <speed>0.84999996</speed>
  </trkpt>
  <trkpt lat="50.548399" lon="-3.835114">
    <ele>214</ele>
    <time>2026-07-16T17:24:46Z</time>
    <speed>1.01</speed>
  </trkpt>
  <trkpt lat="50.548402" lon="-3.834889">
    <ele>214</ele>
    <time>2026-07-16T17:24:57Z</time>
    <speed>1.22</speed>
  </trkpt>
  <trkpt lat="50.548330" lon="-3.834720">
    <ele>214</ele>
    <time>2026-07-16T17:25:08Z</time>
    <speed>0.94</speed>
  </trkpt>
  <trkpt lat="50.548234" lon="-3.834599">
    <ele>215</ele>
    <time>2026-07-16T17:25:19Z</time>
    <speed>0.95</speed>
  </trkpt>
  <trkpt lat="50.548115" lon="-3.834447">
    <ele>213</ele>
    <time>2026-07-16T17:25:30Z</time>
    <speed>0.84</speed>
  </trkpt>
  <trkpt lat="50.548004" lon="-3.834325">
    <ele>214</ele>
    <time>2026-07-16T17:25:41Z</time>
    <speed>1.01</speed>
  </trkpt>
  <trkpt lat="50.547860" lon="-3.834209">
    <ele>213</ele>
    <time>2026-07-16T17:25:52Z</time>
    <speed>0.94</speed>
  </trkpt>
  <trkpt lat="50.547764" lon="-3.834118">
    <ele>214</ele>
    <time>2026-07-16T17:26:03Z</time>
    <speed>0.63</speed>
  </trkpt>
  <trkpt lat="50.547666" lon="-3.834047">
    <ele>213</ele>
    <time>2026-07-16T17:26:14Z</time>
    <speed>0.61</speed>
  </trkpt>
  <trkpt lat="50.547596" lon="-3.833948">
    <ele>215</ele>
    <time>2026-07-16T17:26:28Z</time>
    <speed>0.77</speed>
  </trkpt>
  <trkpt lat="50.547493" lon="-3.833846">
    <ele>215</ele>
    <time>2026-07-16T17:26:39Z</time>
    <speed>1.12</speed>
  </trkpt>
  <trkpt lat="50.547391" lon="-3.833766">
    <ele>214</ele>
    <time>2026-07-16T17:26:50Z</time>
    <speed>0.5</speed>
  </trkpt>
  <trkpt lat="50.547284" lon="-3.833634">
    <ele>215</ele>
    <time>2026-07-16T17:27:01Z</time>
    <speed>0.42</speed>
  </trkpt>
  <trkpt lat="50.547177" lon="-3.833532">
    <ele>216</ele>
    <time>2026-07-16T17:27:12Z</time>
    <speed>0.71</speed>
  </trkpt>
  <trkpt lat="50.547040" lon="-3.833386">
    <ele>216</ele>
    <time>2026-07-16T17:27:23Z</time>
    <speed>0.82</speed>
  </trkpt>
  <trkpt lat="50.546903" lon="-3.833253">
    <ele>216</ele>
    <time>2026-07-16T17:27:34Z</time>
    <speed>0.75</speed>
  </trkpt>
  <trkpt lat="50.546787" lon="-3.833103">
    <ele>216</ele>
    <time>2026-07-16T17:27:45Z</time>
    <speed>1.13</speed>
  </trkpt>
  <trkpt lat="50.546690" lon="-3.832930">
    <ele>215</ele>
    <time>2026-07-16T17:27:56Z</time>
    <speed>1.05</speed>
  </trkpt>
  <trkpt lat="50.546598" lon="-3.832759">
    <ele>215</ele>
    <time>2026-07-16T17:28:07Z</time>
    <speed>1.15</speed>
  </trkpt>
  <trkpt lat="50.546500" lon="-3.832581">
    <ele>214</ele>
    <time>2026-07-16T17:28:18Z</time>
    <speed>1.3399999</speed>
  </trkpt>
  <trkpt lat="50.546416" lon="-3.832401">
    <ele>213</ele>
    <time>2026-07-16T17:28:29Z</time>
    <speed>1.1999999</speed>
  </trkpt>
  <trkpt lat="50.546350" lon="-3.832245">
    <ele>213</ele>
    <time>2026-07-16T17:28:40Z</time>
    <speed>1.3199999</speed>
  </trkpt>
  <trkpt lat="50.546265" lon="-3.832067">
    <ele>213</ele>
    <time>2026-07-16T17:28:51Z</time>
    <speed>1.1</speed>
  </trkpt>
  <trkpt lat="50.546172" lon="-3.831933">
    <ele>212</ele>
    <time>2026-07-16T17:29:02Z</time>
    <speed>0.89</speed>
  </trkpt>
  <trkpt lat="50.546067" lon="-3.831761">
    <ele>212</ele>
    <time>2026-07-16T17:29:13Z</time>
    <speed>1.5</speed>
  </trkpt>
  <trkpt lat="50.545994" lon="-3.831588">
    <ele>212</ele>
    <time>2026-07-16T17:29:24Z</time>
    <speed>1.51</speed>
  </trkpt>
  <trkpt lat="50.545909" lon="-3.831414">
    <ele>212</ele>
    <time>2026-07-16T17:29:35Z</time>
    <speed>1.29</speed>
  </trkpt>
  <trkpt lat="50.545832" lon="-3.831242">
    <ele>213</ele>
    <time>2026-07-16T17:29:46Z</time>
    <speed>1.14</speed>
  </trkpt>
  <trkpt lat="50.545772" lon="-3.831045">
    <ele>211</ele>
    <time>2026-07-16T17:29:57Z</time>
    <speed>1.06</speed>
  </trkpt>
  <trkpt lat="50.545717" lon="-3.830866">
    <ele>213</ele>
    <time>2026-07-16T17:30:08Z</time>
    <speed>1.35</speed>
  </trkpt>
  <trkpt lat="50.545643" lon="-3.830686">
    <ele>213</ele>
    <time>2026-07-16T17:30:19Z</time>
    <speed>1.1899999</speed>
  </trkpt>
  <trkpt lat="50.545580" lon="-3.830492">
    <ele>214</ele>
    <time>2026-07-16T17:30:30Z</time>
    <speed>1.12</speed>
  </trkpt>
  <trkpt lat="50.545505" lon="-3.830324">
    <ele>214</ele>
    <time>2026-07-16T17:30:41Z</time>
    <speed>1.37</speed>
  </trkpt>
  <trkpt lat="50.545448" lon="-3.830104">
    <ele>215</ele>
    <time>2026-07-16T17:30:52Z</time>
    <speed>1.28</speed>
  </trkpt>
  <trkpt lat="50.545402" lon="-3.829871">
    <ele>215</ele>
    <time>2026-07-16T17:31:03Z</time>
    <speed>1.1999999</speed>
  </trkpt>
  <trkpt lat="50.545359" lon="-3.829725">
    <ele>214</ele>
    <time>2026-07-16T17:31:14Z</time>
    <speed>0.93</speed>
  </trkpt>
  <trkpt lat="50.545312" lon="-3.829552">
    <ele>217</ele>
    <time>2026-07-16T17:31:25Z</time>
    <speed>1.02</speed>
  </trkpt>
  <trkpt lat="50.545248" lon="-3.829416">
    <ele>218</ele>
    <time>2026-07-16T17:31:36Z</time>
    <speed>0.56</speed>
  </trkpt>
  <trkpt lat="50.545172" lon="-3.829221">
    <ele>219</ele>
    <time>2026-07-16T17:31:47Z</time>
    <speed>0.96999997</speed>
  </trkpt>
  <trkpt lat="50.545131" lon="-3.829045">
    <ele>220</ele>
    <time>2026-07-16T17:31:58Z</time>
    <speed>0.65999997</speed>
  </trkpt>
  <trkpt lat="50.545084" lon="-3.828858">
    <ele>220</ele>
    <time>2026-07-16T17:32:09Z</time>
    <speed>0.94</speed>
  </trkpt>
  <trkpt lat="50.545052" lon="-3.828703">
    <ele>221</ele>
    <time>2026-07-16T17:32:20Z</time>
    <speed>0.47</speed>
  </trkpt>
  <trkpt lat="50.545014" lon="-3.828498">
    <ele>223</ele>
    <time>2026-07-16T17:32:31Z</time>
    <speed>0.66999996</speed>
  </trkpt>
  <trkpt lat="50.544966" lon="-3.828321">
    <ele>222</ele>
    <time>2026-07-16T17:32:42Z</time>
    <speed>1.4699999</speed>
  </trkpt>
  <trkpt lat="50.544921" lon="-3.828133">
    <ele>225</ele>
    <time>2026-07-16T17:32:53Z</time>
    <speed>1.23</speed>
  </trkpt>
  <trkpt lat="50.544866" lon="-3.827945">
    <ele>226</ele>
    <time>2026-07-16T17:33:04Z</time>
    <speed>0.66999996</speed>
  </trkpt>
  <trkpt lat="50.544810" lon="-3.827751">
    <ele>227</ele>
    <time>2026-07-16T17:33:15Z</time>
    <speed>0.83</speed>
  </trkpt>
  <trkpt lat="50.544795" lon="-3.827571">
    <ele>227</ele>
    <time>2026-07-16T17:33:26Z</time>
    <speed>1.13</speed>
  </trkpt>
  <trkpt lat="50.544804" lon="-3.827366">
    <ele>226</ele>
    <time>2026-07-16T17:33:37Z</time>
    <speed>0.9</speed>
  </trkpt>
  <trkpt lat="50.544785" lon="-3.827141">
    <ele>226</ele>
    <time>2026-07-16T17:33:48Z</time>
    <speed>0.59</speed>
  </trkpt>
  <trkpt lat="50.544753" lon="-3.826932">
    <ele>226</ele>
    <time>2026-07-16T17:33:59Z</time>
    <speed>0.97999996</speed>
  </trkpt>
  <trkpt lat="50.544737" lon="-3.826699">
    <ele>226</ele>
    <time>2026-07-16T17:34:10Z</time>
    <speed>0.93</speed>
  </trkpt>
  <trkpt lat="50.544730" lon="-3.826462">
    <ele>225</ele>
    <time>2026-07-16T17:34:21Z</time>
    <speed>1.7099999</speed>
  </trkpt>
  <trkpt lat="50.544718" lon="-3.826223">
    <ele>225</ele>
    <time>2026-07-16T17:34:32Z</time>
    <speed>1.42</speed>
  </trkpt>
  <trkpt lat="50.544667" lon="-3.826026">
    <ele>226</ele>
    <time>2026-07-16T17:34:43Z</time>
    <speed>1.4499999</speed>
  </trkpt>
  <trkpt lat="50.544630" lon="-3.825808">
    <ele>226</ele>
    <time>2026-07-16T17:34:54Z</time>
    <speed>0.41</speed>
  </trkpt>
  <trkpt lat="50.544593" lon="-3.825580">
    <ele>226</ele>
    <time>2026-07-16T17:35:05Z</time>
    <speed>1.4</speed>
  </trkpt>
  <trkpt lat="50.544550" lon="-3.825397">
    <ele>228</ele>
    <time>2026-07-16T17:35:16Z</time>
    <speed>1.1</speed>
  </trkpt>
  <trkpt lat="50.544527" lon="-3.825253">
    <ele>229</ele>
    <time>2026-07-16T17:35:27Z</time>
    <speed>0.96999997</speed>
  </trkpt>
  <trkpt lat="50.544477" lon="-3.825037">
    <ele>230</ele>
    <time>2026-07-16T17:35:38Z</time>
    <speed>1.3199999</speed>
  </trkpt>
  <trkpt lat="50.544448" lon="-3.824804">
    <ele>230</ele>
    <time>2026-07-16T17:35:49Z</time>
    <speed>1.62</speed>
  </trkpt>
  <trkpt lat="50.544427" lon="-3.824582">
    <ele>231</ele>
    <time>2026-07-16T17:36:00Z</time>
    <speed>1.14</speed>
  </trkpt>
  <trkpt lat="50.544414" lon="-3.824382">
    <ele>230</ele>
    <time>2026-07-16T17:36:11Z</time>
    <speed>0.52</speed>
  </trkpt>
  <trkpt lat="50.544402" lon="-3.824183">
    <ele>230</ele>
    <time>2026-07-16T17:36:22Z</time>
    <speed>1.13</speed>
  </trkpt>
  <trkpt lat="50.544375" lon="-3.823966">
    <ele>231</ele>
    <time>2026-07-16T17:36:33Z</time>
    <speed>0.88</speed>
  </trkpt>
  <trkpt lat="50.544324" lon="-3.823773">
    <ele>230</ele>
    <time>2026-07-16T17:36:44Z</time>
    <speed>0.93</speed>
  </trkpt>
  <trkpt lat="50.544266" lon="-3.823624">
    <ele>230</ele>
    <time>2026-07-16T17:36:55Z</time>
    <speed>1.16</speed>
  </trkpt>
  <trkpt lat="50.544211" lon="-3.823459">
    <ele>228</ele>
    <time>2026-07-16T17:37:06Z</time>
    <speed>0.95</speed>
  </trkpt>
  <trkpt lat="50.544171" lon="-3.823269">
    <ele>225</ele>
    <time>2026-07-16T17:37:17Z</time>
    <speed>0.87</speed>
  </trkpt>
  <trkpt lat="50.544110" lon="-3.823052">
    <ele>222</ele>
    <time>2026-07-16T17:37:28Z</time>
    <speed>1.0</speed>
  </trkpt>
  <trkpt lat="50.544076" lon="-3.822887">
    <ele>222</ele>
    <time>2026-07-16T17:37:39Z</time>
    <speed>0.91999996</speed>
  </trkpt>
  <trkpt lat="50.544043" lon="-3.822749">
    <ele>221</ele>
    <time>2026-07-16T17:37:59Z</time>
    <speed>0.78999996</speed>
  </trkpt>
  <trkpt lat="50.543987" lon="-3.822598">
    <ele>218</ele>
    <time>2026-07-16T17:38:10Z</time>
    <speed>0.87</speed>
  </trkpt>
  <trkpt lat="50.543950" lon="-3.822413">
    <ele>216</ele>
    <time>2026-07-16T17:38:21Z</time>
    <speed>0.83</speed>
  </trkpt>
  <trkpt lat="50.543928" lon="-3.822223">
    <ele>214</ele>
    <time>2026-07-16T17:38:32Z</time>
    <speed>0.88</speed>
  </trkpt>
  <trkpt lat="50.543942" lon="-3.822045">
    <ele>211</ele>
    <time>2026-07-16T17:38:43Z</time>
    <speed>0.77</speed>
  </trkpt>
  <trkpt lat="50.543956" lon="-3.821880">
    <ele>211</ele>
    <time>2026-07-16T17:38:54Z</time>
    <speed>1.0799999</speed>
  </trkpt>
  <trkpt lat="50.543993" lon="-3.821669">
    <ele>208</ele>
    <time>2026-07-16T17:39:05Z</time>
    <speed>0.66999996</speed>
  </trkpt>
  <trkpt lat="50.544011" lon="-3.821500">
    <ele>204</ele>
    <time>2026-07-16T17:39:16Z</time>
    <speed>0.59</speed>
  </trkpt>
  <trkpt lat="50.544026" lon="-3.821330">
    <ele>203</ele>
    <time>2026-07-16T17:39:27Z</time>
    <speed>0.79999995</speed>
  </trkpt>
  <trkpt lat="50.544030" lon="-3.821149">
    <ele>202</ele>
    <time>2026-07-16T17:39:38Z</time>
    <speed>0.77</speed>
  </trkpt>
  <trkpt lat="50.543976" lon="-3.820938">
    <ele>201</ele>
    <time>2026-07-16T17:39:49Z</time>
    <speed>0.84999996</speed>
  </trkpt>
  <trkpt lat="50.543959" lon="-3.820791">
    <ele>199</ele>
    <time>2026-07-16T17:40:00Z</time>
    <speed>0.65</speed>
  </trkpt>
  <trkpt lat="50.543935" lon="-3.820644">
    <ele>197</ele>
    <time>2026-07-16T17:40:11Z</time>
    <speed>0.16</speed>
  </trkpt>
  <trkpt lat="50.543860" lon="-3.820493">
    <ele>196</ele>
    <time>2026-07-16T17:40:22Z</time>
    <speed>0.71999997</speed>
  </trkpt>
  <trkpt lat="50.543757" lon="-3.820368">
    <ele>193</ele>
    <time>2026-07-16T17:40:33Z</time>
    <speed>0.83</speed>
  </trkpt>
  <trkpt lat="50.543660" lon="-3.820202">
    <ele>192</ele>
    <time>2026-07-16T17:40:44Z</time>
    <speed>1.61</speed>
  </trkpt>
  <trkpt lat="50.543571" lon="-3.820084">
    <ele>188</ele>
    <time>2026-07-16T17:40:55Z</time>
    <speed>0.89</speed>
  </trkpt>
  <trkpt lat="50.543449" lon="-3.820056">
    <ele>187</ele>
    <time>2026-07-16T17:41:06Z</time>
    <speed>1.0</speed>
  </trkpt>
  <trkpt lat="50.543339" lon="-3.820026">
    <ele>183</ele>
    <time>2026-07-16T17:41:17Z</time>
    <speed>0.0</speed>
  </trkpt>
  <trkpt lat="50.543224" lon="-3.820016">
    <ele>182</ele>
    <time>2026-07-16T17:41:28Z</time>
    <speed>1.163491</speed>
  </trkpt>
  <trkpt lat="50.543093" lon="-3.820007">
    <ele>178</ele>
    <time>2026-07-16T17:41:39Z</time>
    <speed>1.16</speed>
  </trkpt>
  <trkpt lat="50.542974" lon="-3.819969">
    <ele>180</ele>
    <time>2026-07-16T17:41:50Z</time>
    <speed>1.1999999</speed>
  </trkpt>
  <trkpt lat="50.542870" lon="-3.819950">
    <ele>174</ele>
    <time>2026-07-16T17:42:01Z</time>
    <speed>0.87</speed>
  </trkpt>
  <trkpt lat="50.542743" lon="-3.819924">
    <ele>175</ele>
    <time>2026-07-16T17:42:12Z</time>
    <speed>0.98999995</speed>
  </trkpt>
  <trkpt lat="50.542617" lon="-3.819897">
    <ele>173</ele>
    <time>2026-07-16T17:42:23Z</time>
    <speed>1.11</speed>
  </trkpt>
  <trkpt lat="50.542484" lon="-3.819880">
    <ele>172</ele>
    <time>2026-07-16T17:42:34Z</time>
    <speed>1.0699999</speed>
  </trkpt>
  <trkpt lat="50.542380" lon="-3.819846">
    <ele>167</ele>
    <time>2026-07-16T17:42:45Z</time>
    <speed>1.03</speed>
  </trkpt>
  <trkpt lat="50.542248" lon="-3.819806">
    <ele>167</ele>
    <time>2026-07-16T17:42:56Z</time>
    <speed>1.0699999</speed>
  </trkpt>
  <trkpt lat="50.542120" lon="-3.819757">
    <ele>167</ele>
    <time>2026-07-16T17:43:07Z</time>
    <speed>1.12</speed>
  </trkpt>
  <trkpt lat="50.542006" lon="-3.819785">
    <ele>165</ele>
    <time>2026-07-16T17:43:18Z</time>
    <speed>1.4</speed>
  </trkpt>
  <trkpt lat="50.541994" lon="-3.820009">
    <ele>165</ele>
    <time>2026-07-16T17:43:29Z</time>
    <speed>1.25</speed>
  </trkpt>
  <trkpt lat="50.541939" lon="-3.820123">
    <ele>164</ele>
    <time>2026-07-16T17:43:40Z</time>
    <speed>0.42</speed>
  </trkpt>
  <trkpt lat="50.541861" lon="-3.820235">
    <ele>165</ele>
    <time>2026-07-16T17:43:54Z</time>
    <speed>1.3299999</speed>
  </trkpt>
  <trkpt lat="50.541752" lon="-3.820314">
    <ele>165</ele>
    <time>2026-07-16T17:44:05Z</time>
    <speed>0.66999996</speed>
  </trkpt>
  <trkpt lat="50.541629" lon="-3.820382">
    <ele>164</ele>
    <time>2026-07-16T17:44:16Z</time>
    <speed>1.14</speed>
  </trkpt>
  <trkpt lat="50.541493" lon="-3.820425">
    <ele>163</ele>
    <time>2026-07-16T17:44:27Z</time>
    <speed>0.66999996</speed>
  </trkpt>
  <trkpt lat="50.541359" lon="-3.820478">
    <ele>164</ele>
    <time>2026-07-16T17:44:38Z</time>
    <speed>1.39</speed>
  </trkpt>
  <trkpt lat="50.541268" lon="-3.820474">
    <ele>163</ele>
    <time>2026-07-16T17:44:52Z</time>
    <speed>0.45999998</speed>
  </trkpt>
  <trkpt lat="50.541183" lon="-3.820532">
    <ele>163</ele>
    <time>2026-07-16T17:45:03Z</time>
    <speed>1.03</speed>
  </trkpt>
  <trkpt lat="50.541058" lon="-3.820583">
    <ele>163</ele>
    <time>2026-07-16T17:45:14Z</time>
    <speed>1.22</speed>
  </trkpt>
  <trkpt lat="50.540925" lon="-3.820633">
    <ele>163</ele>
    <time>2026-07-16T17:45:25Z</time>
    <speed>1.36</speed>
  </trkpt>
  <trkpt lat="50.540803" lon="-3.820685">
    <ele>163</ele>
    <time>2026-07-16T17:45:36Z</time>
    <speed>1.22</speed>
  </trkpt>
  <trkpt lat="50.540684" lon="-3.820738">
    <ele>162</ele>
    <time>2026-07-16T17:45:47Z</time>
    <speed>1.4699999</speed>
  </trkpt>
  <trkpt lat="50.540552" lon="-3.820784">
    <ele>162</ele>
    <time>2026-07-16T17:45:58Z</time>
    <speed>1.16</speed>
  </trkpt>
  <trkpt lat="50.540429" lon="-3.820859">
    <ele>163</ele>
    <time>2026-07-16T17:46:09Z</time>
    <speed>1.1899999</speed>
  </trkpt>
  <trkpt lat="50.540304" lon="-3.820933">
    <ele>161</ele>
    <time>2026-07-16T17:46:20Z</time>
    <speed>1.15</speed>
  </trkpt>
  <trkpt lat="50.540221" lon="-3.821004">
    <ele>162</ele>
    <time>2026-07-16T17:46:34Z</time>
    <speed>0.93</speed>
  </trkpt>
  <trkpt lat="50.540127" lon="-3.821044">
    <ele>160</ele>
    <time>2026-07-16T17:46:46Z</time>
    <speed>1.27</speed>
  </trkpt>
  <trkpt lat="50.540027" lon="-3.821136">
    <ele>161</ele>
    <time>2026-07-16T17:46:57Z</time>
    <speed>1.2099999</speed>
  </trkpt>
  <trkpt lat="50.539922" lon="-3.821221">
    <ele>160</ele>
    <time>2026-07-16T17:47:08Z</time>
    <speed>1.17</speed>
  </trkpt>
  <trkpt lat="50.539816" lon="-3.821314">
    <ele>160</ele>
    <time>2026-07-16T17:47:19Z</time>
    <speed>1.4</speed>
  </trkpt>
  <trkpt lat="50.539700" lon="-3.821408">
    <ele>159</ele>
    <time>2026-07-16T17:47:30Z</time>
    <speed>1.25</speed>
  </trkpt>
  <trkpt lat="50.539596" lon="-3.821505">
    <ele>156</ele>
    <time>2026-07-16T17:47:41Z</time>
    <speed>1.05</speed>
  </trkpt>
  <trkpt lat="50.539483" lon="-3.821595">
    <ele>156</ele>
    <time>2026-07-16T17:47:52Z</time>
    <speed>1.2099999</speed>
  </trkpt>
  <trkpt lat="50.539386" lon="-3.821692">
    <ele>156</ele>
    <time>2026-07-16T17:48:03Z</time>
    <speed>1.11</speed>
  </trkpt>
  <trkpt lat="50.539287" lon="-3.821773">
    <ele>153</ele>
    <time>2026-07-16T17:48:14Z</time>
    <speed>0.82</speed>
  </trkpt>
  <trkpt lat="50.539215" lon="-3.821870">
    <ele>154</ele>
    <time>2026-07-16T17:48:25Z</time>
    <speed>0.01</speed>
  </trkpt>
  <trkpt lat="50.539210" lon="-3.822013">
    <ele>154</ele>
    <time>2026-07-16T17:48:37Z</time>
    <speed>1.4</speed>
  </trkpt>
  <trkpt lat="50.539199" lon="-3.822177">
    <ele>154</ele>
    <time>2026-07-16T17:48:48Z</time>
    <speed>1.12</speed>
  </trkpt>
  <trkpt lat="50.539153" lon="-3.822337">
    <ele>155</ele>
    <time>2026-07-16T17:48:59Z</time>
    <speed>1.4</speed>
  </trkpt>
  <trkpt lat="50.539085" lon="-3.822442">
    <ele>152</ele>
    <time>2026-07-16T17:49:10Z</time>
    <speed>1.12</speed>
  </trkpt>
  <trkpt lat="50.538969" lon="-3.822525">
    <ele>154</ele>
    <time>2026-07-16T17:49:21Z</time>
    <speed>1.03</speed>
  </trkpt>
  <trkpt lat="50.538849" lon="-3.822589">
    <ele>154</ele>
    <time>2026-07-16T17:49:32Z</time>
    <speed>1.5799999</speed>
  </trkpt>
  <trkpt lat="50.538695" lon="-3.822650">
    <ele>153</ele>
    <time>2026-07-16T17:49:43Z</time>
    <speed>1.42</speed>
  </trkpt>
  <trkpt lat="50.538568" lon="-3.822722">
    <ele>152</ele>
    <time>2026-07-16T17:49:54Z</time>
    <speed>1.42</speed>
  </trkpt>
  <trkpt lat="50.538444" lon="-3.822773">
    <ele>151</ele>
    <time>2026-07-16T17:50:05Z</time>
    <speed>1.28</speed>
  </trkpt>
  <trkpt lat="50.538322" lon="-3.822874">
    <ele>153</ele>
    <time>2026-07-16T17:50:16Z</time>
    <speed>1.4599999</speed>
  </trkpt>
  <trkpt lat="50.538245" lon="-3.823002">
    <ele>154</ele>
    <time>2026-07-16T17:50:27Z</time>
    <speed>1.25</speed>
  </trkpt>
  <trkpt lat="50.538226" lon="-3.823178">
    <ele>154</ele>
    <time>2026-07-16T17:50:38Z</time>
    <speed>0.78</speed>
  </trkpt>
  <trkpt lat="50.538209" lon="-3.823337">
    <ele>153</ele>
    <time>2026-07-16T17:50:49Z</time>
    <speed>1.28</speed>
  </trkpt>
  <trkpt lat="50.538172" lon="-3.823467">
    <ele>155</ele>
    <time>2026-07-16T17:51:03Z</time>
    <speed>0.9</speed>
  </trkpt>
  <trkpt lat="50.538075" lon="-3.823487">
    <ele>157</ele>
    <time>2026-07-16T17:51:16Z</time>
    <speed>1.03</speed>
  </trkpt>
  <trkpt lat="50.537960" lon="-3.823483">
    <ele>157</ele>
    <time>2026-07-16T17:51:27Z</time>
    <speed>1.09</speed>
  </trkpt>
  <trkpt lat="50.537833" lon="-3.823474">
    <ele>157</ele>
    <time>2026-07-16T17:51:38Z</time>
    <speed>0.88</speed>
  </trkpt>
  <trkpt lat="50.537700" lon="-3.823468">
    <ele>158</ele>
    <time>2026-07-16T17:51:49Z</time>
    <speed>0.87</speed>
  </trkpt>
  <trkpt lat="50.537560" lon="-3.823469">
    <ele>158</ele>
    <time>2026-07-16T17:52:00Z</time>
    <speed>1.24</speed>
  </trkpt>
  <trkpt lat="50.537416" lon="-3.823462">
    <ele>157</ele>
    <time>2026-07-16T17:52:11Z</time>
    <speed>1.4599999</speed>
  </trkpt>
  <trkpt lat="50.537277" lon="-3.823448">
    <ele>156</ele>
    <time>2026-07-16T17:52:22Z</time>
    <speed>1.61</speed>
  </trkpt>
  <trkpt lat="50.537143" lon="-3.823438">
    <ele>158</ele>
    <time>2026-07-16T17:52:33Z</time>
    <speed>1.24</speed>
  </trkpt>
  <trkpt lat="50.537016" lon="-3.823433">
    <ele>157</ele>
    <time>2026-07-16T17:52:44Z</time>
    <speed>1.0</speed>
  </trkpt>
  <trkpt lat="50.536989" lon="-3.823293">
    <ele>157</ele>
    <time>2026-07-16T17:53:45Z</time>
    <speed>1.18</speed>
  </trkpt>
  <trkpt lat="50.537024" lon="-3.823079">
    <ele>156</ele>
    <time>2026-07-16T17:53:56Z</time>
    <speed>0.98999995</speed>
  </trkpt>
  <trkpt lat="50.537046" lon="-3.822859">
    <ele>154</ele>
    <time>2026-07-16T17:54:07Z</time>
    <speed>1.3199999</speed>
  </trkpt>
  <trkpt lat="50.537065" lon="-3.822656">
    <ele>154</ele>
    <time>2026-07-16T17:54:18Z</time>
    <speed>0.56</speed>
  </trkpt>
  <trkpt lat="50.537086" lon="-3.822473">
    <ele>151</ele>
    <time>2026-07-16T17:54:29Z</time>
    <speed>1.0799999</speed>
  </trkpt>
  <trkpt lat="50.537104" lon="-3.822288">
    <ele>153</ele>
    <time>2026-07-16T17:54:40Z</time>
    <speed>1.11</speed>
  </trkpt>
  <trkpt lat="50.537127" lon="-3.822100">
    <ele>152</ele>
    <time>2026-07-16T17:54:51Z</time>
    <speed>1.1899999</speed>
  </trkpt>
  <trkpt lat="50.537116" lon="-3.821924">
    <ele>150</ele>
    <time>2026-07-16T17:55:02Z</time>
    <speed>1.37</speed>
  </trkpt>
  <trkpt lat="50.537109" lon="-3.821710">
    <ele>151</ele>
    <time>2026-07-16T17:55:13Z</time>
    <speed>1.17</speed>
  </trkpt>
  <trkpt lat="50.537084" lon="-3.821529">
    <ele>151</ele>
    <time>2026-07-16T17:55:24Z</time>
    <speed>1.18</speed>
  </trkpt>
  <trkpt lat="50.537071" lon="-3.821350">
    <ele>150</ele>
    <time>2026-07-16T17:55:35Z</time>
    <speed>1.3399999</speed>
  </trkpt>
  <trkpt lat="50.537047" lon="-3.821164">
    <ele>149</ele>
    <time>2026-07-16T17:55:46Z</time>
    <speed>1.09</speed>
  </trkpt>
  <trkpt lat="50.537011" lon="-3.820997">
    <ele>149</ele>
    <time>2026-07-16T17:55:57Z</time>
    <speed>1.22</speed>
  </trkpt>
  <trkpt lat="50.536961" lon="-3.820800">
    <ele>148</ele>
    <time>2026-07-16T17:56:08Z</time>
    <speed>1.29</speed>
  </trkpt>
  <trkpt lat="50.536939" lon="-3.820627">
    <ele>148</ele>
    <time>2026-07-16T17:56:19Z</time>
    <speed>1.18</speed>
  </trkpt>
  <trkpt lat="50.536905" lon="-3.820433">
    <ele>146</ele>
    <time>2026-07-16T17:56:30Z</time>
    <speed>1.27</speed>
  </trkpt>
  <trkpt lat="50.536869" lon="-3.820242">
    <ele>146</ele>
    <time>2026-07-16T17:56:41Z</time>
    <speed>0.96</speed>
  </trkpt>
  <trkpt lat="50.536842" lon="-3.820060">
    <ele>145</ele>
    <time>2026-07-16T17:56:52Z</time>
    <speed>1.16</speed>
  </trkpt>
  <trkpt lat="50.536816" lon="-3.819867">
    <ele>145</ele>
    <time>2026-07-16T17:57:03Z</time>
    <speed>1.11</speed>
  </trkpt>
  <trkpt lat="50.536793" lon="-3.819677">
    <ele>144</ele>
    <time>2026-07-16T17:57:14Z</time>
    <speed>1.1999999</speed>
  </trkpt>
  <trkpt lat="50.536768" lon="-3.819500">
    <ele>142</ele>
    <time>2026-07-16T17:57:25Z</time>
    <speed>1.23</speed>
  </trkpt>
  <trkpt lat="50.536732" lon="-3.819301">
    <ele>143</ele>
    <time>2026-07-16T17:57:36Z</time>
    <speed>1.3299999</speed>
  </trkpt>
  <trkpt lat="50.536712" lon="-3.819096">
    <ele>141</ele>
    <time>2026-07-16T17:57:47Z</time>
    <speed>1.28</speed>
  </trkpt>
  <trkpt lat="50.536694" lon="-3.818902">
    <ele>141</ele>
    <time>2026-07-16T17:57:58Z</time>
    <speed>1.15</speed>
  </trkpt>
  <trkpt lat="50.536668" lon="-3.818711">
    <ele>141</ele>
    <time>2026-07-16T17:58:09Z</time>
    <speed>1.14</speed>
  </trkpt>
  <trkpt lat="50.536653" lon="-3.818523">
    <ele>138</ele>
    <time>2026-07-16T17:58:20Z</time>
    <speed>1.2099999</speed>
  </trkpt>
  <trkpt lat="50.536661" lon="-3.818381">
    <ele>138</ele>
    <time>2026-07-16T17:58:31Z</time>
    <speed>0.82</speed>
  </trkpt>
  <trkpt lat="50.536654" lon="-3.818226">
    <ele>137</ele>
    <time>2026-07-16T17:58:44Z</time>
    <speed>0.9</speed>
  </trkpt>
  <trkpt lat="50.536636" lon="-3.818087">
    <ele>135</ele>
    <time>2026-07-16T17:59:00Z</time>
    <speed>1.39</speed>
  </trkpt>
  <trkpt lat="50.536567" lon="-3.817956">
    <ele>133</ele>
    <time>2026-07-16T17:59:11Z</time>
    <speed>0.78</speed>
  </trkpt>
  <trkpt lat="50.536485" lon="-3.817857">
    <ele>132</ele>
    <time>2026-07-16T17:59:22Z</time>
    <speed>1.1899999</speed>
  </trkpt>
  <trkpt lat="50.536386" lon="-3.817710">
    <ele>130</ele>
    <time>2026-07-16T17:59:33Z</time>
    <speed>1.24</speed>
  </trkpt>
  <trkpt lat="50.536307" lon="-3.817540">
    <ele>130</ele>
    <time>2026-07-16T17:59:44Z</time>
    <speed>1.24</speed>
  </trkpt>
  <trkpt lat="50.536197" lon="-3.817434">
    <ele>130</ele>
    <time>2026-07-16T17:59:55Z</time>
    <speed>1.01</speed>
  </trkpt>
  <trkpt lat="50.536072" lon="-3.817353">
    <ele>129</ele>
    <time>2026-07-16T18:00:06Z</time>
    <speed>1.17</speed>
  </trkpt>
  <trkpt lat="50.536003" lon="-3.817250">
    <ele>129</ele>
    <time>2026-07-16T18:00:18Z</time>
    <speed>0.78999996</speed>
  </trkpt>
  <trkpt lat="50.535935" lon="-3.817145">
    <ele>127</ele>
    <time>2026-07-16T18:00:30Z</time>
    <speed>0.61</speed>
  </trkpt>
  <trkpt lat="50.535899" lon="-3.817013">
    <ele>125</ele>
    <time>2026-07-16T18:00:46Z</time>
    <speed>0.68</speed>
  </trkpt>
  <trkpt lat="50.535851" lon="-3.816877">
    <ele>121</ele>
    <time>2026-07-16T18:00:57Z</time>
    <speed>0.5</speed>
  </trkpt>
  <trkpt lat="50.535844" lon="-3.816732">
    <ele>121</ele>
    <time>2026-07-16T18:01:08Z</time>
    <speed>0.58</speed>
  </trkpt>
  <trkpt lat="50.535794" lon="-3.816610">
    <ele>121</ele>
    <time>2026-07-16T18:01:20Z</time>
    <speed>0.37</speed>
  </trkpt>
  <trkpt lat="50.535728" lon="-3.816500">
    <ele>120</ele>
    <time>2026-07-16T18:01:31Z</time>
    <speed>0.78999996</speed>
  </trkpt>
  <trkpt lat="50.535679" lon="-3.816355">
    <ele>118</ele>
    <time>2026-07-16T18:01:42Z</time>
    <speed>0.69</speed>
  </trkpt>
  <trkpt lat="50.535625" lon="-3.816229">
    <ele>117</ele>
    <time>2026-07-16T18:01:54Z</time>
    <speed>0.76</speed>
  </trkpt>
  <trkpt lat="50.535554" lon="-3.816089">
    <ele>115</ele>
    <time>2026-07-16T18:02:05Z</time>
    <speed>0.65999997</speed>
  </trkpt>
  <trkpt lat="50.535512" lon="-3.815953">
    <ele>112</ele>
    <time>2026-07-16T18:02:17Z</time>
    <speed>0.84</speed>
  </trkpt>
  <trkpt lat="50.535467" lon="-3.815806">
    <ele>111</ele>
    <time>2026-07-16T18:02:28Z</time>
    <speed>0.87</speed>
  </trkpt>
  <trkpt lat="50.535401" lon="-3.815669">
    <ele>108</ele>
    <time>2026-07-16T18:02:39Z</time>
    <speed>0.71</speed>
  </trkpt>
  <trkpt lat="50.535318" lon="-3.815536">
    <ele>107</ele>
    <time>2026-07-16T18:02:50Z</time>
    <speed>1.0</speed>
  </trkpt>
  <trkpt lat="50.535259" lon="-3.815389">
    <ele>108</ele>
    <time>2026-07-16T18:03:01Z</time>
    <speed>0.66999996</speed>
  </trkpt>
  <trkpt lat="50.535182" lon="-3.815263">
    <ele>107</ele>
    <time>2026-07-16T18:03:12Z</time>
    <speed>0.08</speed>
  </trkpt>
  <trkpt lat="50.535147" lon="-3.815081">
    <ele>103</ele>
    <time>2026-07-16T18:03:23Z</time>
    <speed>1.02</speed>
  </trkpt>
  <trkpt lat="50.535075" lon="-3.814972">
    <ele>104</ele>
    <time>2026-07-16T18:03:34Z</time>
    <speed>1.09</speed>
  </trkpt>
  <trkpt lat="50.535031" lon="-3.814799">
    <ele>104</ele>
    <time>2026-07-16T18:03:45Z</time>
    <speed>0.94</speed>
  </trkpt>
  <trkpt lat="50.534964" lon="-3.814698">
    <ele>103</ele>
    <time>2026-07-16T18:03:56Z</time>
    <speed>0.48999998</speed>
  </trkpt>
  <trkpt lat="50.534883" lon="-3.814551">
    <ele>101</ele>
    <time>2026-07-16T18:04:07Z</time>
    <speed>0.52</speed>
  </trkpt>
  <trkpt lat="50.534819" lon="-3.814400">
    <ele>101</ele>
    <time>2026-07-16T18:04:18Z</time>
    <speed>0.72999996</speed>
  </trkpt>
  <trkpt lat="50.534769" lon="-3.814232">
    <ele>98</ele>
    <time>2026-07-16T18:04:29Z</time>
    <speed>0.22</speed>
  </trkpt>
  <trkpt lat="50.534818" lon="-3.814052">
    <ele>99</ele>
    <time>2026-07-16T18:04:40Z</time>
    <speed>0.32</speed>
  </trkpt>
  <trkpt lat="50.534861" lon="-3.813908">
    <ele>99</ele>
    <time>2026-07-16T18:04:57Z</time>
    <speed>0.24</speed>
  </trkpt>
  <trkpt lat="50.534948" lon="-3.813826">
    <ele>98</ele>
    <time>2026-07-16T18:05:18Z</time>
    <speed>0.06</speed>
  </trkpt>
  <trkpt lat="50.534877" lon="-3.813916">
    <ele>99</ele>
    <time>2026-07-16T18:05:42Z</time>
    <speed>0.71</speed>
  </trkpt>
  <trkpt lat="50.534790" lon="-3.813858">
    <ele>97</ele>
    <time>2026-07-16T18:05:55Z</time>
    <speed>0.84999996</speed>
  </trkpt>
  <trkpt lat="50.534710" lon="-3.813781">
    <ele>97</ele>
    <time>2026-07-16T18:06:06Z</time>
    <speed>0.63</speed>
  </trkpt>
  <trkpt lat="50.534631" lon="-3.813695">
    <ele>96</ele>
    <time>2026-07-16T18:06:17Z</time>
    <speed>0.98999995</speed>
  </trkpt>
  <trkpt lat="50.534542" lon="-3.813536">
    <ele>94</ele>
    <time>2026-07-16T18:06:28Z</time>
    <speed>0.44</speed>
  </trkpt>
  <trkpt lat="50.534490" lon="-3.813347">
    <ele>93</ele>
    <time>2026-07-16T18:06:39Z</time>
    <speed>0.9</speed>
  </trkpt>
  <trkpt lat="50.534427" lon="-3.813204">
    <ele>92</ele>
    <time>2026-07-16T18:06:50Z</time>
    <speed>0.26999998</speed>
  </trkpt>
  <trkpt lat="50.534316" lon="-3.813023">
    <ele>91</ele>
    <time>2026-07-16T18:07:01Z</time>
    <speed>1.29</speed>
  </trkpt>
  <trkpt lat="50.534238" lon="-3.812931">
    <ele>89</ele>
    <time>2026-07-16T18:07:13Z</time>
    <speed>0.63</speed>
  </trkpt>
  <trkpt lat="50.534077" lon="-3.812841">
    <ele>89</ele>
    <time>2026-07-16T18:07:24Z</time>
    <speed>0.39</speed>
  </trkpt>
  <trkpt lat="50.533940" lon="-3.812688">
    <ele>87</ele>
    <time>2026-07-16T18:07:35Z</time>
    <speed>0.59999996</speed>
  </trkpt>
  <trkpt lat="50.533864" lon="-3.812534">
    <ele>85</ele>
    <time>2026-07-16T18:07:46Z</time>
    <speed>0.26</speed>
  </trkpt>
  <trkpt lat="50.533678" lon="-3.812416">
    <ele>81</ele>
    <time>2026-07-16T18:07:57Z</time>
    <speed>0.64</speed>
  </trkpt>
  <trkpt lat="50.533511" lon="-3.812365">
    <ele>79</ele>
    <time>2026-07-16T18:08:08Z</time>
    <speed>1.23</speed>
  </trkpt>
  <trkpt lat="50.533361" lon="-3.812256">
    <ele>81</ele>
    <time>2026-07-16T18:08:19Z</time>
    <speed>1.0</speed>
  </trkpt>
  <trkpt lat="50.533303" lon="-3.812119">
    <ele>80</ele>
    <time>2026-07-16T18:08:30Z</time>
    <speed>1.06</speed>
  </trkpt>
  <trkpt lat="50.533224" lon="-3.811953">
    <ele>75</ele>
    <time>2026-07-16T18:08:41Z</time>
    <speed>0.77</speed>
  </trkpt>
  <trkpt lat="50.533131" lon="-3.811784">
    <ele>76</ele>
    <time>2026-07-16T18:08:52Z</time>
    <speed>0.45</speed>
  </trkpt>
  <trkpt lat="50.533033" lon="-3.811641">
    <ele>75</ele>
    <time>2026-07-16T18:09:03Z</time>
    <speed>0.59999996</speed>
  </trkpt>
  <trkpt lat="50.532907" lon="-3.811510">
    <ele>69</ele>
    <time>2026-07-16T18:09:14Z</time>
    <speed>0.87</speed>
  </trkpt>
  <trkpt lat="50.532818" lon="-3.811373">
    <ele>66</ele>
    <time>2026-07-16T18:09:25Z</time>
    <speed>0.29999998</speed>
  </trkpt>
  <trkpt lat="50.532655" lon="-3.811297">
    <ele>67</ele>
    <time>2026-07-16T18:09:36Z</time>
    <speed>0.96999997</speed>
  </trkpt>
  <trkpt lat="50.532510" lon="-3.811261">
    <ele>62</ele>
    <time>2026-07-16T18:09:47Z</time>
    <speed>0.39</speed>
  </trkpt>
  <trkpt lat="50.532384" lon="-3.811271">
    <ele>62</ele>
    <time>2026-07-16T18:09:58Z</time>
    <speed>0.39999998</speed>
  </trkpt>
  <trkpt lat="50.532265" lon="-3.811336">
    <ele>60</ele>
    <time>2026-07-16T18:10:09Z</time>
    <speed>0.35999998</speed>
  </trkpt>
  <trkpt lat="50.532111" lon="-3.811399">
    <ele>60</ele>
    <time>2026-07-16T18:10:20Z</time>
    <speed>1.1</speed>
  </trkpt>
  <trkpt lat="50.531927" lon="-3.811467">
    <ele>59</ele>
    <time>2026-07-16T18:10:31Z</time>
    <speed>1.0699999</speed>
  </trkpt>
  <trkpt lat="50.531767" lon="-3.811516">
    <ele>58</ele>
    <time>2026-07-16T18:10:42Z</time>
    <speed>1.23</speed>
  </trkpt>
  <trkpt lat="50.531614" lon="-3.811575">
    <ele>55</ele>
    <time>2026-07-16T18:10:53Z</time>
    <speed>1.0699999</speed>
  </trkpt>
  <trkpt lat="50.531474" lon="-3.811628">
    <ele>56</ele>
    <time>2026-07-16T18:11:04Z</time>
    <speed>1.5999999</speed>
  </trkpt>
  <trkpt lat="50.531327" lon="-3.811657">
    <ele>56</ele>
    <time>2026-07-16T18:11:15Z</time>
    <speed>1.22</speed>
  </trkpt>
  <trkpt lat="50.531182" lon="-3.811728">
    <ele>53</ele>
    <time>2026-07-16T18:11:26Z</time>
    <speed>1.39</speed>
  </trkpt>
  <trkpt lat="50.531072" lon="-3.811803">
    <ele>56</ele>
    <time>2026-07-16T18:11:37Z</time>
    <speed>0.56</speed>
  </trkpt>
  <trkpt lat="50.530977" lon="-3.811865">
    <ele>56</ele>
    <time>2026-07-16T18:11:48Z</time>
    <speed>0.79999995</speed>
  </trkpt>
  <trkpt lat="50.530816" lon="-3.811976">
    <ele>55</ele>
    <time>2026-07-16T18:11:59Z</time>
    <speed>1.3399999</speed>
  </trkpt>
  <trkpt lat="50.530711" lon="-3.812117">
    <ele>56</ele>
    <time>2026-07-16T18:12:10Z</time>
    <speed>0.7</speed>
  </trkpt>
  <trkpt lat="50.530613" lon="-3.812278">
    <ele>57</ele>
    <time>2026-07-16T18:12:21Z</time>
    <speed>0.82</speed>
  </trkpt>
  <trkpt lat="50.530533" lon="-3.812453">
    <ele>57</ele>
    <time>2026-07-16T18:12:32Z</time>
    <speed>1.12</speed>
  </trkpt>
  <trkpt lat="50.530487" lon="-3.812705">
    <ele>55</ele>
    <time>2026-07-16T18:12:43Z</time>
    <speed>1.36</speed>
  </trkpt>
  <trkpt lat="50.530446" lon="-3.812896">
    <ele>57</ele>
    <time>2026-07-16T18:12:54Z</time>
    <speed>1.12</speed>
  </trkpt>
  <trkpt lat="50.530361" lon="-3.813121">
    <ele>57</ele>
    <time>2026-07-16T18:13:05Z</time>
    <speed>1.0799999</speed>
  </trkpt>
  <trkpt lat="50.530272" lon="-3.813280">
    <ele>58</ele>
    <time>2026-07-16T18:13:16Z</time>
    <speed>1.31</speed>
  </trkpt>
  <trkpt lat="50.530201" lon="-3.813444">
    <ele>69</ele>
    <time>2026-07-16T18:13:27Z</time>
    <speed>0.07</speed>
  </trkpt>
  <trkpt lat="50.530128" lon="-3.813543">
    <ele>58</ele>
    <time>2026-07-16T18:13:52Z</time>
    <speed>0.26999998</speed>
  </trkpt>
  <trkpt lat="50.530109" lon="-3.813685">
    <ele>59</ele>
    <time>2026-07-16T18:31:24Z</time>
    <speed>0.35</speed>
  </trkpt>
  <trkpt lat="50.530098" lon="-3.813826">
    <ele>60</ele>
    <time>2026-07-16T18:36:49Z</time>
    <speed>0.53999996</speed>
  </trkpt>
  <trkpt lat="50.530079" lon="-3.813988">
    <ele>62</ele>
    <time>2026-07-16T18:37:00Z</time>
    <speed>0.82</speed>
  </trkpt>
  <trkpt lat="50.530078" lon="-3.814202">
    <ele>63</ele>
    <time>2026-07-16T18:37:11Z</time>
    <speed>0.14999999</speed>
  </trkpt>
  <trkpt lat="50.530036" lon="-3.814335">
    <ele>65</ele>
    <time>2026-07-16T18:37:28Z</time>
    <speed>0.48999998</speed>
  </trkpt>
  <trkpt lat="50.529991" lon="-3.814483">
    <ele>64</ele>
    <time>2026-07-16T18:37:39Z</time>
    <speed>0.39</speed>
  </trkpt>
  <trkpt lat="50.529992" lon="-3.814638">
    <ele>66</ele>
    <time>2026-07-16T18:37:51Z</time>
    <speed>0.77</speed>
  </trkpt>
  <trkpt lat="50.530011" lon="-3.814822">
    <ele>66</ele>
    <time>2026-07-16T18:38:02Z</time>
    <speed>0.71</speed>
  </trkpt>
  <trkpt lat="50.530060" lon="-3.814960">
    <ele>69</ele>
    <time>2026-07-16T18:38:13Z</time>
    <speed>0.39999998</speed>
  </trkpt>
  <trkpt lat="50.530075" lon="-3.815118">
    <ele>71</ele>
    <time>2026-07-16T18:38:27Z</time>
    <speed>0.84</speed>
  </trkpt>
  <trkpt lat="50.530129" lon="-3.815296">
    <ele>73</ele>
    <time>2026-07-16T18:38:38Z</time>
    <speed>0.41</speed>
  </trkpt>
  <trkpt lat="50.530168" lon="-3.815425">
    <ele>74</ele>
    <time>2026-07-16T18:38:49Z</time>
    <speed>0.59999996</speed>
  </trkpt>
  <trkpt lat="50.530199" lon="-3.815583">
    <ele>74</ele>
    <time>2026-07-16T18:39:00Z</time>
    <speed>0.47</speed>
  </trkpt>
  <trkpt lat="50.530229" lon="-3.815784">
    <ele>76</ele>
    <time>2026-07-16T18:39:11Z</time>
    <speed>0.57</speed>
  </trkpt>
  <trkpt lat="50.530225" lon="-3.815929">
    <ele>76</ele>
    <time>2026-07-16T18:39:22Z</time>
    <speed>0.7</speed>
  </trkpt>
  <trkpt lat="50.530280" lon="-3.816043">
    <ele>78</ele>
    <time>2026-07-16T18:39:33Z</time>
    <speed>0.75</speed>
  </trkpt>
  <trkpt lat="50.530313" lon="-3.816189">
    <ele>82</ele>
    <time>2026-07-16T18:39:44Z</time>
    <speed>0.53</speed>
  </trkpt>
  <trkpt lat="50.530326" lon="-3.816329">
    <ele>82</ele>
    <time>2026-07-16T18:39:55Z</time>
    <speed>0.14</speed>
  </trkpt>
  <trkpt lat="50.530357" lon="-3.816463">
    <ele>84</ele>
    <time>2026-07-16T18:40:10Z</time>
    <speed>0.85999995</speed>
  </trkpt>
  <trkpt lat="50.530359" lon="-3.816656">
    <ele>86</ele>
    <time>2026-07-16T18:40:21Z</time>
    <speed>0.42999998</speed>
  </trkpt>
  <trkpt lat="50.530376" lon="-3.816797">
    <ele>89</ele>
    <time>2026-07-16T18:40:34Z</time>
    <speed>0.85999995</speed>
  </trkpt>
  <trkpt lat="50.530464" lon="-3.816892">
    <ele>90</ele>
    <time>2026-07-16T18:40:45Z</time>
    <speed>0.32</speed>
  </trkpt>
  <trkpt lat="50.530470" lon="-3.817035">
    <ele>93</ele>
    <time>2026-07-16T18:41:05Z</time>
    <speed>0.47</speed>
  </trkpt>
  <trkpt lat="50.530522" lon="-3.817194">
    <ele>96</ele>
    <time>2026-07-16T18:41:16Z</time>
    <speed>0.71</speed>
  </trkpt>
  <trkpt lat="50.530556" lon="-3.817340">
    <ele>98</ele>
    <time>2026-07-16T18:41:27Z</time>
    <speed>0.29</speed>
  </trkpt>
  <trkpt lat="50.530536" lon="-3.817488">
    <ele>100</ele>
    <time>2026-07-16T18:41:43Z</time>
    <speed>0.85999995</speed>
  </trkpt>
  <trkpt lat="50.530460" lon="-3.817606">
    <ele>102</ele>
    <time>2026-07-16T18:41:55Z</time>
    <speed>1.23</speed>
  </trkpt>
  <trkpt lat="50.530392" lon="-3.817711">
    <ele>102</ele>
    <time>2026-07-16T18:42:06Z</time>
    <speed>0.61</speed>
  </trkpt>
  <trkpt lat="50.530309" lon="-3.817820">
    <ele>103</ele>
    <time>2026-07-16T18:42:17Z</time>
    <speed>0.22999999</speed>
  </trkpt>
  <trkpt lat="50.530237" lon="-3.817917">
    <ele>103</ele>
    <time>2026-07-16T18:42:28Z</time>
    <speed>0.94</speed>
  </trkpt>
  <trkpt lat="50.530184" lon="-3.818037">
    <ele>104</ele>
    <time>2026-07-16T18:42:40Z</time>
    <speed>0.83</speed>
  </trkpt>
  <trkpt lat="50.530136" lon="-3.818159">
    <ele>105</ele>
    <time>2026-07-16T18:42:54Z</time>
    <speed>0.59999996</speed>
  </trkpt>
  <trkpt lat="50.530075" lon="-3.818265">
    <ele>107</ele>
    <time>2026-07-16T18:43:07Z</time>
    <speed>0.65999997</speed>
  </trkpt>
  <trkpt lat="50.530016" lon="-3.818383">
    <ele>109</ele>
    <time>2026-07-16T18:43:22Z</time>
    <speed>0.9</speed>
  </trkpt>
  <trkpt lat="50.529953" lon="-3.818489">
    <ele>112</ele>
    <time>2026-07-16T18:43:36Z</time>
    <speed>0.44</speed>
  </trkpt>
  <trkpt lat="50.529911" lon="-3.818617">
    <ele>113</ele>
    <time>2026-07-16T18:43:57Z</time>
    <speed>0.53999996</speed>
  </trkpt>
  <trkpt lat="50.529862" lon="-3.818735">
    <ele>115</ele>
    <time>2026-07-16T18:44:12Z</time>
    <speed>0.25</speed>
  </trkpt>
  <trkpt lat="50.529822" lon="-3.818872">
    <ele>116</ele>
    <time>2026-07-16T18:44:33Z</time>
    <speed>0.72999996</speed>
  </trkpt>
  <trkpt lat="50.529804" lon="-3.819013">
    <ele>118</ele>
    <time>2026-07-16T18:44:52Z</time>
    <speed>0.65999997</speed>
  </trkpt>
  <trkpt lat="50.529786" lon="-3.819162">
    <ele>119</ele>
    <time>2026-07-16T18:45:09Z</time>
    <speed>0.84</speed>
  </trkpt>
  <trkpt lat="50.529758" lon="-3.819299">
    <ele>120</ele>
    <time>2026-07-16T18:45:23Z</time>
    <speed>0.97999996</speed>
  </trkpt>
  <trkpt lat="50.529736" lon="-3.819443">
    <ele>122</ele>
    <time>2026-07-16T18:45:35Z</time>
    <speed>1.35</speed>
  </trkpt>
  <trkpt lat="50.529732" lon="-3.819608">
    <ele>122</ele>
    <time>2026-07-16T18:45:46Z</time>
    <speed>0.83</speed>
  </trkpt>
  <trkpt lat="50.529707" lon="-3.819750">
    <ele>124</ele>
    <time>2026-07-16T18:46:09Z</time>
    <speed>0.96999997</speed>
  </trkpt>
  <trkpt lat="50.529669" lon="-3.819881">
    <ele>124</ele>
    <time>2026-07-16T18:46:20Z</time>
    <speed>1.04</speed>
  </trkpt>
  <trkpt lat="50.529626" lon="-3.820041">
    <ele>126</ele>
    <time>2026-07-16T18:46:31Z</time>
    <speed>0.94</speed>
  </trkpt>
  <trkpt lat="50.529602" lon="-3.820193">
    <ele>128</ele>
    <time>2026-07-16T18:46:47Z</time>
    <speed>1.11</speed>
  </trkpt>
  <trkpt lat="50.529532" lon="-3.820325">
    <ele>128</ele>
    <time>2026-07-16T18:46:58Z</time>
    <speed>1.0799999</speed>
  </trkpt>
  <trkpt lat="50.529500" lon="-3.820498">
    <ele>131</ele>
    <time>2026-07-16T18:47:09Z</time>
    <speed>1.02</speed>
  </trkpt>
  <trkpt lat="50.529484" lon="-3.820668">
    <ele>132</ele>
    <time>2026-07-16T18:47:20Z</time>
    <speed>1.38</speed>
  </trkpt>
  <trkpt lat="50.529435" lon="-3.820811">
    <ele>136</ele>
    <time>2026-07-16T18:47:31Z</time>
    <speed>0.91999996</speed>
  </trkpt>
  <trkpt lat="50.529393" lon="-3.820943">
    <ele>138</ele>
    <time>2026-07-16T18:47:44Z</time>
    <speed>0.96</speed>
  </trkpt>
  <trkpt lat="50.529348" lon="-3.821075">
    <ele>139</ele>
    <time>2026-07-16T18:47:56Z</time>
    <speed>0.82</speed>
  </trkpt>
  <trkpt lat="50.529285" lon="-3.821192">
    <ele>143</ele>
    <time>2026-07-16T18:48:09Z</time>
    <speed>1.0699999</speed>
  </trkpt>
  <trkpt lat="50.529249" lon="-3.821353">
    <ele>144</ele>
    <time>2026-07-16T18:48:20Z</time>
    <speed>1.4499999</speed>
  </trkpt>
  <trkpt lat="50.529187" lon="-3.821496">
    <ele>146</ele>
    <time>2026-07-16T18:48:31Z</time>
    <speed>1.27</speed>
  </trkpt>
  <trkpt lat="50.529110" lon="-3.821570">
    <ele>146</ele>
    <time>2026-07-16T18:48:47Z</time>
    <speed>0.75</speed>
  </trkpt>
  <trkpt lat="50.529006" lon="-3.821572">
    <ele>144</ele>
    <time>2026-07-16T18:48:58Z</time>
    <speed>0.48</speed>
  </trkpt>
  <trkpt lat="50.528888" lon="-3.821477">
    <ele>148</ele>
    <time>2026-07-16T18:49:09Z</time>
    <speed>1.15</speed>
  </trkpt>
  <trkpt lat="50.528801" lon="-3.821439">
    <ele>146</ele>
    <time>2026-07-16T18:49:55Z</time>
    <speed>0.0</speed>
  </trkpt>
  <trkpt lat="50.528746" lon="-3.821557">
    <ele>147</ele>
    <time>2026-07-16T18:55:21Z</time>
    <speed>0.031641994</speed>
  </trkpt>
  <trkpt lat="50.528662" lon="-3.821633">
    <ele>147</ele>
    <time>2026-07-16T18:58:29Z</time>
    <speed>1.02</speed>
  </trkpt>
  <trkpt lat="50.528591" lon="-3.821756">
    <ele>147</ele>
    <time>2026-07-16T18:58:40Z</time>
    <speed>1.1999999</speed>
  </trkpt>
  <trkpt lat="50.528514" lon="-3.821918">
    <ele>148</ele>
    <time>2026-07-16T18:58:51Z</time>
    <speed>0.77</speed>
  </trkpt>
  <trkpt lat="50.528462" lon="-3.822098">
    <ele>147</ele>
    <time>2026-07-16T18:59:02Z</time>
    <speed>1.41</speed>
  </trkpt>
  <trkpt lat="50.528401" lon="-3.822291">
    <ele>149</ele>
    <time>2026-07-16T18:59:13Z</time>
    <speed>1.23</speed>
  </trkpt>
  <trkpt lat="50.528343" lon="-3.822468">
    <ele>149</ele>
    <time>2026-07-16T18:59:24Z</time>
    <speed>1.31</speed>
  </trkpt>
  <trkpt lat="50.528311" lon="-3.822680">
    <ele>150</ele>
    <time>2026-07-16T18:59:35Z</time>
    <speed>1.13</speed>
  </trkpt>
  <trkpt lat="50.528293" lon="-3.822819">
    <ele>151</ele>
    <time>2026-07-16T18:59:52Z</time>
    <speed>0.56</speed>
  </trkpt>
  <trkpt lat="50.528308" lon="-3.822983">
    <ele>152</ele>
    <time>2026-07-16T19:00:03Z</time>
    <speed>0.79999995</speed>
  </trkpt>
  <trkpt lat="50.528264" lon="-3.823150">
    <ele>155</ele>
    <time>2026-07-16T19:00:14Z</time>
    <speed>1.13</speed>
  </trkpt>
  <trkpt lat="50.528256" lon="-3.823362">
    <ele>154</ele>
    <time>2026-07-16T19:00:25Z</time>
    <speed>1.09</speed>
  </trkpt>
  <trkpt lat="50.528242" lon="-3.823540">
    <ele>154</ele>
    <time>2026-07-16T19:00:36Z</time>
    <speed>1.22</speed>
  </trkpt>
  <trkpt lat="50.528252" lon="-3.823725">
    <ele>158</ele>
    <time>2026-07-16T19:00:47Z</time>
    <speed>1.06</speed>
  </trkpt>
  <trkpt lat="50.528216" lon="-3.823897">
    <ele>159</ele>
    <time>2026-07-16T19:00:58Z</time>
    <speed>1.3299999</speed>
  </trkpt>
  <trkpt lat="50.528159" lon="-3.824095">
    <ele>159</ele>
    <time>2026-07-16T19:01:09Z</time>
    <speed>1.26</speed>
  </trkpt>
  <trkpt lat="50.528115" lon="-3.824224">
    <ele>158</ele>
    <time>2026-07-16T19:01:20Z</time>
    <speed>0.38</speed>
  </trkpt>
  <trkpt lat="50.528205" lon="-3.824290">
    <ele>159</ele>
    <time>2026-07-16T19:01:45Z</time>
    <speed>1.2099999</speed>
  </trkpt>
  <trkpt lat="50.528310" lon="-3.824358">
    <ele>159</ele>
    <time>2026-07-16T19:01:56Z</time>
    <speed>1.3299999</speed>
  </trkpt>
  <trkpt lat="50.528433" lon="-3.824422">
    <ele>163</ele>
    <time>2026-07-16T19:02:07Z</time>
    <speed>1.38</speed>
  </trkpt>
  <trkpt lat="50.528527" lon="-3.824508">
    <ele>165</ele>
    <time>2026-07-16T19:02:18Z</time>
    <speed>1.35</speed>
  </trkpt>
  <trkpt lat="50.528643" lon="-3.824596">
    <ele>165</ele>
    <time>2026-07-16T19:02:29Z</time>
    <speed>0.91999996</speed>
  </trkpt>
  <trkpt lat="50.528756" lon="-3.824676">
    <ele>165</ele>
    <time>2026-07-16T19:02:40Z</time>
    <speed>0.97999996</speed>
  </trkpt>
  <trkpt lat="50.528887" lon="-3.824722">
    <ele>167</ele>
    <time>2026-07-16T19:02:51Z</time>
    <speed>0.48</speed>
  </trkpt>
  <trkpt lat="50.528920" lon="-3.824857">
    <ele>168</ele>
    <time>2026-07-16T19:03:04Z</time>
    <speed>0.83</speed>
  </trkpt>
  <trkpt lat="50.528913" lon="-3.825023">
    <ele>169</ele>
    <time>2026-07-16T19:03:15Z</time>
    <speed>0.85999995</speed>
  </trkpt>
  <trkpt lat="50.528901" lon="-3.825166">
    <ele>169</ele>
    <time>2026-07-16T19:03:27Z</time>
    <speed>1.18</speed>
  </trkpt>
  <trkpt lat="50.528923" lon="-3.825344">
    <ele>171</ele>
    <time>2026-07-16T19:03:38Z</time>
    <speed>0.91999996</speed>
  </trkpt>
  <trkpt lat="50.528830" lon="-3.825357">
    <ele>170</ele>
    <time>2026-07-16T19:04:06Z</time>
    <speed>0.94</speed>
  </trkpt>
  <trkpt lat="50.528754" lon="-3.825434">
    <ele>173</ele>
    <time>2026-07-16T19:04:17Z</time>
    <speed>0.64</speed>
  </trkpt>
  <trkpt lat="50.528753" lon="-3.825606">
    <ele>172</ele>
    <time>2026-07-16T19:04:28Z</time>
    <speed>0.95</speed>
  </trkpt>
  <trkpt lat="50.528757" lon="-3.825785">
    <ele>173</ele>
    <time>2026-07-16T19:04:39Z</time>
    <speed>1.36</speed>
  </trkpt>
  <trkpt lat="50.528773" lon="-3.825939">
    <ele>176</ele>
    <time>2026-07-16T19:04:50Z</time>
    <speed>1.02</speed>
  </trkpt>
  <trkpt lat="50.528809" lon="-3.826070">
    <ele>177</ele>
    <time>2026-07-16T19:05:02Z</time>
    <speed>0.5</speed>
  </trkpt>
  <trkpt lat="50.528860" lon="-3.826188">
    <ele>180</ele>
    <time>2026-07-16T19:05:14Z</time>
    <speed>0.89</speed>
  </trkpt>
  <trkpt lat="50.528906" lon="-3.826324">
    <ele>183</ele>
    <time>2026-07-16T19:05:27Z</time>
    <speed>0.89</speed>
  </trkpt>
  <trkpt lat="50.528930" lon="-3.826471">
    <ele>186</ele>
    <time>2026-07-16T19:05:38Z</time>
    <speed>1.22</speed>
  </trkpt>
  <trkpt lat="50.528994" lon="-3.826573">
    <ele>186</ele>
    <time>2026-07-16T19:05:49Z</time>
    <speed>0.65999997</speed>
  </trkpt>
  <trkpt lat="50.529026" lon="-3.826723">
    <ele>187</ele>
    <time>2026-07-16T19:06:00Z</time>
    <speed>0.91999996</speed>
  </trkpt>
  <trkpt lat="50.529066" lon="-3.826869">
    <ele>191</ele>
    <time>2026-07-16T19:06:11Z</time>
    <speed>0.71</speed>
  </trkpt>
  <trkpt lat="50.528996" lon="-3.826976">
    <ele>192</ele>
    <time>2026-07-16T19:07:07Z</time>
    <speed>1.16</speed>
  </trkpt>
  <trkpt lat="50.528928" lon="-3.827106">
    <ele>192</ele>
    <time>2026-07-16T19:07:18Z</time>
    <speed>1.05</speed>
  </trkpt>
  <trkpt lat="50.528843" lon="-3.827238">
    <ele>195</ele>
    <time>2026-07-16T19:07:29Z</time>
    <speed>1.02</speed>
  </trkpt>
  <trkpt lat="50.528762" lon="-3.827365">
    <ele>196</ele>
    <time>2026-07-16T19:07:40Z</time>
    <speed>1.1999999</speed>
  </trkpt>
  <trkpt lat="50.528683" lon="-3.827504">
    <ele>197</ele>
    <time>2026-07-16T19:07:51Z</time>
    <speed>1.36</speed>
  </trkpt>
  <trkpt lat="50.528615" lon="-3.827621">
    <ele>198</ele>
    <time>2026-07-16T19:08:03Z</time>
    <speed>1.1999999</speed>
  </trkpt>
  <trkpt lat="50.528526" lon="-3.827756">
    <ele>199</ele>
    <time>2026-07-16T19:08:14Z</time>
    <speed>1.3399999</speed>
  </trkpt>
  <trkpt lat="50.528428" lon="-3.827925">
    <ele>199</ele>
    <time>2026-07-16T19:08:25Z</time>
    <speed>1.3</speed>
  </trkpt>
  <trkpt lat="50.528337" lon="-3.828066">
    <ele>199</ele>
    <time>2026-07-16T19:08:36Z</time>
    <speed>1.1999999</speed>
  </trkpt>
  <trkpt lat="50.528244" lon="-3.828214">
    <ele>197</ele>
    <time>2026-07-16T19:08:47Z</time>
    <speed>1.3299999</speed>
  </trkpt>
  <trkpt lat="50.528147" lon="-3.828394">
    <ele>198</ele>
    <time>2026-07-16T19:08:58Z</time>
    <speed>1.49</speed>
  </trkpt>
  <trkpt lat="50.528053" lon="-3.828558">
    <ele>198</ele>
    <time>2026-07-16T19:09:09Z</time>
    <speed>1.51</speed>
  </trkpt>
  <trkpt lat="50.527952" lon="-3.828716">
    <ele>201</ele>
    <time>2026-07-16T19:09:20Z</time>
    <speed>1.4399999</speed>
  </trkpt>
  <trkpt lat="50.527864" lon="-3.828875">
    <ele>199</ele>
    <time>2026-07-16T19:09:31Z</time>
    <speed>1.39</speed>
  </trkpt>
  <trkpt lat="50.527782" lon="-3.829026">
    <ele>203</ele>
    <time>2026-07-16T19:09:42Z</time>
    <speed>1.2099999</speed>
  </trkpt>
  <trkpt lat="50.527683" lon="-3.829143">
    <ele>204</ele>
    <time>2026-07-16T19:09:53Z</time>
    <speed>1.16</speed>
  </trkpt>
  <trkpt lat="50.527585" lon="-3.829267">
    <ele>205</ele>
    <time>2026-07-16T19:10:04Z</time>
    <speed>1.35</speed>
  </trkpt>
  <trkpt lat="50.527497" lon="-3.829446">
    <ele>204</ele>
    <time>2026-07-16T19:10:15Z</time>
    <speed>1.42</speed>
  </trkpt>
  <trkpt lat="50.527418" lon="-3.829614">
    <ele>206</ele>
    <time>2026-07-16T19:10:26Z</time>
    <speed>1.42</speed>
  </trkpt>
  <trkpt lat="50.527355" lon="-3.829771">
    <ele>208</ele>
    <time>2026-07-16T19:10:37Z</time>
    <speed>1.29</speed>
  </trkpt>
  <trkpt lat="50.527289" lon="-3.829933">
    <ele>209</ele>
    <time>2026-07-16T19:10:48Z</time>
    <speed>1.15</speed>
  </trkpt>
  <trkpt lat="50.527228" lon="-3.830106">
    <ele>209</ele>
    <time>2026-07-16T19:10:59Z</time>
    <speed>1.39</speed>
  </trkpt>
  <trkpt lat="50.527180" lon="-3.830299">
    <ele>212</ele>
    <time>2026-07-16T19:11:10Z</time>
    <speed>1.26</speed>
  </trkpt>
  <trkpt lat="50.527134" lon="-3.830485">
    <ele>213</ele>
    <time>2026-07-16T19:11:21Z</time>
    <speed>1.39</speed>
  </trkpt>
  <trkpt lat="50.527108" lon="-3.830687">
    <ele>214</ele>
    <time>2026-07-16T19:11:32Z</time>
    <speed>1.4</speed>
  </trkpt>
  <trkpt lat="50.527089" lon="-3.830895">
    <ele>213</ele>
    <time>2026-07-16T19:11:43Z</time>
    <speed>1.26</speed>
  </trkpt>
  <trkpt lat="50.527055" lon="-3.831103">
    <ele>216</ele>
    <time>2026-07-16T19:11:54Z</time>
    <speed>1.18</speed>
  </trkpt>
  <trkpt lat="50.527043" lon="-3.831303">
    <ele>218</ele>
    <time>2026-07-16T19:12:05Z</time>
    <speed>1.4</speed>
  </trkpt>
  <trkpt lat="50.527045" lon="-3.831508">
    <ele>219</ele>
    <time>2026-07-16T19:12:16Z</time>
    <speed>1.36</speed>
  </trkpt>
  <trkpt lat="50.527082" lon="-3.831713">
    <ele>217</ele>
    <time>2026-07-16T19:12:27Z</time>
    <speed>1.39</speed>
  </trkpt>
  <trkpt lat="50.527127" lon="-3.831890">
    <ele>219</ele>
    <time>2026-07-16T19:12:38Z</time>
    <speed>1.35</speed>
  </trkpt>
  <trkpt lat="50.527172" lon="-3.832085">
    <ele>220</ele>
    <time>2026-07-16T19:12:49Z</time>
    <speed>1.5699999</speed>
  </trkpt>
  <trkpt lat="50.527222" lon="-3.832263">
    <ele>222</ele>
    <time>2026-07-16T19:13:00Z</time>
    <speed>1.17</speed>
  </trkpt>
  <trkpt lat="50.527297" lon="-3.832429">
    <ele>223</ele>
    <time>2026-07-16T19:13:11Z</time>
    <speed>1.12</speed>
  </trkpt>
  <trkpt lat="50.527408" lon="-3.832542">
    <ele>225</ele>
    <time>2026-07-16T19:13:22Z</time>
    <speed>1.29</speed>
  </trkpt>
  <trkpt lat="50.527498" lon="-3.832643">
    <ele>225</ele>
    <time>2026-07-16T19:13:33Z</time>
    <speed>0.71</speed>
  </trkpt>
  <trkpt lat="50.527614" lon="-3.832726">
    <ele>227</ele>
    <time>2026-07-16T19:13:44Z</time>
    <speed>1.25</speed>
  </trkpt>
  <trkpt lat="50.527733" lon="-3.832821">
    <ele>226</ele>
    <time>2026-07-16T19:13:55Z</time>
    <speed>1.26</speed>
  </trkpt>
  <trkpt lat="50.527843" lon="-3.832904">
    <ele>230</ele>
    <time>2026-07-16T19:14:06Z</time>
    <speed>1.5</speed>
  </trkpt>
  <trkpt lat="50.527958" lon="-3.833024">
    <ele>230</ele>
    <time>2026-07-16T19:14:17Z</time>
    <speed>1.4699999</speed>
  </trkpt>
  <trkpt lat="50.528090" lon="-3.833129">
    <ele>231</ele>
    <time>2026-07-16T19:14:28Z</time>
    <speed>1.3399999</speed>
  </trkpt>
  <trkpt lat="50.528210" lon="-3.833239">
    <ele>230</ele>
    <time>2026-07-16T19:14:39Z</time>
    <speed>1.38</speed>
  </trkpt>
  <trkpt lat="50.528327" lon="-3.833359">
    <ele>230</ele>
    <time>2026-07-16T19:14:50Z</time>
    <speed>1.14</speed>
  </trkpt>
  <trkpt lat="50.528413" lon="-3.833403">
    <ele>230</ele>
    <time>2026-07-16T19:15:01Z</time>
    <speed>0.16</speed>
  </trkpt>
  <trkpt lat="50.528548" lon="-3.833416">
    <ele>231</ele>
    <time>2026-07-16T19:15:12Z</time>
    <speed>1.74</speed>
  </trkpt>
  <trkpt lat="50.528715" lon="-3.833398">
    <ele>233</ele>
    <time>2026-07-16T19:15:23Z</time>
    <speed>1.6899999</speed>
  </trkpt>
  <trkpt lat="50.528891" lon="-3.833351">
    <ele>233</ele>
    <time>2026-07-16T19:15:34Z</time>
    <speed>1.76</speed>
  </trkpt>
  <trkpt lat="50.529048" lon="-3.833262">
    <ele>230</ele>
    <time>2026-07-16T19:15:45Z</time>
    <speed>1.55</speed>
  </trkpt>
  <trkpt lat="50.529192" lon="-3.833153">
    <ele>231</ele>
    <time>2026-07-16T19:15:56Z</time>
    <speed>1.78</speed>
  </trkpt>
  <trkpt lat="50.529336" lon="-3.833033">
    <ele>231</ele>
    <time>2026-07-16T19:16:07Z</time>
    <speed>1.7099999</speed>
  </trkpt>
  <trkpt lat="50.529336" lon="-3.832778">
    <ele>236</ele>
    <time>2026-07-16T19:16:18Z</time>
    <speed>1.25</speed>
  </trkpt>
  <trkpt lat="50.529282" lon="-3.832609">
    <ele>239</ele>
    <time>2026-07-16T19:16:29Z</time>
    <speed>1.4699999</speed>
  </trkpt>
  <trkpt lat="50.529194" lon="-3.832419">
    <ele>239</ele>
    <time>2026-07-16T19:16:40Z</time>
    <speed>1.66</speed>
  </trkpt>
  <trkpt lat="50.529059" lon="-3.832286">
    <ele>240</ele>
    <time>2026-07-16T19:16:51Z</time>
    <speed>1.5699999</speed>
  </trkpt>
  <trkpt lat="50.528977" lon="-3.832091">
    <ele>241</ele>
    <time>2026-07-16T19:17:02Z</time>
    <speed>1.3399999</speed>
  </trkpt>
  <trkpt lat="50.528923" lon="-3.831905">
    <ele>239</ele>
    <time>2026-07-16T19:17:13Z</time>
    <speed>1.37</speed>
  </trkpt>
  <trkpt lat="50.528855" lon="-3.831699">
    <ele>240</ele>
    <time>2026-07-16T19:17:24Z</time>
    <speed>1.0799999</speed>
  </trkpt>
  <trkpt lat="50.528917" lon="-3.831817">
    <ele>243</ele>
    <time>2026-07-16T19:18:07Z</time>
    <speed>1.4</speed>
  </trkpt>
  <trkpt lat="50.528945" lon="-3.832001">
    <ele>242</ele>
    <time>2026-07-16T19:18:18Z</time>
    <speed>1.06</speed>
  </trkpt>
  <trkpt lat="50.529022" lon="-3.832157">
    <ele>240</ele>
    <time>2026-07-16T19:18:29Z</time>
    <speed>1.3399999</speed>
  </trkpt>
  <trkpt lat="50.529111" lon="-3.832322">
    <ele>240</ele>
    <time>2026-07-16T19:18:40Z</time>
    <speed>0.83</speed>
  </trkpt>
  <trkpt lat="50.529214" lon="-3.832482">
    <ele>239</ele>
    <time>2026-07-16T19:18:51Z</time>
    <speed>1.66</speed>
  </trkpt>
  <trkpt lat="50.529334" lon="-3.832622">
    <ele>239</ele>
    <time>2026-07-16T19:19:02Z</time>
    <speed>1.51</speed>
  </trkpt>
  <trkpt lat="50.529443" lon="-3.832738">
    <ele>235</ele>
    <time>2026-07-16T19:19:13Z</time>
    <speed>0.96999997</speed>
  </trkpt>
  <trkpt lat="50.529557" lon="-3.832846">
    <ele>233</ele>
    <time>2026-07-16T19:19:24Z</time>
    <speed>1.6899999</speed>
  </trkpt>
  <trkpt lat="50.529723" lon="-3.832827">
    <ele>231</ele>
    <time>2026-07-16T19:19:35Z</time>
    <speed>1.74</speed>
  </trkpt>
  <trkpt lat="50.529894" lon="-3.832840">
    <ele>230</ele>
    <time>2026-07-16T19:19:46Z</time>
    <speed>1.78</speed>
  </trkpt>
  <trkpt lat="50.530056" lon="-3.832845">
    <ele>234</ele>
    <time>2026-07-16T19:19:57Z</time>
    <speed>1.4399999</speed>
  </trkpt>
  <trkpt lat="50.530227" lon="-3.832844">
    <ele>234</ele>
    <time>2026-07-16T19:20:08Z</time>
    <speed>1.75</speed>
  </trkpt>
  <trkpt lat="50.530401" lon="-3.832866">
    <ele>234</ele>
    <time>2026-07-16T19:20:19Z</time>
    <speed>1.8</speed>
  </trkpt>
  <trkpt lat="50.530568" lon="-3.832877">
    <ele>230</ele>
    <time>2026-07-16T19:20:30Z</time>
    <speed>1.6899999</speed>
  </trkpt>
  <trkpt lat="50.530729" lon="-3.832935">
    <ele>235</ele>
    <time>2026-07-16T19:20:41Z</time>
    <speed>1.63</speed>
  </trkpt>
  <trkpt lat="50.530866" lon="-3.833109">
    <ele>231</ele>
    <time>2026-07-16T19:20:52Z</time>
    <speed>1.8199999</speed>
  </trkpt>
  <trkpt lat="50.530981" lon="-3.833327">
    <ele>233</ele>
    <time>2026-07-16T19:21:03Z</time>
    <speed>1.7199999</speed>
  </trkpt>
  <trkpt lat="50.531088" lon="-3.833537">
    <ele>233</ele>
    <time>2026-07-16T19:21:14Z</time>
    <speed>1.7199999</speed>
  </trkpt>
  <trkpt lat="50.531203" lon="-3.833724">
    <ele>229</ele>
    <time>2026-07-16T19:21:25Z</time>
    <speed>1.4699999</speed>
  </trkpt>
  <trkpt lat="50.531282" lon="-3.833899">
    <ele>232</ele>
    <time>2026-07-16T19:21:36Z</time>
    <speed>1.4699999</speed>
  </trkpt>
  <trkpt lat="50.531377" lon="-3.834055">
    <ele>229</ele>
    <time>2026-07-16T19:21:47Z</time>
    <speed>1.61</speed>
  </trkpt>
  <trkpt lat="50.531461" lon="-3.834231">
    <ele>231</ele>
    <time>2026-07-16T19:21:58Z</time>
    <speed>1.3199999</speed>
  </trkpt>
  <trkpt lat="50.531564" lon="-3.834374">
    <ele>229</ele>
    <time>2026-07-16T19:22:09Z</time>
    <speed>1.5</speed>
  </trkpt>
  <trkpt lat="50.531652" lon="-3.834543">
    <ele>232</ele>
    <time>2026-07-16T19:22:20Z</time>
    <speed>1.5699999</speed>
  </trkpt>
  <trkpt lat="50.531747" lon="-3.834699">
    <ele>232</ele>
    <time>2026-07-16T19:22:31Z</time>
    <speed>1.3</speed>
  </trkpt>
  <trkpt lat="50.531824" lon="-3.834863">
    <ele>233</ele>
    <time>2026-07-16T19:22:42Z</time>
    <speed>1.31</speed>
  </trkpt>
  <trkpt lat="50.531905" lon="-3.834996">
    <ele>234</ele>
    <time>2026-07-16T19:22:53Z</time>
    <speed>0.94</speed>
  </trkpt>
  <trkpt lat="50.531966" lon="-3.835151">
    <ele>234</ele>
    <time>2026-07-16T19:23:04Z</time>
    <speed>1.3199999</speed>
  </trkpt>
  <trkpt lat="50.532020" lon="-3.835306">
    <ele>236</ele>
    <time>2026-07-16T19:23:15Z</time>
    <speed>0.88</speed>
  </trkpt>
  <trkpt lat="50.532056" lon="-3.835444">
    <ele>238</ele>
    <time>2026-07-16T19:23:26Z</time>
    <speed>0.9</speed>
  </trkpt>
  <trkpt lat="50.532094" lon="-3.835585">
    <ele>239</ele>
    <time>2026-07-16T19:23:37Z</time>
    <speed>1.1</speed>
  </trkpt>
  <trkpt lat="50.532121" lon="-3.835726">
    <ele>240</ele>
    <time>2026-07-16T19:23:48Z</time>
    <speed>0.96999997</speed>
  </trkpt>
  <trkpt lat="50.532174" lon="-3.835842">
    <ele>241</ele>
    <time>2026-07-16T19:23:59Z</time>
    <speed>0.71999997</speed>
  </trkpt>
  <trkpt lat="50.532213" lon="-3.836007">
    <ele>240</ele>
    <time>2026-07-16T19:24:10Z</time>
    <speed>1.37</speed>
  </trkpt>
  <trkpt lat="50.532262" lon="-3.836154">
    <ele>243</ele>
    <time>2026-07-16T19:24:21Z</time>
    <speed>1.04</speed>
  </trkpt>
  <trkpt lat="50.532295" lon="-3.836324">
    <ele>243</ele>
    <time>2026-07-16T19:24:32Z</time>
    <speed>1.24</speed>
  </trkpt>
  <trkpt lat="50.532340" lon="-3.836469">
    <ele>243</ele>
    <time>2026-07-16T19:24:43Z</time>
    <speed>1.06</speed>
  </trkpt>
  <trkpt lat="50.532382" lon="-3.836636">
    <ele>245</ele>
    <time>2026-07-16T19:24:54Z</time>
    <speed>1.25</speed>
  </trkpt>
  <trkpt lat="50.532425" lon="-3.836814">
    <ele>245</ele>
    <time>2026-07-16T19:25:05Z</time>
    <speed>1.15</speed>
  </trkpt>
  <trkpt lat="50.532473" lon="-3.836989">
    <ele>246</ele>
    <time>2026-07-16T19:25:16Z</time>
    <speed>1.02</speed>
  </trkpt>
  <trkpt lat="50.532525" lon="-3.837165">
    <ele>247</ele>
    <time>2026-07-16T19:25:27Z</time>
    <speed>1.13</speed>
  </trkpt>
  <trkpt lat="50.532547" lon="-3.837342">
    <ele>248</ele>
    <time>2026-07-16T19:25:38Z</time>
    <speed>1.14</speed>
  </trkpt>
  <trkpt lat="50.532589" lon="-3.837512">
    <ele>250</ele>
    <time>2026-07-16T19:25:49Z</time>
    <speed>1.3199999</speed>
  </trkpt>
  <trkpt lat="50.532635" lon="-3.837695">
    <ele>250</ele>
    <time>2026-07-16T19:26:00Z</time>
    <speed>0.84</speed>
  </trkpt>
  <trkpt lat="50.532674" lon="-3.837859">
    <ele>251</ele>
    <time>2026-07-16T19:26:11Z</time>
    <speed>1.4399999</speed>
  </trkpt>
  <trkpt lat="50.532742" lon="-3.838025">
    <ele>252</ele>
    <time>2026-07-16T19:26:22Z</time>
    <speed>1.37</speed>
  </trkpt>
  <trkpt lat="50.532825" lon="-3.838195">
    <ele>253</ele>
    <time>2026-07-16T19:26:33Z</time>
    <speed>1.3</speed>
  </trkpt>
  <trkpt lat="50.532891" lon="-3.838300">
    <ele>254</ele>
    <time>2026-07-16T19:26:44Z</time>
    <speed>1.03</speed>
  </trkpt>
  <trkpt lat="50.533005" lon="-3.838410">
    <ele>252</ele>
    <time>2026-07-16T19:26:55Z</time>
    <speed>1.41</speed>
  </trkpt>
  <trkpt lat="50.533091" lon="-3.838512">
    <ele>254</ele>
    <time>2026-07-16T19:27:06Z</time>
    <speed>1.03</speed>
  </trkpt>
  <trkpt lat="50.533185" lon="-3.838588">
    <ele>255</ele>
    <time>2026-07-16T19:27:17Z</time>
    <speed>1.25</speed>
  </trkpt>
  <trkpt lat="50.533282" lon="-3.838666">
    <ele>257</ele>
    <time>2026-07-16T19:27:28Z</time>
    <speed>1.1899999</speed>
  </trkpt>
  <trkpt lat="50.533397" lon="-3.838706">
    <ele>258</ele>
    <time>2026-07-16T19:27:39Z</time>
    <speed>0.81</speed>
  </trkpt>
  <trkpt lat="50.533514" lon="-3.838727">
    <ele>258</ele>
    <time>2026-07-16T19:27:50Z</time>
    <speed>1.04</speed>
  </trkpt>
  <trkpt lat="50.533629" lon="-3.838752">
    <ele>258</ele>
    <time>2026-07-16T19:28:01Z</time>
    <speed>1.3399999</speed>
  </trkpt>
  <trkpt lat="50.533758" lon="-3.838784">
    <ele>257</ele>
    <time>2026-07-16T19:28:12Z</time>
    <speed>1.35</speed>
  </trkpt>
  <trkpt lat="50.533890" lon="-3.838807">
    <ele>259</ele>
    <time>2026-07-16T19:28:23Z</time>
    <speed>1.17</speed>
  </trkpt>
  <trkpt lat="50.534006" lon="-3.838830">
    <ele>260</ele>
    <time>2026-07-16T19:28:34Z</time>
    <speed>1.28</speed>
  </trkpt>
  <trkpt lat="50.534121" lon="-3.838849">
    <ele>260</ele>
    <time>2026-07-16T19:28:45Z</time>
    <speed>1.37</speed>
  </trkpt>
  <trkpt lat="50.534240" lon="-3.838876">
    <ele>259</ele>
    <time>2026-07-16T19:28:56Z</time>
    <speed>1.1999999</speed>
  </trkpt>
  <trkpt lat="50.534370" lon="-3.838921">
    <ele>261</ele>
    <time>2026-07-16T19:29:07Z</time>
    <speed>1.18</speed>
  </trkpt>
  <trkpt lat="50.534485" lon="-3.838932">
    <ele>261</ele>
    <time>2026-07-16T19:29:18Z</time>
    <speed>0.94</speed>
  </trkpt>
  <trkpt lat="50.534611" lon="-3.838969">
    <ele>262</ele>
    <time>2026-07-16T19:29:29Z</time>
    <speed>1.16</speed>
  </trkpt>
  <trkpt lat="50.534728" lon="-3.839004">
    <ele>262</ele>
    <time>2026-07-16T19:29:40Z</time>
    <speed>1.29</speed>
  </trkpt>
  <trkpt lat="50.534854" lon="-3.839092">
    <ele>260</ele>
    <time>2026-07-16T19:29:51Z</time>
    <speed>1.4599999</speed>
  </trkpt>
  <trkpt lat="50.534975" lon="-3.839170">
    <ele>263</ele>
    <time>2026-07-16T19:30:02Z</time>
    <speed>1.18</speed>
  </trkpt>
  <trkpt lat="50.535087" lon="-3.839260">
    <ele>265</ele>
    <time>2026-07-16T19:30:13Z</time>
    <speed>1.18</speed>
  </trkpt>
  <trkpt lat="50.535205" lon="-3.839344">
    <ele>264</ele>
    <time>2026-07-16T19:30:24Z</time>
    <speed>1.03</speed>
  </trkpt>
  <trkpt lat="50.535306" lon="-3.839431">
    <ele>261</ele>
    <time>2026-07-16T19:30:35Z</time>
    <speed>1.35</speed>
  </trkpt>
  <trkpt lat="50.535410" lon="-3.839533">
    <ele>254</ele>
    <time>2026-07-16T19:30:46Z</time>
    <speed>1.1899999</speed>
  </trkpt>
  <trkpt lat="50.535518" lon="-3.839610">
    <ele>262</ele>
    <time>2026-07-16T19:30:57Z</time>
    <speed>1.24</speed>
  </trkpt>
  <trkpt lat="50.535636" lon="-3.839705">
    <ele>262</ele>
    <time>2026-07-16T19:31:08Z</time>
    <speed>1.01</speed>
  </trkpt>
  <trkpt lat="50.535730" lon="-3.839782">
    <ele>264</ele>
    <time>2026-07-16T19:31:19Z</time>
    <speed>1.4499999</speed>
  </trkpt>
  <trkpt lat="50.535839" lon="-3.839874">
    <ele>263</ele>
    <time>2026-07-16T19:31:30Z</time>
    <speed>1.1999999</speed>
  </trkpt>
  <trkpt lat="50.535925" lon="-3.839974">
    <ele>263</ele>
    <time>2026-07-16T19:31:41Z</time>
    <speed>1.3299999</speed>
  </trkpt>
  <trkpt lat="50.536006" lon="-3.840099">
    <ele>262</ele>
    <time>2026-07-16T19:31:52Z</time>
    <speed>1.36</speed>
  </trkpt>
  <trkpt lat="50.536096" lon="-3.840236">
    <ele>261</ele>
    <time>2026-07-16T19:32:03Z</time>
    <speed>1.4399999</speed>
  </trkpt>
  <trkpt lat="50.536177" lon="-3.840379">
    <ele>262</ele>
    <time>2026-07-16T19:32:14Z</time>
    <speed>1.3399999</speed>
  </trkpt>
  <trkpt lat="50.536258" lon="-3.840512">
    <ele>262</ele>
    <time>2026-07-16T19:32:25Z</time>
    <speed>1.27</speed>
  </trkpt>
  <trkpt lat="50.536337" lon="-3.840640">
    <ele>259</ele>
    <time>2026-07-16T19:32:36Z</time>
    <speed>1.24</speed>
  </trkpt>
  <trkpt lat="50.536419" lon="-3.840799">
    <ele>260</ele>
    <time>2026-07-16T19:32:47Z</time>
    <speed>1.1899999</speed>
  </trkpt>
  <trkpt lat="50.536499" lon="-3.840957">
    <ele>259</ele>
    <time>2026-07-16T19:32:58Z</time>
    <speed>1.31</speed>
  </trkpt>
  <trkpt lat="50.536588" lon="-3.841110">
    <ele>259</ele>
    <time>2026-07-16T19:33:09Z</time>
    <speed>1.39</speed>
  </trkpt>
  <trkpt lat="50.536671" lon="-3.841270">
    <ele>258</ele>
    <time>2026-07-16T19:33:20Z</time>
    <speed>1.1999999</speed>
  </trkpt>
  <trkpt lat="50.536740" lon="-3.841467">
    <ele>256</ele>
    <time>2026-07-16T19:33:31Z</time>
    <speed>1.5699999</speed>
  </trkpt>
  <trkpt lat="50.536804" lon="-3.841609">
    <ele>258</ele>
    <time>2026-07-16T19:33:42Z</time>
    <speed>0.0</speed>
  </trkpt>
  <trkpt lat="50.536861" lon="-3.841741">
    <ele>259</ele>
    <time>2026-07-16T19:33:54Z</time>
    <speed>0.9362273</speed>
  </trkpt>
  <trkpt lat="50.536910" lon="-3.841938">
    <ele>259</ele>
    <time>2026-07-16T19:34:05Z</time>
    <speed>1.3399999</speed>
  </trkpt>
  <trkpt lat="50.536948" lon="-3.842115">
    <ele>259</ele>
    <time>2026-07-16T19:34:16Z</time>
    <speed>0.58</speed>
  </trkpt>
  <trkpt lat="50.536992" lon="-3.842279">
    <ele>261</ele>
    <time>2026-07-16T19:34:27Z</time>
    <speed>1.01</speed>
  </trkpt>
  <trkpt lat="50.537030" lon="-3.842443">
    <ele>260</ele>
    <time>2026-07-16T19:34:38Z</time>
    <speed>1.01</speed>
  </trkpt>
  <trkpt lat="50.537105" lon="-3.842561">
    <ele>263</ele>
    <time>2026-07-16T19:34:49Z</time>
    <speed>1.18</speed>
  </trkpt>
  <trkpt lat="50.537188" lon="-3.842621">
    <ele>264</ele>
    <time>2026-07-16T19:35:01Z</time>
    <speed>0.7</speed>
  </trkpt>
  <trkpt lat="50.537285" lon="-3.842568">
    <ele>268</ele>
    <time>2026-07-16T19:35:12Z</time>
    <speed>0.84999996</speed>
  </trkpt>
  <trkpt lat="50.537371" lon="-3.842521">
    <ele>269</ele>
    <time>2026-07-16T19:35:24Z</time>
    <speed>1.15</speed>
  </trkpt>
  <trkpt lat="50.537472" lon="-3.842454">
    <ele>270</ele>
    <time>2026-07-16T19:35:35Z</time>
    <speed>0.97999996</speed>
  </trkpt>
  <trkpt lat="50.537555" lon="-3.842385">
    <ele>269</ele>
    <time>2026-07-16T19:35:46Z</time>
    <speed>1.04</speed>
  </trkpt>
  <trkpt lat="50.537646" lon="-3.842356">
    <ele>272</ele>
    <time>2026-07-16T19:35:58Z</time>
    <speed>1.11</speed>
  </trkpt>
  <trkpt lat="50.537739" lon="-3.842303">
    <ele>273</ele>
    <time>2026-07-16T19:36:16Z</time>
    <speed>1.02</speed>
  </trkpt>
  <trkpt lat="50.537837" lon="-3.842335">
    <ele>274</ele>
    <time>2026-07-16T19:36:27Z</time>
    <speed>1.09</speed>
  </trkpt>
  <trkpt lat="50.537934" lon="-3.842377">
    <ele>275</ele>
    <time>2026-07-16T19:36:38Z</time>
    <speed>1.1899999</speed>
  </trkpt>
  <trkpt lat="50.538021" lon="-3.842454">
    <ele>275</ele>
    <time>2026-07-16T19:36:55Z</time>
    <speed>1.18</speed>
  </trkpt>
  <trkpt lat="50.538107" lon="-3.842505">
    <ele>278</ele>
    <time>2026-07-16T19:37:07Z</time>
    <speed>1.0699999</speed>
  </trkpt>
  <trkpt lat="50.538200" lon="-3.842562">
    <ele>278</ele>
    <time>2026-07-16T19:37:18Z</time>
    <speed>1.05</speed>
  </trkpt>
  <trkpt lat="50.538299" lon="-3.842609">
    <ele>278</ele>
    <time>2026-07-16T19:37:29Z</time>
    <speed>0.91999996</speed>
  </trkpt>
  <trkpt lat="50.538400" lon="-3.842702">
    <ele>279</ele>
    <time>2026-07-16T19:37:40Z</time>
    <speed>1.17</speed>
  </trkpt>
  <trkpt lat="50.538520" lon="-3.842734">
    <ele>278</ele>
    <time>2026-07-16T19:37:51Z</time>
    <speed>1.0</speed>
  </trkpt>
  <trkpt lat="50.538597" lon="-3.842809">
    <ele>280</ele>
    <time>2026-07-16T19:38:02Z</time>
    <speed>0.13</speed>
  </trkpt>
  <trkpt lat="50.538689" lon="-3.842858">
    <ele>280</ele>
    <time>2026-07-16T19:38:26Z</time>
    <speed>1.03</speed>
  </trkpt>
  <trkpt lat="50.538806" lon="-3.842912">
    <ele>281</ele>
    <time>2026-07-16T19:38:37Z</time>
    <speed>1.16</speed>
  </trkpt>
  <trkpt lat="50.538930" lon="-3.842989">
    <ele>282</ele>
    <time>2026-07-16T19:38:48Z</time>
    <speed>1.35</speed>
  </trkpt>
  <trkpt lat="50.539021" lon="-3.843038">
    <ele>282</ele>
    <time>2026-07-16T19:39:00Z</time>
    <speed>1.86</speed>
  </trkpt>
  <trkpt lat="50.539157" lon="-3.843127">
    <ele>282</ele>
    <time>2026-07-16T19:39:11Z</time>
    <speed>1.0799999</speed>
  </trkpt>
  <trkpt lat="50.539255" lon="-3.843196">
    <ele>283</ele>
    <time>2026-07-16T19:39:22Z</time>
    <speed>0.95</speed>
  </trkpt>
  <trkpt lat="50.539368" lon="-3.843220">
    <ele>283</ele>
    <time>2026-07-16T19:39:33Z</time>
    <speed>1.14</speed>
  </trkpt>
  <trkpt lat="50.539490" lon="-3.843279">
    <ele>282</ele>
    <time>2026-07-16T19:39:44Z</time>
    <speed>1.1999999</speed>
  </trkpt>
  <trkpt lat="50.539625" lon="-3.843209">
    <ele>282</ele>
    <time>2026-07-16T19:39:55Z</time>
    <speed>1.27</speed>
  </trkpt>
  <trkpt lat="50.539760" lon="-3.843135">
    <ele>281</ele>
    <time>2026-07-16T19:40:06Z</time>
    <speed>1.63</speed>
  </trkpt>
  <trkpt lat="50.539883" lon="-3.843031">
    <ele>281</ele>
    <time>2026-07-16T19:40:17Z</time>
    <speed>1.37</speed>
  </trkpt>
  <trkpt lat="50.539984" lon="-3.842949">
    <ele>283</ele>
    <time>2026-07-16T19:40:28Z</time>
    <speed>1.39</speed>
  </trkpt>
  <trkpt lat="50.540119" lon="-3.842858">
    <ele>283</ele>
    <time>2026-07-16T19:40:39Z</time>
    <speed>1.3</speed>
  </trkpt>
  <trkpt lat="50.540232" lon="-3.842765">
    <ele>282</ele>
    <time>2026-07-16T19:40:50Z</time>
    <speed>1.2099999</speed>
  </trkpt>
  <trkpt lat="50.540327" lon="-3.842692">
    <ele>284</ele>
    <time>2026-07-16T19:41:01Z</time>
    <speed>1.0699999</speed>
  </trkpt>
  <trkpt lat="50.540439" lon="-3.842609">
    <ele>284</ele>
    <time>2026-07-16T19:41:12Z</time>
    <speed>0.91999996</speed>
  </trkpt>
  <trkpt lat="50.540526" lon="-3.842540">
    <ele>286</ele>
    <time>2026-07-16T19:41:23Z</time>
    <speed>1.31</speed>
  </trkpt>
  <trkpt lat="50.540623" lon="-3.842600">
    <ele>283</ele>
    <time>2026-07-16T19:41:34Z</time>
    <speed>1.02</speed>
  </trkpt>
  <trkpt lat="50.540700" lon="-3.842751">
    <ele>288</ele>
    <time>2026-07-16T19:41:45Z</time>
    <speed>0.9</speed>
  </trkpt>
  <trkpt lat="50.540772" lon="-3.842859">
    <ele>288</ele>
    <time>2026-07-16T19:41:56Z</time>
    <speed>0.9</speed>
  </trkpt>
  <trkpt lat="50.540810" lon="-3.842995">
    <ele>288</ele>
    <time>2026-07-16T19:42:07Z</time>
    <speed>0.74</speed>
  </trkpt>
  <trkpt lat="50.540859" lon="-3.843160">
    <ele>290</ele>
    <time>2026-07-16T19:42:18Z</time>
    <speed>1.0</speed>
  </trkpt>
  <trkpt lat="50.540883" lon="-3.843320">
    <ele>291</ele>
    <time>2026-07-16T19:42:29Z</time>
    <speed>1.12</speed>
  </trkpt>
  <trkpt lat="50.540920" lon="-3.843478">
    <ele>291</ele>
    <time>2026-07-16T19:42:40Z</time>
    <speed>1.04</speed>
  </trkpt>
  <trkpt lat="50.540950" lon="-3.843677">
    <ele>293</ele>
    <time>2026-07-16T19:42:51Z</time>
    <speed>1.4</speed>
  </trkpt>
  <trkpt lat="50.540986" lon="-3.843875">
    <ele>290</ele>
    <time>2026-07-16T19:43:02Z</time>
    <speed>1.0699999</speed>
  </trkpt>
  <trkpt lat="50.541036" lon="-3.844046">
    <ele>292</ele>
    <time>2026-07-16T19:43:13Z</time>
    <speed>0.90999997</speed>
  </trkpt>
  <trkpt lat="50.541089" lon="-3.844194">
    <ele>294</ele>
    <time>2026-07-16T19:43:24Z</time>
    <speed>1.03</speed>
  </trkpt>
  <trkpt lat="50.541156" lon="-3.844293">
    <ele>295</ele>
    <time>2026-07-16T19:43:42Z</time>
    <speed>0.83</speed>
  </trkpt>
  <trkpt lat="50.541243" lon="-3.844246">
    <ele>295</ele>
    <time>2026-07-16T19:45:04Z</time>
    <speed>0.94</speed>
  </trkpt>
  <trkpt lat="50.541328" lon="-3.844194">
    <ele>296</ele>
    <time>2026-07-16T19:45:20Z</time>
    <speed>1.06</speed>
  </trkpt>
  <trkpt lat="50.541418" lon="-3.844108">
    <ele>297</ele>
    <time>2026-07-16T19:45:31Z</time>
    <speed>1.11</speed>
  </trkpt>
  <trkpt lat="50.541523" lon="-3.844047">
    <ele>298</ele>
    <time>2026-07-16T19:45:42Z</time>
    <speed>1.28</speed>
  </trkpt>
  <trkpt lat="50.541628" lon="-3.843994">
    <ele>298</ele>
    <time>2026-07-16T19:45:53Z</time>
    <speed>1.1999999</speed>
  </trkpt>
  <trkpt lat="50.541746" lon="-3.843960">
    <ele>300</ele>
    <time>2026-07-16T19:46:04Z</time>
    <speed>1.09</speed>
  </trkpt>
  <trkpt lat="50.541857" lon="-3.843896">
    <ele>300</ele>
    <time>2026-07-16T19:46:15Z</time>
    <speed>1.3299999</speed>
  </trkpt>
  <trkpt lat="50.541971" lon="-3.843798">
    <ele>302</ele>
    <time>2026-07-16T19:46:26Z</time>
    <speed>1.5699999</speed>
  </trkpt>
  <trkpt lat="50.542089" lon="-3.843760">
    <ele>302</ele>
    <time>2026-07-16T19:46:37Z</time>
    <speed>1.29</speed>
  </trkpt>
  <trkpt lat="50.542214" lon="-3.843707">
    <ele>303</ele>
    <time>2026-07-16T19:46:48Z</time>
    <speed>1.3299999</speed>
  </trkpt>
  <trkpt lat="50.542337" lon="-3.843664">
    <ele>304</ele>
    <time>2026-07-16T19:46:59Z</time>
    <speed>1.31</speed>
  </trkpt>
  <trkpt lat="50.542473" lon="-3.843612">
    <ele>305</ele>
    <time>2026-07-16T19:47:10Z</time>
    <speed>1.55</speed>
  </trkpt>
  <trkpt lat="50.542612" lon="-3.843561">
    <ele>303</ele>
    <time>2026-07-16T19:47:21Z</time>
    <speed>1.53</speed>
  </trkpt>
  <trkpt lat="50.542753" lon="-3.843492">
    <ele>304</ele>
    <time>2026-07-16T19:47:32Z</time>
    <speed>1.51</speed>
  </trkpt>
  <trkpt lat="50.542885" lon="-3.843432">
    <ele>306</ele>
    <time>2026-07-16T19:47:43Z</time>
    <speed>1.3</speed>
  </trkpt>
  <trkpt lat="50.542974" lon="-3.843401">
    <ele>305</ele>
    <time>2026-07-16T19:48:04Z</time>
    <speed>0.24</speed>
  </trkpt>
 </trkseg>
</trk>
</gpx>
