<gpx version="1.1" creator="Your Creator Name"><trk><trkseg><trkpt lat="50.607463" lon="-3.808917"><ele>410.0</ele></trkpt><trkpt lat="50.607485" lon="-3.80922"><ele>408.0</ele></trkpt><trkpt lat="50.607695" lon="-3.809438"><ele>405.0</ele></trkpt><trkpt lat="50.609041" lon="-3.809466"><ele>394.0</ele></trkpt><trkpt lat="50.609588" lon="-3.809722"><ele>391.0</ele></trkpt><trkpt lat="50.610676" lon="-3.810606"><ele>373.0</ele></trkpt><trkpt lat="50.611332" lon="-3.810786"><ele>355.0</ele></trkpt><trkpt lat="50.611752" lon="-3.81114"><ele>369.0</ele></trkpt><trkpt lat="50.612258" lon="-3.81194"><ele>368.0</ele></trkpt><trkpt lat="50.612972" lon="-3.811925"><ele>366.0</ele></trkpt><trkpt lat="50.613844" lon="-3.812336"><ele>360.0</ele></trkpt><trkpt lat="50.614589" lon="-3.812475"><ele>354.0</ele></trkpt><trkpt lat="50.615813" lon="-3.813264"><ele>359.0</ele></trkpt><trkpt lat="50.617274" lon="-3.812394"><ele>351.0</ele></trkpt><trkpt lat="50.61772" lon="-3.81239"><ele>349.0</ele></trkpt><trkpt lat="50.618226" lon="-3.812694"><ele>345.0</ele></trkpt><trkpt lat="50.620725" lon="-3.813418"><ele>323.0</ele></trkpt><trkpt lat="50.622065" lon="-3.814331"><ele>328.0</ele></trkpt><trkpt lat="50.623042" lon="-3.814784"><ele>317.0</ele></trkpt><trkpt lat="50.623664" lon="-3.814795"><ele>311.0</ele></trkpt><trkpt lat="50.62434" lon="-3.815034"><ele>309.0</ele></trkpt><trkpt lat="50.624768" lon="-3.814622"><ele>306.0</ele></trkpt><trkpt lat="50.625809" lon="-3.814199"><ele>303.0</ele></trkpt><trkpt lat="50.62611" lon="-3.814538"><ele>307.0</ele></trkpt><trkpt lat="50.627142" lon="-3.817302"><ele>308.0</ele></trkpt><trkpt lat="50.627008" lon="-3.816968"><ele>307.0</ele></trkpt><trkpt lat="50.626937" lon="-3.817092"><ele>316.0</ele></trkpt><trkpt lat="50.626906" lon="-3.817797"><ele>320.0</ele></trkpt><trkpt lat="50.627481" lon="-3.819697"><ele>312.0</ele></trkpt><trkpt lat="50.627365" lon="-3.819945"><ele>313.0</ele></trkpt><trkpt lat="50.626713" lon="-3.820417"><ele>275.0</ele></trkpt><trkpt lat="50.626531" lon="-3.820803"><ele>322.0</ele></trkpt><trkpt lat="50.626754" lon="-3.820353"><ele>323.0</ele></trkpt><trkpt lat="50.627449" lon="-3.819879"><ele>309.0</ele></trkpt><trkpt lat="50.627153" lon="-3.821131"><ele>310.0</ele></trkpt><trkpt lat="50.627619" lon="-3.822599"><ele>311.0</ele></trkpt><trkpt lat="50.627476" lon="-3.823438"><ele>315.0</ele></trkpt><trkpt lat="50.627651" lon="-3.82544"><ele>317.0</ele></trkpt><trkpt lat="50.627971" lon="-3.826138"><ele>318.0</ele></trkpt><trkpt lat="50.626935" lon="-3.827337"><ele>347.0</ele></trkpt><trkpt lat="50.626283" lon="-3.827578"><ele>362.0</ele></trkpt><trkpt lat="50.625826" lon="-3.827947"><ele>365.0</ele></trkpt><trkpt lat="50.625246" lon="-3.829411"><ele>386.0</ele></trkpt><trkpt lat="50.624262" lon="-3.830379"><ele>402.0</ele></trkpt><trkpt lat="50.624212" lon="-3.830818"><ele>406.0</ele></trkpt><trkpt lat="50.623856" lon="-3.831205"><ele>410.0</ele></trkpt><trkpt lat="50.623657" lon="-3.832065"><ele>421.0</ele></trkpt><trkpt lat="50.62309" lon="-3.833293"><ele>430.0</ele></trkpt><trkpt lat="50.622206" lon="-3.83466"><ele>443.0</ele></trkpt><trkpt lat="50.621896" lon="-3.835684"><ele>456.0</ele></trkpt><trkpt lat="50.621584" lon="-3.835926"><ele>457.0</ele></trkpt><trkpt lat="50.621409" lon="-3.836812"><ele>463.0</ele></trkpt><trkpt lat="50.620415" lon="-3.838855"><ele>490.0</ele></trkpt><trkpt lat="50.620157" lon="-3.839864"><ele>499.0</ele></trkpt><trkpt lat="50.618774" lon="-3.840859"><ele>508.0</ele></trkpt><trkpt lat="50.617328" lon="-3.840457"><ele>518.0</ele></trkpt><trkpt lat="50.61667" lon="-3.840715"><ele>519.0</ele></trkpt><trkpt lat="50.616331" lon="-3.841049"><ele>514.0</ele></trkpt><trkpt lat="50.615418" lon="-3.83979"><ele>495.0</ele></trkpt><trkpt lat="50.614538" lon="-3.83964"><ele>482.0</ele></trkpt><trkpt lat="50.612971" lon="-3.838764"><ele>472.0</ele></trkpt><trkpt lat="50.613051" lon="-3.838056"><ele>474.0</ele></trkpt><trkpt lat="50.612895" lon="-3.837223"><ele>483.0</ele></trkpt><trkpt lat="50.61102" lon="-3.835828"><ele>528.0</ele></trkpt><trkpt lat="50.610551" lon="-3.8349"><ele>541.0</ele></trkpt><trkpt lat="50.610386" lon="-3.83425"><ele>546.0</ele></trkpt><trkpt lat="50.610963" lon="-3.831777"><ele>541.0</ele></trkpt><trkpt lat="50.610757" lon="-3.828749"><ele>531.0</ele></trkpt><trkpt lat="50.611694" lon="-3.825663"><ele>520.0</ele></trkpt><trkpt lat="50.612186" lon="-3.822836"><ele>507.0</ele></trkpt><trkpt lat="50.611755" lon="-3.820732"><ele>497.0</ele></trkpt><trkpt lat="50.611891" lon="-3.819842"><ele>490.0</ele></trkpt><trkpt lat="50.610728" lon="-3.81673"><ele>445.0</ele></trkpt><trkpt lat="50.610214" lon="-3.81609"><ele>436.0</ele></trkpt><trkpt lat="50.609369" lon="-3.814186"><ele>427.0</ele></trkpt><trkpt lat="50.608208" lon="-3.812264"><ele>415.0</ele></trkpt><trkpt lat="50.607445" lon="-3.808877"><ele>400.0</ele></trkpt></trkseg></trk></gpx>