<gpx version="1.1" creator="Your Creator Name"><trk><trkseg><trkpt lat="50.543261" lon="-3.842319"><ele>305.0</ele></trkpt><trkpt lat="50.542669" lon="-3.839026"><ele>289.0</ele></trkpt><trkpt lat="50.54287" lon="-3.836509"><ele>267.0</ele></trkpt><trkpt lat="50.543034" lon="-3.836046"><ele>263.0</ele></trkpt><trkpt lat="50.543339" lon="-3.836427"><ele>260.0</ele></trkpt><trkpt lat="50.544352" lon="-3.836028"><ele>249.0</ele></trkpt><trkpt lat="50.544501" lon="-3.836187"><ele>248.0</ele></trkpt><trkpt lat="50.544921" lon="-3.836081"><ele>244.0</ele></trkpt><trkpt lat="50.546491" lon="-3.835241"><ele>229.0</ele></trkpt><trkpt lat="50.547179" lon="-3.835262"><ele>224.0</ele></trkpt><trkpt lat="50.547835" lon="-3.835049"><ele>219.0</ele></trkpt><trkpt lat="50.548399" lon="-3.835114"><ele>214.0</ele></trkpt><trkpt lat="50.548115" lon="-3.834447"><ele>213.0</ele></trkpt><trkpt lat="50.546787" lon="-3.833103"><ele>216.0</ele></trkpt><trkpt lat="50.545505" lon="-3.830324"><ele>214.0</ele></trkpt><trkpt lat="50.54481" lon="-3.827751"><ele>227.0</ele></trkpt><trkpt lat="50.544375" lon="-3.823966"><ele>231.0</ele></trkpt><trkpt lat="50.54395" lon="-3.822413"><ele>216.0</ele></trkpt><trkpt lat="50.543935" lon="-3.820644"><ele>197.0</ele></trkpt><trkpt lat="50.543571" lon="-3.820084"><ele>188.0</ele></trkpt><trkpt lat="50.542006" lon="-3.819785"><ele>165.0</ele></trkpt><trkpt lat="50.541861" lon="-3.820235"><ele>165.0</ele></trkpt><trkpt lat="50.540552" lon="-3.820784"><ele>162.0</ele></trkpt><trkpt lat="50.539287" lon="-3.821773"><ele>153.0</ele></trkpt><trkpt lat="50.539085" lon="-3.822442"><ele>152.0</ele></trkpt><trkpt lat="50.538322" lon="-3.822874"><ele>153.0</ele></trkpt><trkpt lat="50.538172" lon="-3.823467"><ele>155.0</ele></trkpt><trkpt lat="50.537016" lon="-3.823433"><ele>157.0</ele></trkpt><trkpt lat="50.537109" lon="-3.82171"><ele>151.0</ele></trkpt><trkpt lat="50.536636" lon="-3.818087"><ele>135.0</ele></trkpt><trkpt lat="50.535935" lon="-3.817145"><ele>127.0</ele></trkpt><trkpt lat="50.534819" lon="-3.8144"><ele>101.0</ele></trkpt><trkpt lat="50.534948" lon="-3.813826"><ele>98.0</ele></trkpt><trkpt lat="50.534877" lon="-3.813916"><ele>99.0</ele></trkpt><trkpt lat="50.534631" lon="-3.813695"><ele>96.0</ele></trkpt><trkpt lat="50.534316" lon="-3.813023"><ele>91.0</ele></trkpt><trkpt lat="50.533864" lon="-3.812534"><ele>85.0</ele></trkpt><trkpt lat="50.533361" lon="-3.812256"><ele>81.0</ele></trkpt><trkpt lat="50.532818" lon="-3.811373"><ele>66.0</ele></trkpt><trkpt lat="50.53251" lon="-3.811261"><ele>62.0</ele></trkpt><trkpt lat="50.530816" lon="-3.811976"><ele>55.0</ele></trkpt><trkpt lat="50.530128" lon="-3.813543"><ele>58.0</ele></trkpt><trkpt lat="50.530011" lon="-3.814822"><ele>66.0</ele></trkpt><trkpt lat="50.530536" lon="-3.817488"><ele>100.0</ele></trkpt><trkpt lat="50.529862" lon="-3.818735"><ele>115.0</ele></trkpt><trkpt lat="50.529187" lon="-3.821496"><ele>146.0</ele></trkpt><trkpt lat="50.529006" lon="-3.821572"><ele>144.0</ele></trkpt><trkpt lat="50.528801" lon="-3.821439"><ele>146.0</ele></trkpt><trkpt lat="50.528343" lon="-3.822468"><ele>149.0</ele></trkpt><trkpt lat="50.528115" lon="-3.824224"><ele>158.0</ele></trkpt><trkpt lat="50.528887" lon="-3.824722"><ele>167.0</ele></trkpt><trkpt lat="50.528923" lon="-3.825344"><ele>171.0</ele></trkpt><trkpt lat="50.528754" lon="-3.825434"><ele>173.0</ele></trkpt><trkpt lat="50.528757" lon="-3.825785"><ele>173.0</ele></trkpt><trkpt lat="50.529066" lon="-3.826869"><ele>191.0</ele></trkpt><trkpt lat="50.527585" lon="-3.829267"><ele>205.0</ele></trkpt><trkpt lat="50.527228" lon="-3.830106"><ele>209.0</ele></trkpt><trkpt lat="50.527043" lon="-3.831303"><ele>218.0</ele></trkpt><trkpt lat="50.527222" lon="-3.832263"><ele>222.0</ele></trkpt><trkpt lat="50.528413" lon="-3.833403"><ele>230.0</ele></trkpt><trkpt lat="50.528891" lon="-3.833351"><ele>233.0</ele></trkpt><trkpt lat="50.529336" lon="-3.833033"><ele>231.0</ele></trkpt><trkpt lat="50.528855" lon="-3.831699"><ele>240.0</ele></trkpt><trkpt lat="50.529111" lon="-3.832322"><ele>240.0</ele></trkpt><trkpt lat="50.529557" lon="-3.832846"><ele>233.0</ele></trkpt><trkpt lat="50.530729" lon="-3.832935"><ele>235.0</ele></trkpt><trkpt lat="50.531905" lon="-3.834996"><ele>234.0</ele></trkpt><trkpt lat="50.532891" lon="-3.8383"><ele>254.0</ele></trkpt><trkpt lat="50.533282" lon="-3.838666"><ele>257.0</ele></trkpt><trkpt lat="50.534728" lon="-3.839004"><ele>262.0</ele></trkpt><trkpt lat="50.535839" lon="-3.839874"><ele>263.0</ele></trkpt><trkpt lat="50.536671" lon="-3.84127"><ele>258.0</ele></trkpt><trkpt lat="50.537188" lon="-3.842621"><ele>264.0</ele></trkpt><trkpt lat="50.537739" lon="-3.842303"><ele>273.0</ele></trkpt><trkpt lat="50.53949" lon="-3.843279"><ele>282.0</ele></trkpt><trkpt lat="50.540526" lon="-3.84254"><ele>286.0</ele></trkpt><trkpt lat="50.540772" lon="-3.842859"><ele>288.0</ele></trkpt><trkpt lat="50.541156" lon="-3.844293"><ele>295.0</ele></trkpt><trkpt lat="50.542974" lon="-3.843401"><ele>305.0</ele></trkpt></trkseg></trk></gpx>