<gpx version="1.1" creator="Your Creator Name"><trk><trkseg><trkpt lat="50.504709" lon="-4.049535"><ele>223.0</ele></trkpt><trkpt lat="50.503861" lon="-4.049907"><ele>229.0</ele></trkpt><trkpt lat="50.502838" lon="-4.050102"><ele>230.0</ele></trkpt><trkpt lat="50.501883" lon="-4.050088"><ele>228.0</ele></trkpt><trkpt lat="50.50138" lon="-4.0499"><ele>223.0</ele></trkpt><trkpt lat="50.500253" lon="-4.048962"><ele>233.0</ele></trkpt><trkpt lat="50.499987" lon="-4.048545"><ele>234.0</ele></trkpt><trkpt lat="50.498448" lon="-4.047527"><ele>223.0</ele></trkpt><trkpt lat="50.498296" lon="-4.047204"><ele>227.0</ele></trkpt><trkpt lat="50.497206" lon="-4.047477"><ele>217.0</ele></trkpt><trkpt lat="50.496861" lon="-4.047394"><ele>217.0</ele></trkpt><trkpt lat="50.496255" lon="-4.04589"><ele>178.0</ele></trkpt><trkpt lat="50.496401" lon="-4.044783"><ele>157.0</ele></trkpt><trkpt lat="50.496291" lon="-4.044673"><ele>157.0</ele></trkpt><trkpt lat="50.496299" lon="-4.044874"><ele>157.0</ele></trkpt><trkpt lat="50.49626" lon="-4.044608"><ele>158.0</ele></trkpt><trkpt lat="50.495451" lon="-4.044439"><ele>156.0</ele></trkpt><trkpt lat="50.49443" lon="-4.044703"><ele>158.0</ele></trkpt><trkpt lat="50.49404" lon="-4.044603"><ele>156.0</ele></trkpt><trkpt lat="50.493395" lon="-4.044837"><ele>155.0</ele></trkpt><trkpt lat="50.492634" lon="-4.044828"><ele>151.0</ele></trkpt><trkpt lat="50.492075" lon="-4.045071"><ele>147.0</ele></trkpt><trkpt lat="50.491243" lon="-4.044783"><ele>133.0</ele></trkpt><trkpt lat="50.490665" lon="-4.045029"><ele>138.0</ele></trkpt><trkpt lat="50.490358" lon="-4.044731"><ele>125.0</ele></trkpt><trkpt lat="50.490031" lon="-4.044989"><ele>125.0</ele></trkpt><trkpt lat="50.489053" lon="-4.046811"><ele>117.0</ele></trkpt><trkpt lat="50.488435" lon="-4.048354"><ele>106.0</ele></trkpt><trkpt lat="50.488382" lon="-4.048867"><ele>105.0</ele></trkpt><trkpt lat="50.487494" lon="-4.050432"><ele>98.0</ele></trkpt><trkpt lat="50.486354" lon="-4.053252"><ele>83.0</ele></trkpt><trkpt lat="50.485884" lon="-4.053105"><ele>82.0</ele></trkpt><trkpt lat="50.484833" lon="-4.052051"><ele>75.0</ele></trkpt><trkpt lat="50.484663" lon="-4.051698"><ele>73.0</ele></trkpt><trkpt lat="50.484626" lon="-4.050638"><ele>73.0</ele></trkpt><trkpt lat="50.48411" lon="-4.051238"><ele>82.0</ele></trkpt><trkpt lat="50.483538" lon="-4.051034"><ele>80.0</ele></trkpt><trkpt lat="50.483247" lon="-4.05075"><ele>86.0</ele></trkpt><trkpt lat="50.483091" lon="-4.050484"><ele>92.0</ele></trkpt><trkpt lat="50.48301" lon="-4.048884"><ele>95.0</ele></trkpt><trkpt lat="50.483215" lon="-4.046235"><ele>99.0</ele></trkpt><trkpt lat="50.483379" lon="-4.045699"><ele>102.0</ele></trkpt><trkpt lat="50.483989" lon="-4.044773"><ele>99.0</ele></trkpt><trkpt lat="50.484185" lon="-4.044055"><ele>97.0</ele></trkpt><trkpt lat="50.48381" lon="-4.042536"><ele>108.0</ele></trkpt><trkpt lat="50.484427" lon="-4.042029"><ele>122.0</ele></trkpt><trkpt lat="50.48491" lon="-4.04109"><ele>131.0</ele></trkpt><trkpt lat="50.485592" lon="-4.040635"><ele>139.0</ele></trkpt><trkpt lat="50.486053" lon="-4.040868"><ele>140.0</ele></trkpt><trkpt lat="50.486684" lon="-4.041547"><ele>133.0</ele></trkpt><trkpt lat="50.487732" lon="-4.041705"><ele>143.0</ele></trkpt><trkpt lat="50.48806" lon="-4.041551"><ele>152.0</ele></trkpt><trkpt lat="50.488075" lon="-4.041702"><ele>148.0</ele></trkpt><trkpt lat="50.488116" lon="-4.041573"><ele>154.0</ele></trkpt><trkpt lat="50.488508" lon="-4.041716"><ele>150.0</ele></trkpt><trkpt lat="50.488769" lon="-4.041607"><ele>150.0</ele></trkpt><trkpt lat="50.488697" lon="-4.041221"><ele>160.0</ele></trkpt><trkpt lat="50.488869" lon="-4.041106"><ele>163.0</ele></trkpt><trkpt lat="50.488942" lon="-4.040249"><ele>163.0</ele></trkpt><trkpt lat="50.488634" lon="-4.039519"><ele>177.0</ele></trkpt><trkpt lat="50.488633" lon="-4.039057"><ele>176.0</ele></trkpt><trkpt lat="50.489409" lon="-4.036171"><ele>168.0</ele></trkpt><trkpt lat="50.489463" lon="-4.035165"><ele>173.0</ele></trkpt><trkpt lat="50.489915" lon="-4.03364"><ele>155.0</ele></trkpt><trkpt lat="50.490081" lon="-4.033481"><ele>154.0</ele></trkpt><trkpt lat="50.490048" lon="-4.032823"><ele>155.0</ele></trkpt><trkpt lat="50.490857" lon="-4.032124"><ele>152.0</ele></trkpt><trkpt lat="50.491145" lon="-4.03242"><ele>152.0</ele></trkpt><trkpt lat="50.490999" lon="-4.032008"><ele>155.0</ele></trkpt><trkpt lat="50.491421" lon="-4.033247"><ele>150.0</ele></trkpt><trkpt lat="50.491859" lon="-4.033847"><ele>153.0</ele></trkpt><trkpt lat="50.492648" lon="-4.033414"><ele>158.0</ele></trkpt><trkpt lat="50.493241" lon="-4.032841"><ele>158.0</ele></trkpt><trkpt lat="50.493628" lon="-4.032806"><ele>164.0</ele></trkpt><trkpt lat="50.494686" lon="-4.034599"><ele>152.0</ele></trkpt><trkpt lat="50.494163" lon="-4.035186"><ele>155.0</ele></trkpt><trkpt lat="50.493143" lon="-4.035375"><ele>160.0</ele></trkpt><trkpt lat="50.493305" lon="-4.037123"><ele>157.0</ele></trkpt><trkpt lat="50.494588" lon="-4.039449"><ele>154.0</ele></trkpt><trkpt lat="50.495103" lon="-4.041025"><ele>153.0</ele></trkpt><trkpt lat="50.495001" lon="-4.041697"><ele>153.0</ele></trkpt><trkpt lat="50.494745" lon="-4.041715"><ele>157.0</ele></trkpt><trkpt lat="50.494007" lon="-4.042797"><ele>154.0</ele></trkpt><trkpt lat="50.494075" lon="-4.044464"><ele>147.0</ele></trkpt><trkpt lat="50.494428" lon="-4.044593"><ele>155.0</ele></trkpt><trkpt lat="50.495474" lon="-4.044494"><ele>156.0</ele></trkpt><trkpt lat="50.496255" lon="-4.044601"><ele>149.0</ele></trkpt><trkpt lat="50.49418" lon="-4.045623"><ele>174.0</ele></trkpt><trkpt lat="50.493313" lon="-4.045712"><ele>174.0</ele></trkpt><trkpt lat="50.493311" lon="-4.045857"><ele>181.0</ele></trkpt><trkpt lat="50.496312" lon="-4.045879"><ele>190.0</ele></trkpt><trkpt lat="50.496525" lon="-4.045974"><ele>191.0</ele></trkpt><trkpt lat="50.496342" lon="-4.045945"><ele>178.0</ele></trkpt><trkpt lat="50.496364" lon="-4.046091"><ele>196.0</ele></trkpt><trkpt lat="50.496913" lon="-4.047409"><ele>216.0</ele></trkpt><trkpt lat="50.499551" lon="-4.046922"><ele>230.0</ele></trkpt><trkpt lat="50.499983" lon="-4.047452"><ele>233.0</ele></trkpt><trkpt lat="50.500259" lon="-4.047441"><ele>233.0</ele></trkpt><trkpt lat="50.500743" lon="-4.047733"><ele>219.0</ele></trkpt><trkpt lat="50.501718" lon="-4.049215"><ele>222.0</ele></trkpt><trkpt lat="50.502896" lon="-4.050048"><ele>227.0</ele></trkpt><trkpt lat="50.504249" lon="-4.04983"><ele>227.0</ele></trkpt><trkpt lat="50.504831" lon="-4.049583"><ele>224.0</ele></trkpt></trkseg></trk></gpx>