<gpx version="1.1" creator="Your Creator Name"><trk><trkseg><trkpt lat="50.68015" lon="-3.882046"><ele>248.45</ele></trkpt><trkpt lat="50.680072" lon="-3.881439"><ele>248.55</ele></trkpt><trkpt lat="50.679519" lon="-3.880714"><ele>251.78</ele></trkpt><trkpt lat="50.679044" lon="-3.880965"><ele>256.73</ele></trkpt><trkpt lat="50.678565" lon="-3.881545"><ele>263.64</ele></trkpt><trkpt lat="50.676434" lon="-3.878838"><ele>284.34</ele></trkpt><trkpt lat="50.676091" lon="-3.878725"><ele>286.7</ele></trkpt><trkpt lat="50.675393" lon="-3.878072"><ele>283.42</ele></trkpt><trkpt lat="50.674991" lon="-3.878019"><ele>282.1</ele></trkpt><trkpt lat="50.673788" lon="-3.879162"><ele>255.2</ele></trkpt><trkpt lat="50.673592" lon="-3.87962"><ele>251.55</ele></trkpt><trkpt lat="50.673431" lon="-3.879637"><ele>248.5</ele></trkpt><trkpt lat="50.672987" lon="-3.881419"><ele>243.96</ele></trkpt><trkpt lat="50.672357" lon="-3.882662"><ele>246.88</ele></trkpt><trkpt lat="50.671243" lon="-3.882794"><ele>268.15</ele></trkpt><trkpt lat="50.670998" lon="-3.883188"><ele>275.88</ele></trkpt><trkpt lat="50.670647" lon="-3.884629"><ele>286.79</ele></trkpt><trkpt lat="50.669942" lon="-3.884583"><ele>302.68</ele></trkpt><trkpt lat="50.668733" lon="-3.88382"><ele>312.82</ele></trkpt><trkpt lat="50.667752" lon="-3.883433"><ele>314.22</ele></trkpt><trkpt lat="50.667502" lon="-3.884539"><ele>330.61</ele></trkpt><trkpt lat="50.666495" lon="-3.886115"><ele>353.53</ele></trkpt><trkpt lat="50.666436" lon="-3.886612"><ele>359.53</ele></trkpt><trkpt lat="50.665599" lon="-3.887431"><ele>370.87</ele></trkpt><trkpt lat="50.665555" lon="-3.88807"><ele>378.31</ele></trkpt><trkpt lat="50.665412" lon="-3.888229"><ele>380.78</ele></trkpt><trkpt lat="50.663802" lon="-3.889059"><ele>389.02</ele></trkpt><trkpt lat="50.662058" lon="-3.888976"><ele>405.74</ele></trkpt><trkpt lat="50.660947" lon="-3.889366"><ele>419.15</ele></trkpt><trkpt lat="50.660827" lon="-3.889681"><ele>429.94</ele></trkpt><trkpt lat="50.660715" lon="-3.889419"><ele>423.91</ele></trkpt><trkpt lat="50.660807" lon="-3.889512"><ele>426.1</ele></trkpt><trkpt lat="50.660968" lon="-3.889369"><ele>417.49</ele></trkpt><trkpt lat="50.661067" lon="-3.88981"><ele>414.24</ele></trkpt><trkpt lat="50.660447" lon="-3.894578"><ele>383.25</ele></trkpt><trkpt lat="50.660563" lon="-3.896901"><ele>377.7</ele></trkpt><trkpt lat="50.660917" lon="-3.897926"><ele>379.01</ele></trkpt><trkpt lat="50.663091" lon="-3.900872"><ele>370.58</ele></trkpt><trkpt lat="50.666406" lon="-3.904346"><ele>362.36</ele></trkpt><trkpt lat="50.667349" lon="-3.905809"><ele>351.65</ele></trkpt><trkpt lat="50.667628" lon="-3.906571"><ele>348.13</ele></trkpt><trkpt lat="50.667628" lon="-3.906571"><ele>348.16</ele></trkpt><trkpt lat="50.667628" lon="-3.906571"><ele>348.28</ele></trkpt><trkpt lat="50.667756" lon="-3.906576"><ele>347.43</ele></trkpt><trkpt lat="50.667867" lon="-3.905722"><ele>347.58</ele></trkpt><trkpt lat="50.668169" lon="-3.906682"><ele>346.77</ele></trkpt><trkpt lat="50.66819" lon="-3.905787"><ele>347.34</ele></trkpt><trkpt lat="50.667999" lon="-3.904725"><ele>344.9</ele></trkpt><trkpt lat="50.667796" lon="-3.904562"><ele>341.68</ele></trkpt><trkpt lat="50.66789" lon="-3.90505"><ele>344.74</ele></trkpt><trkpt lat="50.66808" lon="-3.905206"><ele>347.27</ele></trkpt><trkpt lat="50.66819" lon="-3.904879"><ele>349.36</ele></trkpt><trkpt lat="50.668426" lon="-3.904751"><ele>351.07</ele></trkpt><trkpt lat="50.669387" lon="-3.904873"><ele>357.39</ele></trkpt><trkpt lat="50.670622" lon="-3.905343"><ele>362.76</ele></trkpt><trkpt lat="50.670611" lon="-3.904787"><ele>365.56</ele></trkpt><trkpt lat="50.671156" lon="-3.902185"><ele>384.39</ele></trkpt><trkpt lat="50.672447" lon="-3.900182"><ele>385.66</ele></trkpt><trkpt lat="50.673313" lon="-3.898291"><ele>366.9</ele></trkpt><trkpt lat="50.673805" lon="-3.896993"><ele>355.53</ele></trkpt><trkpt lat="50.673827" lon="-3.896285"><ele>351.18</ele></trkpt><trkpt lat="50.673674" lon="-3.89618"><ele>351.26</ele></trkpt><trkpt lat="50.674243" lon="-3.894988"><ele>340.96</ele></trkpt><trkpt lat="50.675704" lon="-3.892901"><ele>320.93</ele></trkpt><trkpt lat="50.675774" lon="-3.891236"><ele>308.47</ele></trkpt><trkpt lat="50.674913" lon="-3.889255"><ele>302.35</ele></trkpt><trkpt lat="50.675169" lon="-3.887611"><ele>293.18</ele></trkpt><trkpt lat="50.675636" lon="-3.886379"><ele>291.18</ele></trkpt><trkpt lat="50.67655" lon="-3.885516"><ele>287.1</ele></trkpt><trkpt lat="50.677911" lon="-3.88261"><ele>271.38</ele></trkpt><trkpt lat="50.679289" lon="-3.880722"><ele>250.4</ele></trkpt><trkpt lat="50.679452" lon="-3.880628"><ele>248.66</ele></trkpt><trkpt lat="50.679702" lon="-3.880793"><ele>247.12</ele></trkpt><trkpt lat="50.679973" lon="-3.881264"><ele>245.75</ele></trkpt><trkpt lat="50.68001" lon="-3.882587"><ele>243.26</ele></trkpt></trkseg></trk></gpx>