<gpx version="1.1" creator="Your Creator Name"><trk><trkseg><trkpt lat="50.425139" lon="-3.969922"><ele>80.0</ele></trkpt><trkpt lat="50.427078" lon="-3.970931"><ele>98.0</ele></trkpt><trkpt lat="50.428284" lon="-3.970743"><ele>102.0</ele></trkpt><trkpt lat="50.429371" lon="-3.970823"><ele>108.0</ele></trkpt><trkpt lat="50.430042" lon="-3.969672"><ele>113.0</ele></trkpt><trkpt lat="50.430392" lon="-3.969496"><ele>118.0</ele></trkpt><trkpt lat="50.430913" lon="-3.968782"><ele>116.0</ele></trkpt><trkpt lat="50.433222" lon="-3.968339"><ele>166.0</ele></trkpt><trkpt lat="50.433861" lon="-3.968031"><ele>162.0</ele></trkpt><trkpt lat="50.434568" lon="-3.967988"><ele>186.0</ele></trkpt><trkpt lat="50.435166" lon="-3.96759"><ele>191.0</ele></trkpt><trkpt lat="50.435673" lon="-3.966689"><ele>200.0</ele></trkpt><trkpt lat="50.436522" lon="-3.965798"><ele>211.0</ele></trkpt><trkpt lat="50.436821" lon="-3.96612"><ele>218.0</ele></trkpt><trkpt lat="50.436989" lon="-3.966944"><ele>229.0</ele></trkpt><trkpt lat="50.437803" lon="-3.968963"><ele>234.0</ele></trkpt><trkpt lat="50.438138" lon="-3.970153"><ele>244.0</ele></trkpt><trkpt lat="50.438129" lon="-3.970705"><ele>240.0</ele></trkpt><trkpt lat="50.4387" lon="-3.971987"><ele>239.0</ele></trkpt><trkpt lat="50.439043" lon="-3.971898"><ele>249.0</ele></trkpt><trkpt lat="50.44026" lon="-3.972288"><ele>255.0</ele></trkpt><trkpt lat="50.441551" lon="-3.973075"><ele>273.0</ele></trkpt><trkpt lat="50.442086" lon="-3.973246"><ele>278.0</ele></trkpt><trkpt lat="50.442729" lon="-3.97321"><ele>279.0</ele></trkpt><trkpt lat="50.443286" lon="-3.973588"><ele>284.0</ele></trkpt><trkpt lat="50.443779" lon="-3.973226"><ele>302.0</ele></trkpt><trkpt lat="50.444506" lon="-3.973255"><ele>307.0</ele></trkpt><trkpt lat="50.444779" lon="-3.973431"><ele>312.0</ele></trkpt><trkpt lat="50.445243" lon="-3.973097"><ele>318.0</ele></trkpt><trkpt lat="50.446203" lon="-3.972981"><ele>328.0</ele></trkpt><trkpt lat="50.446854" lon="-3.973422"><ele>330.0</ele></trkpt><trkpt lat="50.44719" lon="-3.974032"><ele>338.0</ele></trkpt><trkpt lat="50.44931" lon="-3.974293"><ele>380.0</ele></trkpt><trkpt lat="50.450856" lon="-3.97469"><ele>369.0</ele></trkpt><trkpt lat="50.451707" lon="-3.974697"><ele>374.0</ele></trkpt><trkpt lat="50.452386" lon="-3.97511"><ele>378.0</ele></trkpt><trkpt lat="50.455791" lon="-3.975942"><ele>421.0</ele></trkpt><trkpt lat="50.457018" lon="-3.976428"><ele>426.0</ele></trkpt><trkpt lat="50.457301" lon="-3.977226"><ele>417.0</ele></trkpt><trkpt lat="50.456825" lon="-3.978607"><ele>404.0</ele></trkpt><trkpt lat="50.456282" lon="-3.979236"><ele>392.0</ele></trkpt><trkpt lat="50.455529" lon="-3.979672"><ele>375.0</ele></trkpt><trkpt lat="50.454795" lon="-3.980574"><ele>366.0</ele></trkpt><trkpt lat="50.454328" lon="-3.981522"><ele>346.0</ele></trkpt><trkpt lat="50.452688" lon="-3.980364"><ele>341.0</ele></trkpt><trkpt lat="50.450865" lon="-3.979667"><ele>342.0</ele></trkpt><trkpt lat="50.449782" lon="-3.979904"><ele>327.0</ele></trkpt><trkpt lat="50.448954" lon="-3.981156"><ele>310.0</ele></trkpt><trkpt lat="50.448758" lon="-3.981704"><ele>306.0</ele></trkpt><trkpt lat="50.44799" lon="-3.982634"><ele>297.0</ele></trkpt><trkpt lat="50.446037" lon="-3.98418"><ele>270.0</ele></trkpt><trkpt lat="50.445047" lon="-3.985299"><ele>255.0</ele></trkpt><trkpt lat="50.445119" lon="-3.986862"><ele>242.0</ele></trkpt><trkpt lat="50.444767" lon="-3.987393"><ele>230.0</ele></trkpt><trkpt lat="50.444484" lon="-3.987475"><ele>226.0</ele></trkpt><trkpt lat="50.444091" lon="-3.987082"><ele>222.0</ele></trkpt><trkpt lat="50.442802" lon="-3.986822"><ele>202.0</ele></trkpt><trkpt lat="50.441592" lon="-3.985757"><ele>186.0</ele></trkpt><trkpt lat="50.441381" lon="-3.985749"><ele>182.0</ele></trkpt><trkpt lat="50.440582" lon="-3.986931"><ele>169.0</ele></trkpt><trkpt lat="50.440668" lon="-3.988081"><ele>167.0</ele></trkpt><trkpt lat="50.440518" lon="-3.986688"><ele>170.0</ele></trkpt><trkpt lat="50.439459" lon="-3.986437"><ele>159.0</ele></trkpt><trkpt lat="50.438982" lon="-3.985622"><ele>153.0</ele></trkpt><trkpt lat="50.43756" lon="-3.984841"><ele>137.0</ele></trkpt><trkpt lat="50.435099" lon="-3.982844"><ele>112.0</ele></trkpt><trkpt lat="50.431964" lon="-3.983739"><ele>96.0</ele></trkpt><trkpt lat="50.430666" lon="-3.983323"><ele>87.0</ele></trkpt><trkpt lat="50.430884" lon="-3.982418"><ele>92.0</ele></trkpt><trkpt lat="50.429901" lon="-3.980104"><ele>82.0</ele></trkpt><trkpt lat="50.429286" lon="-3.979488"><ele>81.0</ele></trkpt><trkpt lat="50.429092" lon="-3.978374"><ele>80.0</ele></trkpt><trkpt lat="50.428604" lon="-3.977822"><ele>82.0</ele></trkpt><trkpt lat="50.427869" lon="-3.977503"><ele>74.0</ele></trkpt><trkpt lat="50.427689" lon="-3.977258"><ele>72.0</ele></trkpt><trkpt lat="50.427536" lon="-3.976205"><ele>82.0</ele></trkpt><trkpt lat="50.426157" lon="-3.974158"><ele>96.0</ele></trkpt><trkpt lat="50.425559" lon="-3.973535"><ele>97.0</ele></trkpt><trkpt lat="50.425285" lon="-3.972745"><ele>96.0</ele></trkpt><trkpt lat="50.425229" lon="-3.970706"><ele>91.0</ele></trkpt><trkpt lat="50.424831" lon="-3.969803"><ele>84.0</ele></trkpt></trkseg></trk></gpx>