<gpx version="1.1" creator="Your Creator Name"><trk><trkseg><trkpt lat="50.594384" lon="-3.882481"><ele>265.0</ele></trkpt><trkpt lat="50.594644" lon="-3.882135"><ele>265.0</ele></trkpt><trkpt lat="50.594912" lon="-3.878198"><ele>283.0</ele></trkpt><trkpt lat="50.595558" lon="-3.873055"><ele>292.0</ele></trkpt><trkpt lat="50.595528" lon="-3.871457"><ele>278.0</ele></trkpt><trkpt lat="50.595232" lon="-3.870069"><ele>270.0</ele></trkpt><trkpt lat="50.595711" lon="-3.867734"><ele>269.0</ele></trkpt><trkpt lat="50.595646" lon="-3.86603"><ele>266.0</ele></trkpt><trkpt lat="50.59588" lon="-3.864417"><ele>269.0</ele></trkpt><trkpt lat="50.595717" lon="-3.8625"><ele>260.0</ele></trkpt><trkpt lat="50.596586" lon="-3.859826"><ele>235.0</ele></trkpt><trkpt lat="50.599074" lon="-3.859036"><ele>259.0</ele></trkpt><trkpt lat="50.599427" lon="-3.858493"><ele>256.0</ele></trkpt><trkpt lat="50.599134" lon="-3.857178"><ele>247.0</ele></trkpt><trkpt lat="50.597874" lon="-3.855023"><ele>236.0</ele></trkpt><trkpt lat="50.597534" lon="-3.853555"><ele>244.0</ele></trkpt><trkpt lat="50.597663" lon="-3.851373"><ele>256.0</ele></trkpt><trkpt lat="50.59841" lon="-3.849485"><ele>264.0</ele></trkpt><trkpt lat="50.599044" lon="-3.849019"><ele>259.0</ele></trkpt><trkpt lat="50.600087" lon="-3.847753"><ele>253.0</ele></trkpt><trkpt lat="50.600547" lon="-3.847662"><ele>253.0</ele></trkpt><trkpt lat="50.601489" lon="-3.847068"><ele>251.0</ele></trkpt><trkpt lat="50.602495" lon="-3.846853"><ele>260.0</ele></trkpt><trkpt lat="50.603453" lon="-3.846234"><ele>266.0</ele></trkpt><trkpt lat="50.603858" lon="-3.846142"><ele>266.0</ele></trkpt><trkpt lat="50.605609" lon="-3.846598"><ele>271.0</ele></trkpt><trkpt lat="50.607097" lon="-3.84718"><ele>278.0</ele></trkpt><trkpt lat="50.608718" lon="-3.847157"><ele>284.0</ele></trkpt><trkpt lat="50.610043" lon="-3.84752"><ele>288.0</ele></trkpt><trkpt lat="50.610962" lon="-3.847593"><ele>283.0</ele></trkpt><trkpt lat="50.612001" lon="-3.84726"><ele>287.0</ele></trkpt><trkpt lat="50.613608" lon="-3.848055"><ele>297.0</ele></trkpt><trkpt lat="50.614347" lon="-3.847986"><ele>301.0</ele></trkpt><trkpt lat="50.61478" lon="-3.847776"><ele>311.0</ele></trkpt><trkpt lat="50.615271" lon="-3.848024"><ele>315.0</ele></trkpt><trkpt lat="50.615509" lon="-3.849641"><ele>315.0</ele></trkpt><trkpt lat="50.615112" lon="-3.85149"><ele>332.0</ele></trkpt><trkpt lat="50.61369" lon="-3.853508"><ele>345.0</ele></trkpt><trkpt lat="50.612798" lon="-3.853542"><ele>342.0</ele></trkpt><trkpt lat="50.612262" lon="-3.853253"><ele>351.0</ele></trkpt><trkpt lat="50.612652" lon="-3.853462"><ele>349.0</ele></trkpt><trkpt lat="50.613499" lon="-3.853507"><ele>345.0</ele></trkpt><trkpt lat="50.614027" lon="-3.854359"><ele>347.0</ele></trkpt><trkpt lat="50.613199" lon="-3.855773"><ele>356.0</ele></trkpt><trkpt lat="50.612876" lon="-3.857355"><ele>336.0</ele></trkpt><trkpt lat="50.612537" lon="-3.858119"><ele>323.0</ele></trkpt><trkpt lat="50.612585" lon="-3.859204"><ele>314.0</ele></trkpt><trkpt lat="50.612913" lon="-3.860569"><ele>305.0</ele></trkpt><trkpt lat="50.61287" lon="-3.862105"><ele>293.0</ele></trkpt><trkpt lat="50.613412" lon="-3.863249"><ele>290.0</ele></trkpt><trkpt lat="50.613503" lon="-3.863797"><ele>291.0</ele></trkpt><trkpt lat="50.613079" lon="-3.863383"><ele>286.0</ele></trkpt><trkpt lat="50.612431" lon="-3.863318"><ele>283.0</ele></trkpt><trkpt lat="50.612041" lon="-3.863055"><ele>283.0</ele></trkpt><trkpt lat="50.611649" lon="-3.86315"><ele>280.0</ele></trkpt><trkpt lat="50.610801" lon="-3.863007"><ele>273.0</ele></trkpt><trkpt lat="50.609341" lon="-3.862551"><ele>275.0</ele></trkpt><trkpt lat="50.608937" lon="-3.862277"><ele>271.0</ele></trkpt><trkpt lat="50.608534" lon="-3.862435"><ele>264.0</ele></trkpt><trkpt lat="50.608007" lon="-3.862311"><ele>266.0</ele></trkpt><trkpt lat="50.607541" lon="-3.862882"><ele>273.0</ele></trkpt><trkpt lat="50.60647" lon="-3.862759"><ele>271.0</ele></trkpt><trkpt lat="50.605207" lon="-3.864213"><ele>276.0</ele></trkpt><trkpt lat="50.602352" lon="-3.864697"><ele>291.0</ele></trkpt><trkpt lat="50.601831" lon="-3.867341"><ele>309.0</ele></trkpt><trkpt lat="50.601752" lon="-3.868502"><ele>321.0</ele></trkpt><trkpt lat="50.60098" lon="-3.869983"><ele>324.0</ele></trkpt><trkpt lat="50.600027" lon="-3.870692"><ele>316.0</ele></trkpt><trkpt lat="50.599908" lon="-3.872894"><ele>312.0</ele></trkpt><trkpt lat="50.599354" lon="-3.874323"><ele>294.0</ele></trkpt><trkpt lat="50.597875" lon="-3.876291"><ele>286.0</ele></trkpt><trkpt lat="50.595904" lon="-3.876865"><ele>288.0</ele></trkpt><trkpt lat="50.595138" lon="-3.877444"><ele>284.0</ele></trkpt><trkpt lat="50.594899" lon="-3.878412"><ele>284.0</ele></trkpt><trkpt lat="50.594447" lon="-3.882545"><ele>264.0</ele></trkpt></trkseg></trk></gpx>