<gpx version="1.1" creator="Your Creator Name"><trk><trkseg><trkpt lat="50.628967" lon="-3.691922"><ele>129.0</ele></trkpt><trkpt lat="50.628904" lon="-3.691736"><ele>131.0</ele></trkpt><trkpt lat="50.62845" lon="-3.691803"><ele>130.0</ele></trkpt><trkpt lat="50.627908" lon="-3.68992"><ele>115.0</ele></trkpt><trkpt lat="50.629543" lon="-3.687851"><ele>113.0</ele></trkpt><trkpt lat="50.629937" lon="-3.687"><ele>124.0</ele></trkpt><trkpt lat="50.630333" lon="-3.685448"><ele>118.0</ele></trkpt><trkpt lat="50.630752" lon="-3.6845"><ele>123.0</ele></trkpt><trkpt lat="50.631358" lon="-3.683658"><ele>127.0</ele></trkpt><trkpt lat="50.6316" lon="-3.681208"><ele>128.0</ele></trkpt><trkpt lat="50.631341" lon="-3.680148"><ele>129.0</ele></trkpt><trkpt lat="50.63127" lon="-3.678786"><ele>134.0</ele></trkpt><trkpt lat="50.63051" lon="-3.678251"><ele>126.0</ele></trkpt><trkpt lat="50.629269" lon="-3.677023"><ele>108.0</ele></trkpt><trkpt lat="50.626775" lon="-3.672097"><ele>111.0</ele></trkpt><trkpt lat="50.626479" lon="-3.670624"><ele>112.0</ele></trkpt><trkpt lat="50.626894" lon="-3.665802"><ele>99.0</ele></trkpt><trkpt lat="50.62672" lon="-3.665252"><ele>101.0</ele></trkpt><trkpt lat="50.626378" lon="-3.661434"><ele>116.0</ele></trkpt><trkpt lat="50.626806" lon="-3.660103"><ele>99.0</ele></trkpt><trkpt lat="50.627509" lon="-3.659719"><ele>105.0</ele></trkpt><trkpt lat="50.628075" lon="-3.658769"><ele>96.0</ele></trkpt><trkpt lat="50.628163" lon="-3.658396"><ele>95.0</ele></trkpt><trkpt lat="50.627947" lon="-3.657868"><ele>97.0</ele></trkpt><trkpt lat="50.628645" lon="-3.657962"><ele>92.0</ele></trkpt><trkpt lat="50.628767" lon="-3.657239"><ele>98.0</ele></trkpt><trkpt lat="50.627997" lon="-3.655201"><ele>83.0</ele></trkpt><trkpt lat="50.627494" lon="-3.653148"><ele>62.0</ele></trkpt><trkpt lat="50.627944" lon="-3.653176"><ele>68.0</ele></trkpt><trkpt lat="50.628343" lon="-3.6534"><ele>59.0</ele></trkpt><trkpt lat="50.629227" lon="-3.654299"><ele>69.0</ele></trkpt><trkpt lat="50.629465" lon="-3.655839"><ele>72.0</ele></trkpt><trkpt lat="50.630279" lon="-3.658206"><ele>73.0</ele></trkpt><trkpt lat="50.631227" lon="-3.659329"><ele>75.0</ele></trkpt><trkpt lat="50.631955" lon="-3.660972"><ele>78.0</ele></trkpt><trkpt lat="50.632203" lon="-3.660996"><ele>82.0</ele></trkpt><trkpt lat="50.633265" lon="-3.661714"><ele>68.0</ele></trkpt><trkpt lat="50.633533" lon="-3.661412"><ele>70.0</ele></trkpt><trkpt lat="50.633399" lon="-3.660704"><ele>71.0</ele></trkpt><trkpt lat="50.632619" lon="-3.659374"><ele>76.0</ele></trkpt><trkpt lat="50.631724" lon="-3.656158"><ele>96.0</ele></trkpt><trkpt lat="50.631958" lon="-3.654844"><ele>102.0</ele></trkpt><trkpt lat="50.632538" lon="-3.654121"><ele>97.0</ele></trkpt><trkpt lat="50.633046" lon="-3.654011"><ele>110.0</ele></trkpt><trkpt lat="50.633981" lon="-3.654301"><ele>119.0</ele></trkpt><trkpt lat="50.633348" lon="-3.654959"><ele>120.0</ele></trkpt><trkpt lat="50.63316" lon="-3.65557"><ele>127.0</ele></trkpt><trkpt lat="50.634762" lon="-3.657442"><ele>140.0</ele></trkpt><trkpt lat="50.635749" lon="-3.658864"><ele>130.0</ele></trkpt><trkpt lat="50.635977" lon="-3.658847"><ele>126.0</ele></trkpt><trkpt lat="50.63611" lon="-3.658615"><ele>123.0</ele></trkpt><trkpt lat="50.63629" lon="-3.658714"><ele>123.0</ele></trkpt><trkpt lat="50.635303" lon="-3.662212"><ele>129.0</ele></trkpt><trkpt lat="50.635157" lon="-3.664086"><ele>124.0</ele></trkpt><trkpt lat="50.634475" lon="-3.667421"><ele>104.0</ele></trkpt><trkpt lat="50.634179" lon="-3.668159"><ele>94.0</ele></trkpt><trkpt lat="50.633705" lon="-3.668505"><ele>99.0</ele></trkpt><trkpt lat="50.632981" lon="-3.66976"><ele>117.0</ele></trkpt><trkpt lat="50.63207" lon="-3.670696"><ele>127.0</ele></trkpt><trkpt lat="50.631625" lon="-3.671775"><ele>136.0</ele></trkpt><trkpt lat="50.630973" lon="-3.674351"><ele>147.0</ele></trkpt><trkpt lat="50.631227" lon="-3.676087"><ele>144.0</ele></trkpt><trkpt lat="50.631851" lon="-3.677011"><ele>139.0</ele></trkpt><trkpt lat="50.632042" lon="-3.677615"><ele>144.0</ele></trkpt><trkpt lat="50.632228" lon="-3.679634"><ele>122.0</ele></trkpt><trkpt lat="50.632868" lon="-3.679718"><ele>119.0</ele></trkpt><trkpt lat="50.633611" lon="-3.680053"><ele>119.0</ele></trkpt><trkpt lat="50.634252" lon="-3.681097"><ele>121.0</ele></trkpt><trkpt lat="50.635711" lon="-3.681696"><ele>119.0</ele></trkpt><trkpt lat="50.636541" lon="-3.682394"><ele>121.0</ele></trkpt><trkpt lat="50.636717" lon="-3.682376"><ele>122.0</ele></trkpt><trkpt lat="50.637318" lon="-3.683181"><ele>116.0</ele></trkpt><trkpt lat="50.636947" lon="-3.684299"><ele>111.0</ele></trkpt><trkpt lat="50.63596" lon="-3.685996"><ele>138.0</ele></trkpt><trkpt lat="50.635306" lon="-3.688049"><ele>138.0</ele></trkpt><trkpt lat="50.635074" lon="-3.688007"><ele>139.0</ele></trkpt><trkpt lat="50.634593" lon="-3.687269"><ele>136.0</ele></trkpt><trkpt lat="50.634508" lon="-3.687431"><ele>129.0</ele></trkpt><trkpt lat="50.633805" lon="-3.689251"><ele>135.0</ele></trkpt><trkpt lat="50.634113" lon="-3.690461"><ele>139.0</ele></trkpt><trkpt lat="50.633841" lon="-3.690897"><ele>132.0</ele></trkpt><trkpt lat="50.633527" lon="-3.690935"><ele>129.0</ele></trkpt><trkpt lat="50.632907" lon="-3.691701"><ele>115.0</ele></trkpt><trkpt lat="50.63318" lon="-3.693418"><ele>107.0</ele></trkpt><trkpt lat="50.633469" lon="-3.694157"><ele>113.0</ele></trkpt><trkpt lat="50.634478" lon="-3.695393"><ele>115.0</ele></trkpt><trkpt lat="50.634545" lon="-3.69605"><ele>114.0</ele></trkpt><trkpt lat="50.63448" lon="-3.696149"><ele>114.0</ele></trkpt><trkpt lat="50.634011" lon="-3.695813"><ele>111.0</ele></trkpt><trkpt lat="50.633283" lon="-3.694881"><ele>107.0</ele></trkpt><trkpt lat="50.63293" lon="-3.694987"><ele>116.0</ele></trkpt><trkpt lat="50.632656" lon="-3.693816"><ele>112.0</ele></trkpt><trkpt lat="50.632164" lon="-3.693079"><ele>114.0</ele></trkpt><trkpt lat="50.631549" lon="-3.692751"><ele>115.0</ele></trkpt><trkpt lat="50.63107" lon="-3.693076"><ele>114.0</ele></trkpt><trkpt lat="50.629924" lon="-3.692367"><ele>122.0</ele></trkpt><trkpt lat="50.629236" lon="-3.69217"><ele>125.0</ele></trkpt><trkpt lat="50.62885" lon="-3.691683"><ele>123.0</ele></trkpt></trkseg></trk></gpx>