<gpx version="1.1" creator="Your Creator Name"><trk><trkseg><trkpt lat="50.429236" lon="-3.72047"><ele>126.0</ele></trkpt><trkpt lat="50.429259" lon="-3.720004"><ele>126.0</ele></trkpt><trkpt lat="50.429853" lon="-3.719687"><ele>130.0</ele></trkpt><trkpt lat="50.430498" lon="-3.718688"><ele>134.0</ele></trkpt><trkpt lat="50.431523" lon="-3.716238"><ele>125.0</ele></trkpt><trkpt lat="50.431702" lon="-3.715404"><ele>121.0</ele></trkpt><trkpt lat="50.430262" lon="-3.713481"><ele>141.0</ele></trkpt><trkpt lat="50.429954" lon="-3.713294"><ele>148.0</ele></trkpt><trkpt lat="50.428888" lon="-3.713362"><ele>155.0</ele></trkpt><trkpt lat="50.42792" lon="-3.712755"><ele>159.0</ele></trkpt><trkpt lat="50.427406" lon="-3.711849"><ele>167.0</ele></trkpt><trkpt lat="50.426434" lon="-3.71082"><ele>174.0</ele></trkpt><trkpt lat="50.426024" lon="-3.709776"><ele>182.0</ele></trkpt><trkpt lat="50.423905" lon="-3.705898"><ele>176.0</ele></trkpt><trkpt lat="50.423258" lon="-3.70547"><ele>179.0</ele></trkpt><trkpt lat="50.423098" lon="-3.705582"><ele>181.0</ele></trkpt><trkpt lat="50.422634" lon="-3.706962"><ele>174.0</ele></trkpt><trkpt lat="50.421824" lon="-3.710707"><ele>152.0</ele></trkpt><trkpt lat="50.421608" lon="-3.712329"><ele>140.0</ele></trkpt><trkpt lat="50.421708" lon="-3.713811"><ele>144.0</ele></trkpt><trkpt lat="50.420339" lon="-3.715368"><ele>144.0</ele></trkpt><trkpt lat="50.419545" lon="-3.717484"><ele>165.0</ele></trkpt><trkpt lat="50.419081" lon="-3.719699"><ele>148.0</ele></trkpt><trkpt lat="50.418934" lon="-3.719927"><ele>144.0</ele></trkpt><trkpt lat="50.418617" lon="-3.719958"><ele>137.0</ele></trkpt><trkpt lat="50.41842" lon="-3.720425"><ele>139.0</ele></trkpt><trkpt lat="50.417868" lon="-3.72097"><ele>145.0</ele></trkpt><trkpt lat="50.417715" lon="-3.72142"><ele>149.0</ele></trkpt><trkpt lat="50.417862" lon="-3.721763"><ele>136.0</ele></trkpt><trkpt lat="50.419157" lon="-3.721987"><ele>160.0</ele></trkpt><trkpt lat="50.420911" lon="-3.722875"><ele>185.0</ele></trkpt><trkpt lat="50.422189" lon="-3.723919"><ele>201.0</ele></trkpt><trkpt lat="50.422604" lon="-3.724512"><ele>199.0</ele></trkpt><trkpt lat="50.423075" lon="-3.725765"><ele>204.0</ele></trkpt><trkpt lat="50.423424" lon="-3.72735"><ele>197.0</ele></trkpt><trkpt lat="50.423631" lon="-3.727316"><ele>197.0</ele></trkpt><trkpt lat="50.424241" lon="-3.725444"><ele>192.0</ele></trkpt><trkpt lat="50.424604" lon="-3.725185"><ele>195.0</ele></trkpt><trkpt lat="50.425587" lon="-3.72239"><ele>183.0</ele></trkpt><trkpt lat="50.426149" lon="-3.722142"><ele>185.0</ele></trkpt><trkpt lat="50.427017" lon="-3.719436"><ele>177.0</ele></trkpt><trkpt lat="50.427186" lon="-3.719391"><ele>173.0</ele></trkpt><trkpt lat="50.427344" lon="-3.719038"><ele>170.0</ele></trkpt><trkpt lat="50.428051" lon="-3.718804"><ele>159.0</ele></trkpt><trkpt lat="50.429197" lon="-3.719601"><ele>143.0</ele></trkpt><trkpt lat="50.429919" lon="-3.719379"><ele>137.0</ele></trkpt><trkpt lat="50.430259" lon="-3.718952"><ele>135.0</ele></trkpt><trkpt lat="50.429786" lon="-3.719679"><ele>133.0</ele></trkpt><trkpt lat="50.429254" lon="-3.719993"><ele>132.0</ele></trkpt><trkpt lat="50.42921" lon="-3.72063"><ele>125.0</ele></trkpt></trkseg></trk></gpx>