<gpx version="1.1" creator="Your Creator Name"><trk><trkseg><trkpt lat="50.488352" lon="-4.004484"><ele>183.0</ele></trkpt><trkpt lat="50.488592" lon="-4.002853"><ele>194.0</ele></trkpt><trkpt lat="50.489762" lon="-4.000958"><ele>204.0</ele></trkpt><trkpt lat="50.491278" lon="-3.995543"><ele>246.0</ele></trkpt><trkpt lat="50.491345" lon="-3.99481"><ele>248.0</ele></trkpt><trkpt lat="50.491562" lon="-3.994633"><ele>253.0</ele></trkpt><trkpt lat="50.491803" lon="-3.993008"><ele>255.0</ele></trkpt><trkpt lat="50.492287" lon="-3.991681"><ele>260.0</ele></trkpt><trkpt lat="50.492304" lon="-3.989632"><ele>264.0</ele></trkpt><trkpt lat="50.49264" lon="-3.988103"><ele>263.0</ele></trkpt><trkpt lat="50.492794" lon="-3.987972"><ele>259.0</ele></trkpt><trkpt lat="50.493379" lon="-3.988371"><ele>259.0</ele></trkpt><trkpt lat="50.494094" lon="-3.988395"><ele>257.0</ele></trkpt><trkpt lat="50.496043" lon="-3.986323"><ele>253.0</ele></trkpt><trkpt lat="50.496111" lon="-3.987234"><ele>246.0</ele></trkpt><trkpt lat="50.495913" lon="-3.988519"><ele>231.0</ele></trkpt><trkpt lat="50.496038" lon="-3.988992"><ele>231.0</ele></trkpt><trkpt lat="50.495688" lon="-3.990159"><ele>227.0</ele></trkpt><trkpt lat="50.496213" lon="-3.992412"><ele>221.0</ele></trkpt><trkpt lat="50.496229" lon="-3.994677"><ele>218.0</ele></trkpt><trkpt lat="50.497272" lon="-3.994357"><ele>202.0</ele></trkpt><trkpt lat="50.497633" lon="-3.994524"><ele>204.0</ele></trkpt><trkpt lat="50.497937" lon="-3.995261"><ele>199.0</ele></trkpt><trkpt lat="50.498332" lon="-3.995381"><ele>197.0</ele></trkpt><trkpt lat="50.498616" lon="-3.995029"><ele>191.0</ele></trkpt><trkpt lat="50.498874" lon="-3.995056"><ele>186.0</ele></trkpt><trkpt lat="50.499452" lon="-3.995687"><ele>184.0</ele></trkpt><trkpt lat="50.49951" lon="-3.996217"><ele>188.0</ele></trkpt><trkpt lat="50.499628" lon="-3.99602"><ele>191.0</ele></trkpt><trkpt lat="50.499924" lon="-3.996433"><ele>193.0</ele></trkpt><trkpt lat="50.500689" lon="-3.996695"><ele>214.0</ele></trkpt><trkpt lat="50.501087" lon="-3.997078"><ele>226.0</ele></trkpt><trkpt lat="50.501023" lon="-3.996795"><ele>223.0</ele></trkpt><trkpt lat="50.501247" lon="-3.997211"><ele>220.0</ele></trkpt><trkpt lat="50.501764" lon="-3.997657"><ele>217.0</ele></trkpt><trkpt lat="50.502863" lon="-4.000187"><ele>209.0</ele></trkpt><trkpt lat="50.503087" lon="-4.001975"><ele>203.0</ele></trkpt><trkpt lat="50.503226" lon="-4.002588"><ele>195.0</ele></trkpt><trkpt lat="50.503512" lon="-4.002997"><ele>195.0</ele></trkpt><trkpt lat="50.503752" lon="-4.004573"><ele>189.0</ele></trkpt><trkpt lat="50.503681" lon="-4.004017"><ele>194.0</ele></trkpt><trkpt lat="50.50345" lon="-4.004488"><ele>189.0</ele></trkpt><trkpt lat="50.502576" lon="-4.004475"><ele>172.0</ele></trkpt><trkpt lat="50.502042" lon="-4.004212"><ele>166.0</ele></trkpt><trkpt lat="50.50143" lon="-4.003548"><ele>160.0</ele></trkpt><trkpt lat="50.501547" lon="-4.00449"><ele>153.0</ele></trkpt><trkpt lat="50.500802" lon="-4.005584"><ele>139.0</ele></trkpt><trkpt lat="50.500208" lon="-4.005295"><ele>148.0</ele></trkpt><trkpt lat="50.499782" lon="-4.005462"><ele>146.0</ele></trkpt><trkpt lat="50.499478" lon="-4.006132"><ele>147.0</ele></trkpt><trkpt lat="50.498759" lon="-4.006593"><ele>168.0</ele></trkpt><trkpt lat="50.498106" lon="-4.006785"><ele>180.0</ele></trkpt><trkpt lat="50.497456" lon="-4.006306"><ele>186.0</ele></trkpt><trkpt lat="50.497493" lon="-4.005882"><ele>188.0</ele></trkpt><trkpt lat="50.496246" lon="-4.003983"><ele>195.0</ele></trkpt><trkpt lat="50.493965" lon="-4.002079"><ele>202.0</ele></trkpt><trkpt lat="50.493328" lon="-4.002334"><ele>202.0</ele></trkpt><trkpt lat="50.491425" lon="-4.002243"><ele>202.0</ele></trkpt><trkpt lat="50.490487" lon="-4.00201"><ele>202.0</ele></trkpt><trkpt lat="50.489413" lon="-4.001454"><ele>203.0</ele></trkpt><trkpt lat="50.488621" lon="-4.002706"><ele>193.0</ele></trkpt><trkpt lat="50.488395" lon="-4.004488"><ele>183.0</ele></trkpt></trkseg></trk></gpx>