<gpx version="1.1" creator="Your Creator Name"><trk><trkseg><trkpt lat="50.544439" lon="-3.862755"><ele>343.0</ele></trkpt><trkpt lat="50.543888" lon="-3.86171"><ele>319.0</ele></trkpt><trkpt lat="50.543906" lon="-3.860846"><ele>302.0</ele></trkpt><trkpt lat="50.543573" lon="-3.860317"><ele>286.0</ele></trkpt><trkpt lat="50.543437" lon="-3.859196"><ele>314.0</ele></trkpt><trkpt lat="50.542324" lon="-3.856639"><ele>329.0</ele></trkpt><trkpt lat="50.541908" lon="-3.854144"><ele>352.0</ele></trkpt><trkpt lat="50.542275" lon="-3.851851"><ele>318.0</ele></trkpt><trkpt lat="50.542182" lon="-3.850872"><ele>305.0</ele></trkpt><trkpt lat="50.542312" lon="-3.850543"><ele>309.0</ele></trkpt><trkpt lat="50.542875" lon="-3.850229"><ele>317.0</ele></trkpt><trkpt lat="50.543189" lon="-3.849536"><ele>325.0</ele></trkpt><trkpt lat="50.543521" lon="-3.849272"><ele>329.0</ele></trkpt><trkpt lat="50.543883" lon="-3.850287"><ele>326.0</ele></trkpt><trkpt lat="50.544443" lon="-3.849668"><ele>338.0</ele></trkpt><trkpt lat="50.545339" lon="-3.849554"><ele>340.0</ele></trkpt><trkpt lat="50.545932" lon="-3.849832"><ele>343.0</ele></trkpt><trkpt lat="50.546017" lon="-3.849701"><ele>346.0</ele></trkpt><trkpt lat="50.546541" lon="-3.849777"><ele>346.0</ele></trkpt><trkpt lat="50.54738" lon="-3.849636"><ele>346.0</ele></trkpt><trkpt lat="50.548124" lon="-3.851978"><ele>350.0</ele></trkpt><trkpt lat="50.549824" lon="-3.853003"><ele>372.0</ele></trkpt><trkpt lat="50.551035" lon="-3.854026"><ele>397.0</ele></trkpt><trkpt lat="50.55151" lon="-3.854698"><ele>408.0</ele></trkpt><trkpt lat="50.55213" lon="-3.85484"><ele>404.0</ele></trkpt><trkpt lat="50.552179" lon="-3.855858"><ele>412.0</ele></trkpt><trkpt lat="50.552349" lon="-3.856218"><ele>421.0</ele></trkpt><trkpt lat="50.552667" lon="-3.856246"><ele>416.0</ele></trkpt><trkpt lat="50.551983" lon="-3.856653"><ele>387.0</ele></trkpt><trkpt lat="50.551386" lon="-3.857438"><ele>414.0</ele></trkpt><trkpt lat="50.54988" lon="-3.860107"><ele>383.0</ele></trkpt><trkpt lat="50.549679" lon="-3.861495"><ele>369.0</ele></trkpt><trkpt lat="50.550025" lon="-3.862544"><ele>370.0</ele></trkpt><trkpt lat="50.550251" lon="-3.864065"><ele>359.0</ele></trkpt><trkpt lat="50.550206" lon="-3.866511"><ele>422.0</ele></trkpt><trkpt lat="50.549482" lon="-3.865592"><ele>403.0</ele></trkpt><trkpt lat="50.548922" lon="-3.865238"><ele>386.0</ele></trkpt><trkpt lat="50.548181" lon="-3.864146"><ele>377.0</ele></trkpt><trkpt lat="50.547418" lon="-3.863508"><ele>369.0</ele></trkpt><trkpt lat="50.545691" lon="-3.863154"><ele>353.0</ele></trkpt><trkpt lat="50.545297" lon="-3.863202"><ele>350.0</ele></trkpt><trkpt lat="50.544461" lon="-3.862783"><ele>337.0</ele></trkpt></trkseg></trk></gpx>