<gpx version="1.1" creator="Your Creator Name"><trk><trkseg><trkpt lat="50.246322" lon="-3.858388"><ele>9.0</ele></trkpt><trkpt lat="50.245984" lon="-3.858835"><ele>6.73</ele></trkpt><trkpt lat="50.245359" lon="-3.85921"><ele>7.0</ele></trkpt><trkpt lat="50.244815" lon="-3.859172"><ele>4.0</ele></trkpt><trkpt lat="50.244493" lon="-3.85885"><ele>8.93</ele></trkpt><trkpt lat="50.243814" lon="-3.858795"><ele>15.33</ele></trkpt><trkpt lat="50.243876" lon="-3.85691"><ele>43.06</ele></trkpt><trkpt lat="50.24477" lon="-3.850774"><ele>74.0</ele></trkpt><trkpt lat="50.244475" lon="-3.848398"><ele>83.0</ele></trkpt><trkpt lat="50.244894" lon="-3.843076"><ele>88.4</ele></trkpt><trkpt lat="50.245019" lon="-3.839762"><ele>93.0</ele></trkpt><trkpt lat="50.244899" lon="-3.837494"><ele>94.0</ele></trkpt><trkpt lat="50.243942" lon="-3.837827"><ele>83.0</ele></trkpt><trkpt lat="50.243367" lon="-3.837126"><ele>70.8</ele></trkpt><trkpt lat="50.24335" lon="-3.835949"><ele>68.0</ele></trkpt><trkpt lat="50.242913" lon="-3.835801"><ele>71.0</ele></trkpt><trkpt lat="50.242383" lon="-3.836364"><ele>69.6</ele></trkpt><trkpt lat="50.241692" lon="-3.835774"><ele>65.0</ele></trkpt><trkpt lat="50.241267" lon="-3.836069"><ele>58.8</ele></trkpt><trkpt lat="50.240667" lon="-3.837196"><ele>55.0</ele></trkpt><trkpt lat="50.24037" lon="-3.83738"><ele>53.4</ele></trkpt><trkpt lat="50.239856" lon="-3.837237"><ele>60.0</ele></trkpt><trkpt lat="50.238726" lon="-3.837472"><ele>71.0</ele></trkpt><trkpt lat="50.238331" lon="-3.837223"><ele>74.0</ele></trkpt><trkpt lat="50.237997" lon="-3.837581"><ele>81.66</ele></trkpt><trkpt lat="50.236813" lon="-3.837176"><ele>97.73</ele></trkpt><trkpt lat="50.235699" lon="-3.83719"><ele>116.73</ele></trkpt><trkpt lat="50.235041" lon="-3.837292"><ele>124.06</ele></trkpt><trkpt lat="50.234587" lon="-3.837568"><ele>128.0</ele></trkpt><trkpt lat="50.232154" lon="-3.839845"><ele>125.0</ele></trkpt><trkpt lat="50.232478" lon="-3.840843"><ele>126.13</ele></trkpt><trkpt lat="50.232058" lon="-3.841781"><ele>125.73</ele></trkpt><trkpt lat="50.232005" lon="-3.842343"><ele>127.0</ele></trkpt><trkpt lat="50.231627" lon="-3.842662"><ele>127.0</ele></trkpt><trkpt lat="50.231564" lon="-3.843032"><ele>126.33</ele></trkpt><trkpt lat="50.231783" lon="-3.843863"><ele>119.8</ele></trkpt><trkpt lat="50.231801" lon="-3.845755"><ele>120.2</ele></trkpt><trkpt lat="50.232007" lon="-3.846607"><ele>118.33</ele></trkpt><trkpt lat="50.232841" lon="-3.848154"><ele>120.13</ele></trkpt><trkpt lat="50.233655" lon="-3.849131"><ele>120.73</ele></trkpt><trkpt lat="50.23406" lon="-3.850554"><ele>122.73</ele></trkpt><trkpt lat="50.2347" lon="-3.851388"><ele>113.4</ele></trkpt><trkpt lat="50.235243" lon="-3.85276"><ele>103.4</ele></trkpt><trkpt lat="50.235543" lon="-3.854343"><ele>90.73</ele></trkpt><trkpt lat="50.23513" lon="-3.856872"><ele>82.73</ele></trkpt><trkpt lat="50.235197" lon="-3.857386"><ele>83.0</ele></trkpt><trkpt lat="50.234928" lon="-3.85754"><ele>79.0</ele></trkpt><trkpt lat="50.235224" lon="-3.857424"><ele>83.0</ele></trkpt><trkpt lat="50.2357" lon="-3.859404"><ele>77.0</ele></trkpt><trkpt lat="50.236582" lon="-3.860693"><ele>75.0</ele></trkpt><trkpt lat="50.23757" lon="-3.861492"><ele>66.0</ele></trkpt><trkpt lat="50.237886" lon="-3.862814"><ele>55.4</ele></trkpt><trkpt lat="50.237849" lon="-3.863309"><ele>56.4</ele></trkpt><trkpt lat="50.238108" lon="-3.863209"><ele>66.0</ele></trkpt><trkpt lat="50.238402" lon="-3.863934"><ele>73.6</ele></trkpt><trkpt lat="50.238958" lon="-3.864711"><ele>71.66</ele></trkpt><trkpt lat="50.239112" lon="-3.865397"><ele>68.19</ele></trkpt><trkpt lat="50.239736" lon="-3.865959"><ele>66.53</ele></trkpt><trkpt lat="50.240701" lon="-3.866227"><ele>50.0</ele></trkpt><trkpt lat="50.241393" lon="-3.865402"><ele>31.0</ele></trkpt><trkpt lat="50.241805" lon="-3.863618"><ele>29.4</ele></trkpt><trkpt lat="50.242383" lon="-3.862197"><ele>18.0</ele></trkpt><trkpt lat="50.24208" lon="-3.859382"><ele>2.33</ele></trkpt><trkpt lat="50.24227" lon="-3.859306"><ele>2.0</ele></trkpt><trkpt lat="50.242158" lon="-3.859418"><ele>2.0</ele></trkpt><trkpt lat="50.242366" lon="-3.859785"><ele>0.2</ele></trkpt><trkpt lat="50.243087" lon="-3.859769"><ele>0.2</ele></trkpt><trkpt lat="50.243469" lon="-3.859485"><ele>0.2</ele></trkpt><trkpt lat="50.243809" lon="-3.859462"><ele>0.2</ele></trkpt><trkpt lat="50.243753" lon="-3.859146"><ele>1.0</ele></trkpt><trkpt lat="50.243754" lon="-3.859879"><ele>0.13</ele></trkpt><trkpt lat="50.243755" lon="-3.859166"><ele>1.0</ele></trkpt><trkpt lat="50.243878" lon="-3.859387"><ele>0.06</ele></trkpt><trkpt lat="50.244579" lon="-3.859586"><ele>0.06</ele></trkpt><trkpt lat="50.24523" lon="-3.859336"><ele>3.0</ele></trkpt><trkpt lat="50.24523" lon="-3.859336"><ele>3.0</ele></trkpt></trkseg></trk></gpx>