<gpx version="1.1" creator="Your Creator Name"><trk><trkseg><trkpt lat="50.523587" lon="-3.819761"><ele>48.0</ele></trkpt><trkpt lat="50.523296" lon="-3.818705"><ele>46.0</ele></trkpt><trkpt lat="50.523102" lon="-3.818854"><ele>46.0</ele></trkpt><trkpt lat="50.522434" lon="-3.818868"><ele>49.0</ele></trkpt><trkpt lat="50.521765" lon="-3.819197"><ele>48.0</ele></trkpt><trkpt lat="50.521439" lon="-3.819537"><ele>48.0</ele></trkpt><trkpt lat="50.521197" lon="-3.819529"><ele>49.0</ele></trkpt><trkpt lat="50.5204" lon="-3.81997"><ele>43.0</ele></trkpt><trkpt lat="50.518613" lon="-3.81974"><ele>44.0</ele></trkpt><trkpt lat="50.517453" lon="-3.820556"><ele>54.0</ele></trkpt><trkpt lat="50.516569" lon="-3.821969"><ele>52.0</ele></trkpt><trkpt lat="50.516374" lon="-3.822577"><ele>52.0</ele></trkpt><trkpt lat="50.516581" lon="-3.824829"><ele>51.0</ele></trkpt><trkpt lat="50.516457" lon="-3.825794"><ele>51.0</ele></trkpt><trkpt lat="50.516162" lon="-3.826586"><ele>58.0</ele></trkpt><trkpt lat="50.516072" lon="-3.8284"><ele>79.0</ele></trkpt><trkpt lat="50.516624" lon="-3.829325"><ele>64.0</ele></trkpt><trkpt lat="50.517122" lon="-3.829757"><ele>55.0</ele></trkpt><trkpt lat="50.517732" lon="-3.831173"><ele>57.0</ele></trkpt><trkpt lat="50.518281" lon="-3.831463"><ele>56.0</ele></trkpt><trkpt lat="50.518653" lon="-3.832252"><ele>58.0</ele></trkpt><trkpt lat="50.519148" lon="-3.832489"><ele>59.0</ele></trkpt><trkpt lat="50.520503" lon="-3.834215"><ele>62.0</ele></trkpt><trkpt lat="50.520549" lon="-3.834471"><ele>62.0</ele></trkpt><trkpt lat="50.520748" lon="-3.834633"><ele>62.0</ele></trkpt><trkpt lat="50.521467" lon="-3.834478"><ele>66.0</ele></trkpt><trkpt lat="50.523399" lon="-3.836959"><ele>76.0</ele></trkpt><trkpt lat="50.523579" lon="-3.836907"><ele>76.0</ele></trkpt><trkpt lat="50.524766" lon="-3.837711"><ele>92.0</ele></trkpt><trkpt lat="50.526195" lon="-3.837733"><ele>86.0</ele></trkpt><trkpt lat="50.526854" lon="-3.837468"><ele>81.0</ele></trkpt><trkpt lat="50.527272" lon="-3.837723"><ele>81.0</ele></trkpt><trkpt lat="50.527573" lon="-3.838292"><ele>92.0</ele></trkpt><trkpt lat="50.528132" lon="-3.838519"><ele>91.0</ele></trkpt><trkpt lat="50.529374" lon="-3.839793"><ele>90.0</ele></trkpt><trkpt lat="50.529987" lon="-3.840263"><ele>85.0</ele></trkpt><trkpt lat="50.530057" lon="-3.840173"><ele>84.0</ele></trkpt><trkpt lat="50.529943" lon="-3.84033"><ele>83.0</ele></trkpt><trkpt lat="50.530079" lon="-3.840196"><ele>81.0</ele></trkpt><trkpt lat="50.529425" lon="-3.83981"><ele>89.0</ele></trkpt><trkpt lat="50.52843" lon="-3.838608"><ele>87.0</ele></trkpt><trkpt lat="50.527651" lon="-3.838182"><ele>87.0</ele></trkpt><trkpt lat="50.527068" lon="-3.837526"><ele>81.0</ele></trkpt><trkpt lat="50.52564" lon="-3.83774"><ele>85.0</ele></trkpt><trkpt lat="50.524983" lon="-3.837657"><ele>85.0</ele></trkpt><trkpt lat="50.523861" lon="-3.837023"><ele>74.0</ele></trkpt><trkpt lat="50.523539" lon="-3.837058"><ele>73.0</ele></trkpt><trkpt lat="50.521634" lon="-3.834493"><ele>65.0</ele></trkpt><trkpt lat="50.521382" lon="-3.83441"><ele>63.0</ele></trkpt><trkpt lat="50.520925" lon="-3.83465"><ele>60.0</ele></trkpt><trkpt lat="50.5207" lon="-3.834589"><ele>59.0</ele></trkpt><trkpt lat="50.519177" lon="-3.832454"><ele>55.0</ele></trkpt><trkpt lat="50.518557" lon="-3.832089"><ele>55.0</ele></trkpt><trkpt lat="50.518361" lon="-3.831594"><ele>55.0</ele></trkpt><trkpt lat="50.517551" lon="-3.830915"><ele>54.0</ele></trkpt><trkpt lat="50.517158" lon="-3.829756"><ele>55.0</ele></trkpt><trkpt lat="50.516828" lon="-3.829556"><ele>58.0</ele></trkpt><trkpt lat="50.51615" lon="-3.828478"><ele>76.0</ele></trkpt><trkpt lat="50.516194" lon="-3.826821"><ele>52.0</ele></trkpt><trkpt lat="50.516527" lon="-3.825007"><ele>47.0</ele></trkpt><trkpt lat="50.516321" lon="-3.822841"><ele>48.0</ele></trkpt><trkpt lat="50.516465" lon="-3.822311"><ele>51.0</ele></trkpt><trkpt lat="50.517289" lon="-3.820945"><ele>50.0</ele></trkpt><trkpt lat="50.517686" lon="-3.820476"><ele>46.0</ele></trkpt><trkpt lat="50.518541" lon="-3.819979"><ele>45.0</ele></trkpt><trkpt lat="50.520743" lon="-3.819916"><ele>44.0</ele></trkpt><trkpt lat="50.522485" lon="-3.818857"><ele>39.0</ele></trkpt><trkpt lat="50.523325" lon="-3.8188"><ele>38.0</ele></trkpt><trkpt lat="50.523526" lon="-3.819479"><ele>39.0</ele></trkpt><trkpt lat="50.523402" lon="-3.819859"><ele>40.0</ele></trkpt></trkseg></trk></gpx>