<gpx version="1.1" creator="Your Creator Name"><trk><trkseg><trkpt lat="50.637563" lon="-3.900526"><ele>251.0</ele></trkpt><trkpt lat="50.638378" lon="-3.902073"><ele>267.0</ele></trkpt><trkpt lat="50.638448" lon="-3.902811"><ele>257.0</ele></trkpt><trkpt lat="50.639055" lon="-3.904891"><ele>272.0</ele></trkpt><trkpt lat="50.63902" lon="-3.905717"><ele>269.0</ele></trkpt><trkpt lat="50.638442" lon="-3.906279"><ele>276.0</ele></trkpt><trkpt lat="50.637726" lon="-3.907852"><ele>280.0</ele></trkpt><trkpt lat="50.635043" lon="-3.90794"><ele>298.0</ele></trkpt><trkpt lat="50.634462" lon="-3.90868"><ele>310.0</ele></trkpt><trkpt lat="50.633691" lon="-3.91031"><ele>298.0</ele></trkpt><trkpt lat="50.633918" lon="-3.912014"><ele>295.0</ele></trkpt><trkpt lat="50.633596" lon="-3.912763"><ele>295.0</ele></trkpt><trkpt lat="50.633585" lon="-3.913423"><ele>291.0</ele></trkpt><trkpt lat="50.632918" lon="-3.913616"><ele>300.0</ele></trkpt><trkpt lat="50.631701" lon="-3.914765"><ele>308.0</ele></trkpt><trkpt lat="50.631805" lon="-3.915747"><ele>324.0</ele></trkpt><trkpt lat="50.632044" lon="-3.916171"><ele>336.0</ele></trkpt><trkpt lat="50.63185" lon="-3.916674"><ele>342.0</ele></trkpt><trkpt lat="50.631985" lon="-3.917779"><ele>347.0</ele></trkpt><trkpt lat="50.631881" lon="-3.919048"><ele>353.0</ele></trkpt><trkpt lat="50.632506" lon="-3.92113"><ele>372.0</ele></trkpt><trkpt lat="50.632223" lon="-3.923702"><ele>367.0</ele></trkpt><trkpt lat="50.631759" lon="-3.925973"><ele>372.0</ele></trkpt><trkpt lat="50.631844" lon="-3.926247"><ele>373.0</ele></trkpt><trkpt lat="50.632139" lon="-3.926219"><ele>375.0</ele></trkpt><trkpt lat="50.63186" lon="-3.926295"><ele>371.0</ele></trkpt><trkpt lat="50.630678" lon="-3.925319"><ele>369.0</ele></trkpt><trkpt lat="50.629249" lon="-3.924705"><ele>358.0</ele></trkpt><trkpt lat="50.627823" lon="-3.92505"><ele>352.0</ele></trkpt><trkpt lat="50.627455" lon="-3.924484"><ele>351.0</ele></trkpt><trkpt lat="50.626568" lon="-3.923713"><ele>345.0</ele></trkpt><trkpt lat="50.625387" lon="-3.918995"><ele>363.0</ele></trkpt><trkpt lat="50.623903" lon="-3.914728"><ele>393.0</ele></trkpt><trkpt lat="50.623857" lon="-3.91194"><ele>398.0</ele></trkpt><trkpt lat="50.623182" lon="-3.909199"><ele>395.0</ele></trkpt><trkpt lat="50.623154" lon="-3.907854"><ele>394.0</ele></trkpt><trkpt lat="50.622396" lon="-3.906309"><ele>377.0</ele></trkpt><trkpt lat="50.622002" lon="-3.904089"><ele>355.0</ele></trkpt><trkpt lat="50.620516" lon="-3.902106"><ele>340.0</ele></trkpt><trkpt lat="50.620299" lon="-3.901359"><ele>335.0</ele></trkpt><trkpt lat="50.620081" lon="-3.899572"><ele>329.0</ele></trkpt><trkpt lat="50.620444" lon="-3.898543"><ele>325.0</ele></trkpt><trkpt lat="50.620954" lon="-3.897858"><ele>317.0</ele></trkpt><trkpt lat="50.621011" lon="-3.896195"><ele>314.0</ele></trkpt><trkpt lat="50.621328" lon="-3.8948"><ele>337.0</ele></trkpt><trkpt lat="50.624299" lon="-3.89438"><ele>338.0</ele></trkpt><trkpt lat="50.626961" lon="-3.894272"><ele>334.0</ele></trkpt><trkpt lat="50.627904" lon="-3.89441"><ele>327.0</ele></trkpt><trkpt lat="50.630734" lon="-3.893059"><ele>319.0</ele></trkpt><trkpt lat="50.631001" lon="-3.893119"><ele>318.0</ele></trkpt><trkpt lat="50.632338" lon="-3.893952"><ele>309.0</ele></trkpt><trkpt lat="50.632516" lon="-3.893877"><ele>308.0</ele></trkpt><trkpt lat="50.632789" lon="-3.894193"><ele>304.0</ele></trkpt><trkpt lat="50.634214" lon="-3.894981"><ele>288.0</ele></trkpt><trkpt lat="50.636089" lon="-3.895528"><ele>262.0</ele></trkpt><trkpt lat="50.635914" lon="-3.896606"><ele>250.0</ele></trkpt><trkpt lat="50.636189" lon="-3.895593"><ele>261.0</ele></trkpt><trkpt lat="50.635878" lon="-3.896581"><ele>254.0</ele></trkpt><trkpt lat="50.634947" lon="-3.897431"><ele>253.0</ele></trkpt><trkpt lat="50.63553" lon="-3.897734"><ele>248.0</ele></trkpt><trkpt lat="50.63582" lon="-3.898297"><ele>244.0</ele></trkpt><trkpt lat="50.636217" lon="-3.898271"><ele>242.0</ele></trkpt><trkpt lat="50.636777" lon="-3.897514"><ele>248.0</ele></trkpt><trkpt lat="50.636781" lon="-3.898581"><ele>242.0</ele></trkpt><trkpt lat="50.637184" lon="-3.900237"><ele>239.0</ele></trkpt><trkpt lat="50.637363" lon="-3.900302"><ele>242.0</ele></trkpt></trkseg></trk></gpx>