<gpx version="1.1" creator="Your Creator Name"><trk><trkseg><trkpt lat="50.723095" lon="-3.956451"><ele>266.0</ele></trkpt><trkpt lat="50.723763" lon="-3.955673"><ele>243.0</ele></trkpt><trkpt lat="50.722916" lon="-3.955278"><ele>242.0</ele></trkpt><trkpt lat="50.722949" lon="-3.955127"><ele>235.0</ele></trkpt><trkpt lat="50.723501" lon="-3.954868"><ele>230.0</ele></trkpt><trkpt lat="50.723315" lon="-3.954725"><ele>231.0</ele></trkpt><trkpt lat="50.723099" lon="-3.954049"><ele>235.0</ele></trkpt><trkpt lat="50.722422" lon="-3.950867"><ele>274.0</ele></trkpt><trkpt lat="50.720753" lon="-3.948854"><ele>308.0</ele></trkpt><trkpt lat="50.720323" lon="-3.948682"><ele>315.0</ele></trkpt><trkpt lat="50.719415" lon="-3.948713"><ele>323.0</ele></trkpt><trkpt lat="50.718727" lon="-3.948443"><ele>330.0</ele></trkpt><trkpt lat="50.717807" lon="-3.947136"><ele>345.0</ele></trkpt><trkpt lat="50.717014" lon="-3.946471"><ele>349.0</ele></trkpt><trkpt lat="50.716713" lon="-3.945629"><ele>355.0</ele></trkpt><trkpt lat="50.716675" lon="-3.94501"><ele>362.0</ele></trkpt><trkpt lat="50.716176" lon="-3.944341"><ele>365.0</ele></trkpt><trkpt lat="50.71579" lon="-3.943443"><ele>371.0</ele></trkpt><trkpt lat="50.715718" lon="-3.942173"><ele>375.0</ele></trkpt><trkpt lat="50.715174" lon="-3.941588"><ele>371.0</ele></trkpt><trkpt lat="50.715094" lon="-3.940789"><ele>386.0</ele></trkpt><trkpt lat="50.714841" lon="-3.940478"><ele>386.0</ele></trkpt><trkpt lat="50.714643" lon="-3.93977"><ele>390.0</ele></trkpt><trkpt lat="50.71535" lon="-3.939432"><ele>385.0</ele></trkpt><trkpt lat="50.71582" lon="-3.93893"><ele>393.0</ele></trkpt><trkpt lat="50.716" lon="-3.937715"><ele>401.0</ele></trkpt><trkpt lat="50.715438" lon="-3.936613"><ele>406.0</ele></trkpt><trkpt lat="50.714617" lon="-3.936426"><ele>419.0</ele></trkpt><trkpt lat="50.713955" lon="-3.936069"><ele>431.0</ele></trkpt><trkpt lat="50.713621" lon="-3.935691"><ele>440.0</ele></trkpt><trkpt lat="50.71283" lon="-3.935862"><ele>446.0</ele></trkpt><trkpt lat="50.711078" lon="-3.935724"><ele>450.0</ele></trkpt><trkpt lat="50.710155" lon="-3.936029"><ele>455.0</ele></trkpt><trkpt lat="50.709232" lon="-3.935792"><ele>469.0</ele></trkpt><trkpt lat="50.708853" lon="-3.93517"><ele>478.0</ele></trkpt><trkpt lat="50.708487" lon="-3.935179"><ele>481.0</ele></trkpt><trkpt lat="50.708096" lon="-3.934731"><ele>493.0</ele></trkpt><trkpt lat="50.707037" lon="-3.932937"><ele>508.0</ele></trkpt><trkpt lat="50.705746" lon="-3.933479"><ele>499.0</ele></trkpt><trkpt lat="50.704634" lon="-3.933533"><ele>486.0</ele></trkpt><trkpt lat="50.702319" lon="-3.93405"><ele>458.0</ele></trkpt><trkpt lat="50.700742" lon="-3.934812"><ele>448.0</ele></trkpt><trkpt lat="50.69995" lon="-3.934849"><ele>445.0</ele></trkpt><trkpt lat="50.699638" lon="-3.935114"><ele>447.0</ele></trkpt><trkpt lat="50.698563" lon="-3.93532"><ele>435.0</ele></trkpt><trkpt lat="50.696842" lon="-3.93604"><ele>433.0</ele></trkpt><trkpt lat="50.695012" lon="-3.936289"><ele>440.0</ele></trkpt><trkpt lat="50.692186" lon="-3.937173"><ele>443.0</ele></trkpt><trkpt lat="50.690889" lon="-3.937247"><ele>435.0</ele></trkpt><trkpt lat="50.690062" lon="-3.937053"><ele>428.0</ele></trkpt><trkpt lat="50.689976" lon="-3.936992"><ele>427.0</ele></trkpt><trkpt lat="50.690149" lon="-3.93692"><ele>427.0</ele></trkpt><trkpt lat="50.6901" lon="-3.937068"><ele>427.0</ele></trkpt><trkpt lat="50.689914" lon="-3.936988"><ele>428.0</ele></trkpt><trkpt lat="50.69014" lon="-3.937355"><ele>423.0</ele></trkpt><trkpt lat="50.6903" lon="-3.938328"><ele>428.0</ele></trkpt><trkpt lat="50.690592" lon="-3.938861"><ele>422.0</ele></trkpt><trkpt lat="50.691236" lon="-3.939386"><ele>387.0</ele></trkpt><trkpt lat="50.691778" lon="-3.939565"><ele>411.0</ele></trkpt><trkpt lat="50.69313" lon="-3.940639"><ele>391.0</ele></trkpt><trkpt lat="50.694251" lon="-3.941298"><ele>377.0</ele></trkpt><trkpt lat="50.695408" lon="-3.943088"><ele>371.0</ele></trkpt><trkpt lat="50.696752" lon="-3.944506"><ele>359.0</ele></trkpt><trkpt lat="50.698224" lon="-3.945528"><ele>344.0</ele></trkpt><trkpt lat="50.699841" lon="-3.947506"><ele>332.0</ele></trkpt><trkpt lat="50.704115" lon="-3.947022"><ele>390.0</ele></trkpt><trkpt lat="50.707436" lon="-3.945797"><ele>381.0</ele></trkpt><trkpt lat="50.707987" lon="-3.945754"><ele>376.0</ele></trkpt><trkpt lat="50.708785" lon="-3.945227"><ele>374.0</ele></trkpt><trkpt lat="50.70904" lon="-3.945234"><ele>381.0</ele></trkpt><trkpt lat="50.710387" lon="-3.944561"><ele>374.0</ele></trkpt><trkpt lat="50.711735" lon="-3.944647"><ele>371.0</ele></trkpt><trkpt lat="50.712765" lon="-3.944493"><ele>374.0</ele></trkpt><trkpt lat="50.714723" lon="-3.945748"><ele>364.0</ele></trkpt><trkpt lat="50.715341" lon="-3.945556"><ele>349.0</ele></trkpt><trkpt lat="50.715947" lon="-3.945684"><ele>355.0</ele></trkpt><trkpt lat="50.716407" lon="-3.946609"><ele>346.0</ele></trkpt><trkpt lat="50.71664" lon="-3.946455"><ele>343.0</ele></trkpt><trkpt lat="50.716883" lon="-3.946638"><ele>319.0</ele></trkpt><trkpt lat="50.717021" lon="-3.946445"><ele>341.0</ele></trkpt><trkpt lat="50.717353" lon="-3.946516"><ele>339.0</ele></trkpt><trkpt lat="50.718735" lon="-3.948344"><ele>319.0</ele></trkpt><trkpt lat="50.719488" lon="-3.948624"><ele>312.0</ele></trkpt><trkpt lat="50.720573" lon="-3.948631"><ele>300.0</ele></trkpt><trkpt lat="50.722053" lon="-3.950262"><ele>274.0</ele></trkpt><trkpt lat="50.722488" lon="-3.950946"><ele>254.0</ele></trkpt><trkpt lat="50.72266" lon="-3.951985"><ele>241.0</ele></trkpt><trkpt lat="50.722904" lon="-3.952268"><ele>235.0</ele></trkpt><trkpt lat="50.722767" lon="-3.952867"><ele>231.0</ele></trkpt><trkpt lat="50.723421" lon="-3.95473"><ele>218.0</ele></trkpt><trkpt lat="50.723365" lon="-3.954978"><ele>221.0</ele></trkpt><trkpt lat="50.72292" lon="-3.955252"><ele>221.0</ele></trkpt><trkpt lat="50.723965" lon="-3.955684"><ele>243.0</ele></trkpt><trkpt lat="50.725143" lon="-3.957665"><ele>255.0</ele></trkpt><trkpt lat="50.725103" lon="-3.957796"><ele>255.0</ele></trkpt><trkpt lat="50.724964" lon="-3.957422"><ele>254.0</ele></trkpt><trkpt lat="50.72488" lon="-3.957503"><ele>254.0</ele></trkpt><trkpt lat="50.724979" lon="-3.957462"><ele>254.0</ele></trkpt></trkseg></trk></gpx>